ID;NOM;TYPE;PROP_VEGE_HAUTE;ADRESSE;ARRONDISSEMENT;OUVERTURE;OUVERTURE_24H;OUVERTURE_CANICULE;HORAIRES_LUNDI;HORAIRES_MARDI;HORAIRES_MERCREDI;HORAIRES_JEUDI;HORAIRES_VENDREDI;HORAIRES_SAMEDI;HORAIRES_DIMANCHE;LATITUDE;LONGITUDE
1;PROMENADE RICHARD LENOIR  SQUARE BREGUET-SABIN (PROMENADE CLAIRE LACOMBE);Promenades ouvertes;30.906618;35   BOULEVARD RICHARD LENOIR;75011;Ouvert;Non;Non;08:00 - 18:00;08:00 - 18:00;08:00 - 18:00;08:00 - 18:00;08:00 - 18:00;09:00 - 18:00;09:00 - 18:00;48.8572305032;2.37098358914
2;CIMETIERE DE L'EST PARISIEN DIT DU PÈRE LACHAISE;Cimetières;41.003679999999996;16   RUE DU REPOS;75020;Ouvert;Non;Non;08:00 - 17:30;08:00 - 17:30;08:00 - 17:30;08:00 - 17:30;08:00 - 17:30;08:30 - 17:30;09:00 - 17:30;48.8610496235;2.39428572743
3;CIMETIERE DE CHARONNE;Cimetières;16.530224;119, rue de Bagnolet;75020;Fermé;Non;Non;;;;;;;;48.8607183537;2.40367389809
4;SQUARE JEAN PERRIN;Promenades ouvertes;3.1988570000000003;2   AVENUE FRANKLIN D ROOSEVELT;75008;;Oui;Non;;;;;;;;48.8668940283;2.31162852557
5;SQUARE DU DONJON;Promenades ouvertes;54.469531;9  ROUTE DE LA  DAME BLANCHE;75012;;Non;Non;;;;;;;;48.8448257342;2.4431708283
6;JARDIN DE L'AVENUE FOCH - PELOUSE 19;Promenades ouvertes;30.431379999999997;10 AV FOCH;75016;Ouvert;Oui;Non;00:00 - 23:59;00:00 - 23:59;00:00 - 23:59;00:00 - 23:59;00:00 - 23:59;00:00 - 23:59;00:00 - 23:59;48.8718736031;2.28015611675
7;SQUARE D'ANVERS;Promenades ouvertes;10.921619;3 PL ANVERS;75009;Ouvert;Non;Non;08:00 - 19:00;08:00 - 19:00;08:00 - 19:00;08:00 - 19:00;08:00 - 19:00;09:00 - 19:00;09:00 - 19:00;48.8821747669;2.34437716381
8;JARDIN ANNE FRANK (HOTEL SAINT-AIGNAN);Promenades ouvertes;2.722954;16 IMP BERTHAUD;75003;Ouvert;Non;Non;10:00 - 19:00;10:00 - 19:00;10:00 - 19:00;10:00 - 19:00;10:00 - 19:00;10:00 - 19:00;10:00 - 19:00;48.8616027681;2.35494715108
9;JARDIN DE L'INTENDANT;Promenades ouvertes;12.545893;2 AV TOURVILLE;75007;Ouvert;Non;Non;07:30 - 18:30;07:30 - 18:30;07:30 - 18:30;07:30 - 18:30;07:30 - 18:30;09:00 - 18:30;09:00 - 18:30;48.8544993253;2.31083932575
10;JARDIN DES COLONNES;Promenades ouvertes;0.0;2 PL SEOUL;75014;Ouvert;Non;Non;07:00 - 19:00;07:00 - 19:00;07:00 - 19:00;07:00 - 19:00;07:00 - 19:00;07:00 - 19:00;07:00 - 19:00;48.8363208059;2.31814238722
11;Bois de Vincennes;Bois;88.31705400000001;;75012;Ouvert;Non;Non;00:00 - 23:59;00:00 - 23:59;00:00 - 23:59;00:00 - 23:59;00:00 - 23:59;00:00 - 23:59;00:00 - 23:59;48.8244025428;2.4285069357
12;CIMETIÈRE DE MONTROUGE;Cimetières non parisiens;10.043694;;75014;;Non;Non;;;;;;;;48.8225071122;2.31937332498
13;Société Equestre de l'Etrier;Bois;12.506482;Route des Lacs à Madrid;75016;;Non;Non;;;;;;;;48.8727597743;2.25739649492
14;Cercle du Bois de Boulogne;Bois;17.714904;Route de l'Etoile;75016;;Non;Non;;;;;;;;48.8724786218;2.26044182692
15;Le Polo de Bagatelle;Bois;9.282549999999999;Route des Moulins;75016;;Non;Non;;;;;;;;48.8674780792;2.23617440957
16;Concession location de barques;Bois;7.055066999999999;11 v Chemin de Ceinture du Lac Inférieur;75016;;Non;Non;;;;;;;;48.8635188138;2.2593165538
17;SEPE, Les petits navires;Bois;1.6489989999999999;Parc Floral, aire de jeux;75012;;Non;Non;;;;;;;;48.8371200626;2.44992841121
18;COULEE VERTE RENE DUMONT - PROMENADE DE LA RUE DU SAHEL;Promenades ouvertes;47.29154;2 RUE SAHEL;75012;Ouvert;Non;Non;08:00 - 19:00;08:00 - 19:00;08:00 - 19:00;08:00 - 19:00;08:00 - 19:00;09:00 - 19:00;09:00 - 19:00;48.8406793477;2.40472864184
19;PARC ANDRE CITROEN;Promenades ouvertes;15.172322;2 RUE MONTAGNE FAGE;75015;Ouvert;Non;Non;08:00 - 18:00;08:00 - 18:00;08:00 - 18:00;08:00 - 18:00;08:00 - 18:00;09:00 - 18:00;09:00 - 18:00;;
20;;;;;;;;;;;;;;;;;
21;JARDIN RACHMANINOV;Promenades ouvertes;39.158608;20 RUE TRISTAN TZARA;75018;Ouvert;Non;Non;08:00 - 18:00;08:00 - 18:00;08:00 - 18:00;08:00 - 18:00;08:00 - 18:00;09:00 - 18:00;09:00 - 18:00;48.8953270285;2.36426313166
22;Bois de Boulogne;Bois;61.432739999999995;;75016;Ouvert;Non;Non;00:00 - 23:59;00:00 - 23:59;00:00 - 23:59;00:00 - 23:59;00:00 - 23:59;00:00 - 23:59;00:00 - 23:59;;
23;;;;;;;;;;;;;;;;;
24;PLATE-BANDES DU BOULEVARD SERURIER ESPACE CANIN;Promenades ouvertes;40.0;20 BOULEVARD SERURIER;75019;;Non;Non;;;;;;;;48.8784803908;2.40412012154
25;JARDIN ILAN HALIMI (ANC. RUE DE FECAMP - MICHEL BIZOT);Promenades ouvertes;18.433829000000003;54 RUE FECAMP;75012;Ouvert;Non;Non;09:30 - 18:00;09:30 - 18:00;09:30 - 18:00;09:30 - 18:00;09:30 - 18:00;09:00 - 18:00;09:00 - 18:00;48.8360715552;2.40154949205
26;SQUARE DU CHANOINE VIOLLET;Promenades ouvertes;8.124138;27 RUE OLIVIER NOYER;75014;Ouvert;Non;Non;08:00 - 19:00;08:00 - 19:00;08:00 - 19:00;08:00 - 19:00;08:00 - 19:00;09:00 - 19:00;09:00 - 19:00;48.8312691663;2.32064027243
27;Manège du Plateau Bel Air;Bois;0.0;8 w Avenue de Bel Air;75012;;Non;Non;;;;;;;;48.843592538;2.42200600418
28;Bois de Boulogne;Bois;85.85304300000001;;75016;Ouvert;Non;Non;00:00 - 23:59;00:00 - 23:59;00:00 - 23:59;00:00 - 23:59;00:00 - 23:59;00:00 - 23:59;00:00 - 23:59;;
29;;;;;;;;;;;;;;;;;
30;Bois de Boulogne;Bois;47.654137;;75016;Ouvert;Non;Non;00:00 - 23:59;00:00 - 23:59;00:00 - 23:59;00:00 - 23:59;00:00 - 23:59;00:00 - 23:59;00:00 - 23:59;48.8755744178;2.25821518353
31;Bois de Vincennes;Bois;60.4395;;75012;Ouvert;Non;Non;00:00 - 23:59;00:00 - 23:59;00:00 - 23:59;00:00 - 23:59;00:00 - 23:59;00:00 - 23:59;00:00 - 23:59;48.8441043;2.42254997252
32;Bois de Vincennes;Bois;38.278359;;75012;Ouvert;Non;Non;00:00 - 23:59;00:00 - 23:59;00:00 - 23:59;00:00 - 23:59;00:00 - 23:59;00:00 - 23:59;00:00 - 23:59;48.8353039463;2.45518589985
33;JARDIN LEON ZYGUEL;Promenades ouvertes;10.0;77 RUE PIXERECOURT;75020;Ouvert;Non;Non;08:00 - 18:00;08:00 - 18:00;08:00 - 18:00;08:00 - 18:00;08:00 - 18:00;09:00 - 18:00;09:00 - 18:00;48.8744242088;2.39534750324
34;COULEE VERTE RENE DUMONT - PROMENADE DE L'AVENUE EMILE LAURENT;Promenades ouvertes;75.50923900000001;2 AV EMILE LAURENT;75012;Ouvert;Non;Non;08:00 - 19:00;08:00 - 19:00;08:00 - 19:00;08:00 - 19:00;08:00 - 19:00;09:00 - 19:00;09:00 - 19:00;48.8408260286;2.41174162902
35;JARDIN DU MONUMENT RONSARD;Promenades ouvertes;0.0;43 B RUE ECOLES;75005;;Oui;Non;;;;;;;;48.8489958706;2.34633256278
36;Bois de Vincennes;Bois;67.70368500000001;;75012;Ouvert;Non;Non;00:00 - 23:59;00:00 - 23:59;00:00 - 23:59;00:00 - 23:59;00:00 - 23:59;00:00 - 23:59;00:00 - 23:59;48.8329745254;2.42564362108
37;Bois de Vincennes;Bois;94.94104800000001;;75012;Ouvert;Non;Non;00:00 - 23:59;00:00 - 23:59;00:00 - 23:59;00:00 - 23:59;00:00 - 23:59;00:00 - 23:59;00:00 - 23:59;48.8404633835;2.44864699927
38;JARDIN MARIELLE-FRANCO;Promenades ouvertes;10.0;46 RUE D' ALSACE;75010;Ouvert;Non;Non;08:00 - 18:00;08:00 - 18:00;08:00 - 18:00;08:00 - 18:00;08:00 - 18:00;09:00 - 18:00;09:00 - 18:00;48.8790934412;2.35902991352
39;JARDIN NELSON MANDELA;Promenades ouvertes;40.0;32 RUE BERGER;75001;Ouvert;Non;Non;00:00 - 23:59;00:00 - 23:59;00:00 - 23:59;00:00 - 23:59;00:00 - 23:59;00:00 - 23:59;00:00 - 23:59;48.8625729916;2.34452446302
40;Square Pierre SEGHERS;Promenades ouvertes;6.197061000000001;22 RUE HELENE JAKUBOWICZ;75020;Ouvert;Non;Non;08:00 - 18:00;08:00 - 18:00;08:00 - 18:00;08:00 - 18:00;08:00 - 18:00;09:00 - 18:00;09:00 - 18:00;48.8698280622;2.3982502659
41;JARDIN DES GRANDS MOULINS - ABBE PIERRE - JARDIN DE L'AVENUE DE FRANCE;Promenades ouvertes;11.733602;25 RUE MARIE ANDREE LAGROUA WEILL HALLE;75013;Ouvert;Oui;Non;08:00 - 18:00;08:00 - 18:00;08:00 - 18:00;08:00 - 18:00;08:00 - 18:00;09:00 - 18:00;09:00 - 18:00;48.8289592126;2.37925094808
42;PROMENADE JANE ET PAULETTE NARDAL;Promenades ouvertes;26.0;98 RUE DIDOT;75014;Ouvert;Non;Non;08:00 - 18:00;08:00 - 18:00;08:00 - 18:00;08:00 - 18:00;08:00 - 18:00;09:00 - 18:00;09:00 - 18:00;48.8274521186;2.31289372375
43;CIMETIERE DE VAUGIRARD;Cimetières;3.659926;320, rue Lecourbe;75015;Ouvert;Non;Non;08:00 - 12:00;08:00 - 12:00;08:00 - 12:00;08:00 - 12:00;08:00 - 12:00;08:30 - 12:00;09:00 - 12:00;48.8383651325;2.28463796218
44;SQUARE CAMBRONNE;Promenades ouvertes;57.31797400000001;3 RUE ALEXANDRE CABANEL;75015;Ouvert;Non;Non;09:30 - 18:00;09:30 - 18:00;09:30 - 18:00;09:30 - 18:00;09:30 - 18:00;09:00 - 18:00;09:00 - 18:00;48.8480993098;2.30250829646
45;SQUARE DE LA PLACE DE LA REUNION;Promenades ouvertes;0.118805;74 RUE REUNION;75020;Ouvert;Non;Non;08:00 - 18:00;08:00 - 18:00;08:00 - 18:00;08:00 - 18:00;08:00 - 18:00;09:00 - 18:00;09:00 - 18:00;48.8560902651;2.40130230155
46;SQUARE MARCEL PAGNOL;Promenades ouvertes;42.844864;1 PL HENRI BERGSON;75008;Ouvert;Non;Oui;08:00 - 19:00;08:00 - 19:00;08:00 - 19:00;08:00 - 19:00;08:00 - 19:00;09:00 - 19:00;09:00 - 19:00;48.8759490395;2.32038170148
47;La Chesnay du Roy;Bois;41.397247;Route de la Pyramide;75012;;Non;Non;;;;;;;;48.8379703722;2.44061066376
48;Chalet des Pelouses d'Auteuil;Bois;22.132825;23 w Route de Boulogne à Passy;75016;;Non;Non;;;;;;;;48.8505524971;2.24993531204
49;JARDINIERES DE LA PLACE DE LA NATION (12eme);Décorations sur la voie publique;9.861314;2   PLACE DE LA NATION;75012;;Oui;Non;;;;;;;;48.847864113;2.3958584566
50;PROMENADE DE L'ALLEE DES CYGNES;Promenades ouvertes;41.408976;4 V ALL CYGNES;75015;;Oui;Non;;;;;;;;48.8529503599;2.28385284921
51;SQUARE DE LA TOUR SAINT-JACQUES;Promenades ouvertes;21.498747;1 B RUE SAINT MARTIN;75004;Ouvert;Non;Non;08:00 - 18:30;08:00 - 18:30;08:00 - 18:30;08:00 - 18:30;08:00 - 18:30;09:00 - 18:30;09:00 - 18:30;48.8579000203;2.34874372783
52;Bois de Boulogne;Bois;43.724849999999996;;75016;Ouvert;Non;Non;00:00 - 23:59;00:00 - 23:59;00:00 - 23:59;00:00 - 23:59;00:00 - 23:59;00:00 - 23:59;00:00 - 23:59;48.8776903569;2.25849491434
53;Bois de Vincennes;Bois;79.87497;;75012;Ouvert;Non;Non;00:00 - 23:59;00:00 - 23:59;00:00 - 23:59;00:00 - 23:59;00:00 - 23:59;00:00 - 23:59;00:00 - 23:59;;
54;;;;;;;;;;;;;;;;;
55;JARDIN ALLERAY - PROCESSION;Promenades ouvertes;50.02396100000001;79 RUE ALLERAY;75015;Ouvert;Non;Non;08:00 - 18:00;08:00 - 18:00;08:00 - 18:00;08:00 - 18:00;08:00 - 18:00;09:00 - 18:00;09:00 - 18:00;48.8367149571;2.3083221691
56;JARDIN DU LUXEMBOURG;Jardins d'Etat;39.898284000000004;;75006;Ouvert;Non;Non;00:00 - 23:59;00:00 - 23:59;00:00 - 23:59;00:00 - 23:59;00:00 - 23:59;00:00 - 23:59;00:00 - 23:59;48.8465018117;2.33590736301
57;JARDIN GEORGES DUHAMEL;Promenades ouvertes;21.262306;5 RUE CHODERLOS LACLOS;75013;Ouvert;Non;Non;08:00 - 18:00;08:00 - 18:00;08:00 - 18:00;08:00 - 18:00;08:00 - 18:00;09:00 - 18:00;09:00 - 18:00;48.8320490381;2.37819684341
58;SQUARE NICOLE DE HAUTECLOCQUE;Promenades ouvertes;2.68898;1 PL ALFRED SAUVY;75015;Ouvert;Non;Non;08:00 - 18:00;08:00 - 18:00;08:00 - 18:00;08:00 - 18:00;08:00 - 18:00;09:00 - 18:00;09:00 - 18:00;48.8522609715;2.29430627673
59;Chalet des Gaufres;Bois;29.869423;146 w Route de la Tourelle;75012;;Non;Non;;;;;;;;48.8422479722;2.4240706793
60;La Cipale;Bois;8.475508;Avenue de Gravelle;75012;;Non;Non;;;;;;;;48.8256189791;2.41160709922
61;Les Bosquettes Butte Mortemart;Bois;0.0;43  Route de la Seine à la Butte Mortemart;75016;;Non;Non;;;;;;;;48.8516955224;2.23867866718
62;Théâtre Astral;Bois;27.144489;Parc Floral, aire de jeux;75012;;Non;Non;;;;;;;;48.8383088752;2.4465326148
63;SEPE, Garage train;Bois;0.0;Parc Floral;75012;;Non;Non;;;;;;;;48.8365435958;2.44840214075
64;Chalet de vente n° 5 - Ceinture du Lac;Bois;38.349371999999995;31 Route de Ceinture du Lac Daumesnil;75012;;Non;Non;;;;;;;;48.8334752795;2.41250452575
65;CIMETIERE DE BERCY;Cimetières;3.7978450000000006;329, rue de Charenton;75012;Ouvert;Non;Non;08:00 - 12:00 / 14:00 - 17:30;08:00 - 12:00 / 14:00 - 17:30;08:00 - 12:00 / 14:00 - 17:30;08:00 - 12:00 / 14:00 - 17:30;08:00 - 12:00 / 14:00 - 17:30;08:30 - 12:00 / 14:00 - 17:30;09:00 - 12:00 / 14:00 - 17:30;48.8327479168;2.39754562563
66;Bois de Vincennes;Bois;13.065517000000002;;75012;Ouvert;Non;Non;00:00 - 23:59;00:00 - 23:59;00:00 - 23:59;00:00 - 23:59;00:00 - 23:59;00:00 - 23:59;00:00 - 23:59;48.8281362375;2.41592033956
67;Bois de Vincennes;Bois;57.825691;;75012;Ouvert;Non;Non;00:00 - 23:59;00:00 - 23:59;00:00 - 23:59;00:00 - 23:59;00:00 - 23:59;00:00 - 23:59;00:00 - 23:59;48.8342588752;2.45642408467
68;Ferme de Paris;Bois;10.332772;25 w Route du Pesage;75012;;Non;Non;;;;;;;;48.8224840217;2.4444095645
69;PROMENADE PC 12 - DAUMESNIL - SAHEL;Promenades ouvertes;60.00000000000001;22 RUE DE MONTEMPOIVRE;75012;Ouvert;Non;Non;00:00 - 23:59;00:00 - 23:59;00:00 - 23:59;00:00 - 23:59;00:00 - 23:59;00:00 - 23:59;00:00 - 23:59;48.8384674638;2.40674973833
70;SQUARE VIOLET;Promenades ouvertes;44.024862000000006;4 B PL VIOLET;75015;Ouvert;Non;Non;08:00 - 18:00;08:00 - 18:00;08:00 - 18:00;08:00 - 18:00;08:00 - 18:00;09:00 - 18:00;09:00 - 18:00;48.8439973357;2.28973499169
71;SQUARE ERNEST CHAUSSON;Promenades ouvertes;1.945106;55 AV CLICHY;75017;Ouvert;Non;Non;08:00 - 18:00;08:00 - 18:00;08:00 - 18:00;08:00 - 18:00;08:00 - 18:00;09:00 - 18:00;09:00 - 18:00;48.8873792054;2.32503604733
72;JARDIN LILY LASKINE;Promenades ouvertes;2.395897;35 RUE JACQUES IBERT;75017;Ouvert;Non;Non;09:30 - 18:00;09:30 - 18:00;09:30 - 18:00;09:30 - 18:00;09:30 - 18:00;09:00 - 18:00;09:00 - 18:00;48.8870668328;2.28818017226
73;JARDIN DE LA MAIRIE DU VIIIEME;Promenades ouvertes;31.994404999999997;3 RUE LISBONNE;75008;Ouvert;Non;Non;08:00 - 18:30;08:00 - 18:30;08:00 - 18:30;08:00 - 18:30;08:00 - 18:30;09:00 - 18:30;09:00 - 18:30;48.8776127496;2.31792364632
74;Bois de Vincennes;Bois;62.742388999999996;;75012;Ouvert;Non;Non;00:00 - 23:59;00:00 - 23:59;00:00 - 23:59;00:00 - 23:59;00:00 - 23:59;00:00 - 23:59;00:00 - 23:59;48.844499989;2.44859576494
75;SQUARE DU PASSAGE LEON;Promenades ouvertes;18.63442;20 RUE GARDES;75018;Ouvert;Non;Non;08:00 - 18:00;08:00 - 18:00;08:00 - 18:00;08:00 - 18:00;08:00 - 18:00;09:00 - 18:00;09:00 - 18:00;48.886157587;2.35338676275
76;JARDIN MARIA VERONE;Promenades ouvertes;7.488731;2 RUE MOSKOVA;75018;Ouvert;Non;Non;08:00 - 18:00;08:00 - 18:00;08:00 - 18:00;08:00 - 18:00;08:00 - 18:00;09:00 - 18:00;09:00 - 18:00;48.8968988986;2.33590076309
77;SQUARE DE LA ROQUETTE;Promenades ouvertes;22.607915000000002;147 RUE ROQUETTE;75011;Ouvert;Non;Non;08:00 - 19:00;08:00 - 19:00;08:00 - 19:00;08:00 - 19:00;08:00 - 19:00;09:00 - 19:00;09:00 - 19:00;48.8596845236;2.38466872945
78;SQUARE ALBERT TOURNAIRE;Promenades ouvertes;62.596932;4 X PL MAZAS;75012;Ouvert;Non;Non;09:30 - 18:00;09:30 - 18:00;09:30 - 18:00;09:30 - 18:00;09:30 - 18:00;09:00 - 18:00;09:00 - 18:00;48.8452408783;2.36778376937
79;Bois de Vincennes;Bois;71.363774;;75012;Ouvert;Non;Non;00:00 - 23:59;00:00 - 23:59;00:00 - 23:59;00:00 - 23:59;00:00 - 23:59;00:00 - 23:59;00:00 - 23:59;48.8370482633;2.43867705683
80;Bois de Vincennes;Bois;68.01148;;75012;Ouvert;Non;Non;00:00 - 23:59;00:00 - 23:59;00:00 - 23:59;00:00 - 23:59;00:00 - 23:59;00:00 - 23:59;00:00 - 23:59;48.841023827;2.42899360812
81;Bois de Vincennes;Bois;84.241918;;75012;Ouvert;Non;Non;00:00 - 23:59;00:00 - 23:59;00:00 - 23:59;00:00 - 23:59;00:00 - 23:59;00:00 - 23:59;00:00 - 23:59;48.8338001594;2.44454037731
82;SQUARE EMILY DICKINSON;Promenades ouvertes;41.359209;28 RUE ORMEAUX;75020;Ouvert;Non;Non;08:00 - 18:00;08:00 - 18:00;08:00 - 18:00;08:00 - 18:00;08:00 - 18:00;09:00 - 18:00;09:00 - 18:00;48.8508901649;2.40016721336
83;Jardin de la rue de la Justice;Promenades ouvertes;39.582098;60 RUE JUSTICE;75020;Ouvert;Non;Non;08:00 - 18:00;08:00 - 18:00;08:00 - 18:00;08:00 - 18:00;08:00 - 18:00;09:00 - 18:00;09:00 - 18:00;48.8682882569;2.40852760099
84;Square Antoine BLONDIN;Promenades ouvertes;32.113047;126 RUE BAGNOLET;75020;Ouvert;Non;Non;08:00 - 18:00;08:00 - 18:00;08:00 - 18:00;08:00 - 18:00;08:00 - 18:00;09:00 - 18:00;09:00 - 18:00;48.8605422393;2.4053077842
85;PROMENADE BERNARD LAFAY - A4;Promenades ouvertes;55.749356000000006;12 BD AURELLE PALADINES;75017;Ouvert;Oui;Non;08:00 - 18:00;08:00 - 18:00;08:00 - 18:00;08:00 - 18:00;08:00 - 18:00;09:00 - 18:00;09:00 - 18:00;48.883723313;2.28357002046
86;SQUARE SERGE REGGIANI;Promenades ouvertes;1.6514750000000002;1 V PL BITCHE;75019;Ouvert;Oui;Non;08:00 - 18:00;08:00 - 18:00;08:00 - 18:00;08:00 - 18:00;08:00 - 18:00;09:00 - 18:00;09:00 - 18:00;48.8889574362;2.37913176462
87;SQUARE PAUL PAINLEVE;Promenades ouvertes;51.453066;3 PL PAUL PAINLEVE;75005;Ouvert;Non;Non;08:00 - 18:00;08:00 - 18:00;08:00 - 18:00;08:00 - 18:00;08:00 - 18:00;09:00 - 18:00;09:00 - 18:00;48.8500674839;2.34412279568
88;SQUARE PAUL GRIMAULT;Promenades ouvertes;3.1020559999999997;28 RUE FONTAINE MULARD;75013;Ouvert;Non;Non;08:00 - 18:00;08:00 - 18:00;08:00 - 18:00;08:00 - 18:00;08:00 - 18:00;09:00 - 18:00;09:00 - 18:00;48.8228671076;2.34791043026
89;SQUARE OLAVE ET ROBERT BADEN-POWELL;Promenades ouvertes;24.512147000000002;59 RUE BAYEN;75017;Ouvert;Non;Non;09:30 - 18:00;09:30 - 18:00;09:30 - 18:00;09:30 - 18:00;09:30 - 18:00;09:00 - 18:00;09:00 - 18:00;48.882441466;2.29061739937
90;JARDIN JANIS JOPLIN;Promenades ouvertes;31.447433000000004;1 RUE PAGANINI;75020;Ouvert;Oui;Non;00:00 - 23:59;00:00 - 23:59;00:00 - 23:59;00:00 - 23:59;00:00 - 23:59;00:00 - 23:59;00:00 - 23:59;48.8516634835;2.41148006833
91;Le Petit Jean Bouin;Bois;16.886624;5-7 avenue de la Porte Molitor;75016;;Non;Non;;;;;;;;48.8497118288;2.2504264962
92;UCPA Club Bayard Equitation;Bois;25.446513;Avenue du Polygone;75012;;Non;Non;;;;;;;;48.8342387229;2.43169542125
93;Cercle Hippique du Bois de Boulogne;Bois;16.191394;Route de la Muette à Neuilly;75016;;Non;Non;;;;;;;;48.877529639;2.26073369719
94;PROMENADE RICHARD LENOIR REPUBLIQUE-JP TIMBAUD;Promenades ouvertes;56.807631;35   BOULEVARD RICHARD LENOIR;75011;;Oui;Non;;;;;;;;48.865940696;2.36949711047
95;JARDINET DE LA RUE ALPHONSE BAUDIN;Jardinets décoratifs;36.889169;13   RUE ALPHONSE BAUDIN;75011;;Non;Non;;;;;;;;48.8608638682;2.37019767915
96;CIMETIERE DE PASSY;Cimetières;33.849023;2, rue du Commandant-Schloesing;75016;Ouvert;Non;Non;08:00 - 12:00;08:00 - 12:00;08:00 - 12:00;08:00 - 12:00;08:00 - 12:00;08:30 - 12:00;09:00 - 12:00;48.8625408031;2.2851013781
97;JARDINIERE DE LA PLACE DE L'ESTRAPADE;Décorations sur la voie publique;62.940036;1   PLACE DE L' ESTRAPADE;75005;;Non;Non;;;;;;;;48.8452514644;2.344817261
98;JARDINIERES DE LA PROMENADE PLANTEE TOLBIAC CHEVALERET;Décorations sur la voie publique;91.922196;64   RUE DU CHEVALERET;75013;;Non;Non;;;;;;;;48.8306734629;2.3751924823
99;JARDIN DE LA CITE INTERNATIONALE DES ARTS;Jardins privatifs;43.669399000000006;24   RUE NORVINS;75018;;Non;Non;;;;;;;;48.887908665;2.33856336276
100;JARDIN D'IMMEUBLES DU BOULEVARD CARNOT;Promenades ouvertes;33.998865;2   BOULEVARD CARNOT;75012;Ouvert;Oui;Non;00:00 - 23:59;00:00 - 23:59;00:00 - 23:59;00:00 - 23:59;00:00 - 23:59;00:00 - 23:59;00:00 - 23:59;48.8458551953;2.41310576263
101;PELOUSE DE REUILLY;Promenades ouvertes;6.056056;13  ROUTE DE CEINTURE DU LAC DAUMESNIL;75012;;Non;Non;;;;;;;;48.8297933589;2.40705061883
102;ILE DE BERCY;Promenades ouvertes;37.952284000000006;31 W ROUTE DE CEINTURE DU LAC DAUMESNIL;75012;Ouvert;Non;Non;09:30 - 18:00;09:30 - 18:00;09:30 - 18:00;09:30 - 18:00;09:30 - 18:00;09:30 - 18:00;09:30 - 18:00;48.8319164488;2.41115404703
103;JARDIN DE L'AVENUE FOCH - PELOUSE 22;Promenades ouvertes;39.889989;10 AV FOCH;75016;Ouvert;Oui;Non;00:00 - 23:59;00:00 - 23:59;00:00 - 23:59;00:00 - 23:59;00:00 - 23:59;00:00 - 23:59;00:00 - 23:59;;
104;;;;;;;;;;;;;;;;;
105;JARDIN DE L'IMPASSE TRUILLOT;Promenades ouvertes;10.0;66 BOULEVARD RICHARD LENOIR;75011;Ouvert;Non;Non;00:00 - 23:59;00:00 - 23:59;00:00 - 23:59;00:00 - 23:59;00:00 - 23:59;00:00 - 23:59;00:00 - 23:59;48.8605190071;2.37393504961
106;SQUARE DE LA PORTE DE LA VILLETTE;Promenades ouvertes;28.193548;22 RUE CHEMIN FER;75019;Ouvert;Oui;Non;00:00 - 23:59;00:00 - 23:59;00:00 - 23:59;00:00 - 23:59;00:00 - 23:59;00:00 - 23:59;00:00 - 23:59;48.8998537845;2.38995021389
107;JARDIN DE L'AVENUE FOCH - PELOUSE 15;Promenades ouvertes;56.049717;10 AV FOCH;75016;Ouvert;Oui;Non;00:00 - 23:59;00:00 - 23:59;00:00 - 23:59;00:00 - 23:59;00:00 - 23:59;00:00 - 23:59;00:00 - 23:59;;
108;;;;;;;;;;;;;;;;;
109;JARDIN DE L'AVENUE FOCH - PELOUSE 16;Promenades ouvertes;42.285432;10 AV FOCH;75016;Ouvert;Oui;Non;00:00 - 23:59;00:00 - 23:59;00:00 - 23:59;00:00 - 23:59;00:00 - 23:59;00:00 - 23:59;00:00 - 23:59;;
110;;;;;;;;;;;;;;;;;
111;SQUARE MAURICE KRIEGEL-VALRIMONT DIT SQUARE DE CLIGNANCOURT;Promenades ouvertes;59.70874499999999;1 SQ CLIGNANCOURT;75018;Ouvert;Non;Non;08:00 - 18:00;08:00 - 18:00;08:00 - 18:00;08:00 - 18:00;08:00 - 18:00;09:00 - 18:00;09:00 - 18:00;48.8930327487;2.3465017623
112;JARDIN PAUL NIZAN;Promenades ouvertes;12.276928000000002;9 RUE INDUSTRIE;75013;Ouvert;Non;Non;08:00 - 18:00;08:00 - 18:00;08:00 - 18:00;08:00 - 18:00;08:00 - 18:00;09:00 - 18:00;09:00 - 18:00;48.8226222319;2.35748500898
113;SQUARE BARGUE - PLATON;Promenades ouvertes;24.757069;134 RUE FALGUIERE;75015;Ouvert;Non;Non;08:00 - 18:00;08:00 - 18:00;08:00 - 18:00;08:00 - 18:00;08:00 - 18:00;09:00 - 18:00;09:00 - 18:00;48.837460264;2.31053842527
114;JARDIN DE L'HOPITAL VAUGIRARD;Promenades ouvertes;38.98666;389 RUE VAUGIRARD;75015;Ouvert;Non;Non;08:00 - 18:00;08:00 - 18:00;08:00 - 18:00;08:00 - 18:00;08:00 - 18:00;09:00 - 18:00;09:00 - 18:00;48.8347238064;2.29316276271
115;JARDIN DU TRIBUNAL D'INSTANCE DE PARIS;Jardins grandes institutions;51.0;11 Bis rue Casimir Perrier;75007;;Non;Non;;;;;;;;48.8575313852;2.32059715574
116;Le Chais de Bagatelle;Bois;45.874701;10 Route du Champ d'Entraînement;75016;;Non;Non;;;;;;;;48.8745817413;2.25128304241
117;Pavillon Windsor;Bois;43.376771000000005;4 Route du Champ d'Enttraînement;75016;;Non;Non;;;;;;;;48.8741692587;2.25237264141
118;SQUARE FLORENCE BLUMENTHAL;Promenades ouvertes;18.901529;93 RUE CHATEAU RENTIERS;75013;Ouvert;Non;Non;08:00 - 18:00;08:00 - 18:00;08:00 - 18:00;08:00 - 18:00;08:00 - 18:00;09:00 - 18:00;09:00 - 18:00;48.8276435765;2.36735373242
119;SQUARE RENE LE GALL;Promenades ouvertes;44.152417;28 RUE CROULEBARBE;75013;Ouvert;Non;Non;08:00 - 18:00;08:00 - 18:00;08:00 - 18:00;08:00 - 18:00;08:00 - 18:00;09:00 - 18:00;09:00 - 18:00;48.8329002198;2.3496387905
120;Musée des Arts et Traditions Populaires;Bois;10.767564;6 Avenue du Mahatma Gandhi;75016;;Non;Non;;;;;;;;48.8774114132;2.26845923714
121;Centre Equestre de la Cartoucherie;Bois;28.244089;Route du Champ de Manoeuvre;75012;;Non;Non;;;;;;;;48.8350009658;2.44850001336
122;Chalet de vente n° 8;Bois;0.0;8 Avenue de Gravelle;75012;;Non;Non;;;;;;;;48.8243084959;2.42317133846
123;Bosquette de la Photo Hippique;Bois;0.0;85 Chemin de Ceinture du Lac Inférieur;75016;;Non;Non;;;;;;;;48.8675263018;2.26165564148
124;Brigade cynophile - Préfecture de Police;Bois;35.142763;Avenue de l'Ecole de Joinville;75012;;Non;Non;;;;;;;;48.8183428311;2.45382710632
125;Paris Cycles;Bois;6.791688;Avenue de l'Hippodrome;75016;;Non;Non;;;;;;;;48.8600803239;2.25430226467
126;SQUARE GERBERT - BLOMET;Promenades ouvertes;84.408218;113 RUE BLOMET;75015;Ouvert;Non;Non;09:30 - 18:00;09:30 - 18:00;09:30 - 18:00;09:30 - 18:00;09:30 - 18:00;09:00 - 18:00;09:00 - 18:00;48.8399046287;2.29797643194
127;JARDIN DURANTON;Promenades ouvertes;10.829905;9 RUE DURANTON;75015;Ouvert;Non;Non;09:30 - 18:00;09:30 - 18:00;09:30 - 18:00;09:30 - 18:00;09:30 - 18:00;09:00 - 18:00;09:00 - 18:00;48.8410988689;2.28571340628
128;SQUARE DES SAINTS-SIMONIENS - MENILMONTANT;Promenades ouvertes;19.440486;149 RUE MENILMONTANT;75020;Ouvert;Non;Non;08:00 - 18:00;08:00 - 18:00;08:00 - 18:00;08:00 - 18:00;08:00 - 18:00;09:00 - 18:00;09:00 - 18:00;48.8706206678;2.39668647703
129;JARDIN TERESKA TORRES-LEVIN;Promenades ouvertes;10.0;7 RUE LAURE DIEBOLD;75008;Ouvert;Non;Non;08:00 - 18:00;08:00 - 18:00;08:00 - 18:00;08:00 - 18:00;08:00 - 18:00;09:00 - 18:00;09:00 - 18:00;48.8758198725;2.30535998272
130;ESPACE VERT DE LA PLACE DE L'EDIT DE NANTES;Promenades ouvertes;60.00000000000001;2 PLACE DE L' EDIT DE NANTES;75019;;Non;Non;;;;;;;;48.8888846475;2.37840186267
131;SQUARE NECKER;Promenades ouvertes;54.724804999999996;13 RUE PROCESSION;75015;Ouvert;Non;Non;09:30 - 18:00;09:30 - 18:00;09:30 - 18:00;09:30 - 18:00;09:30 - 18:00;09:00 - 18:00;09:00 - 18:00;48.8395484574;2.30652461383
132;PROMENADE PEREIRE - BAYEN / LEBON;Promenades ouvertes;2.122335;47 RUE BAYEN;75017;Ouvert;Non;Non;08:00 - 18:00;08:00 - 18:00;08:00 - 18:00;08:00 - 18:00;08:00 - 18:00;09:00 - 18:00;09:00 - 18:00;48.8818612899;2.29149584782
133;SQUARE SAINT-LAMBERT;Promenades ouvertes;36.625574;1 RUE THEOPHRASTE RENAUDOT;75015;Ouvert;Non;Non;08:00 - 18:00;08:00 - 18:00;08:00 - 18:00;08:00 - 18:00;08:00 - 18:00;09:00 - 18:00;09:00 - 18:00;48.8422692897;2.29691899957
134;Bois de Boulogne;Bois;40.393301;;75016;Ouvert;Non;Non;00:00 - 23:59;00:00 - 23:59;00:00 - 23:59;00:00 - 23:59;00:00 - 23:59;00:00 - 23:59;00:00 - 23:59;48.8643861329;2.23170561327
135;JARDIN DES CEVENNES;Promenades ouvertes;36.737441;9 RUE CAUCHY;75015;Ouvert;Non;Non;08:00 - 18:00;08:00 - 18:00;08:00 - 18:00;08:00 - 18:00;08:00 - 18:00;09:00 - 18:00;09:00 - 18:00;48.8435143423;2.27584412004
136;JARDIN DU 8 RUE DE LA MADONE (JARDIN EVANGILE);Promenades ouvertes;50.120414000000004;8 RUE MADONE;75018;Ouvert;Non;Non;08:00 - 19:00;08:00 - 19:00;08:00 - 19:00;08:00 - 19:00;08:00 - 19:00;09:00 - 19:00;09:00 - 19:00;48.8924330143;2.36182252801
137;SQUARE DES BATIGNOLLES;Promenades ouvertes;53.193292;144 B RUE CARDINET;75017;Ouvert;Non;Non;08:00 - 18:00;08:00 - 18:00;08:00 - 18:00;08:00 - 18:00;08:00 - 18:00;09:00 - 18:00;09:00 - 18:00;48.8874558791;2.3163006158
138;JARDIN ANDREE ULMANN;Promenades ouvertes;33.022482000000004;29 BD REIMS;75017;Ouvert;Non;Non;08:00 - 18:00;08:00 - 18:00;08:00 - 18:00;08:00 - 18:00;08:00 - 18:00;09:00 - 18:00;09:00 - 18:00;48.8894886435;2.29863312591
139;Jardin du Carré de BAUDOIN;Promenades ouvertes;34.348507;119 RUE MENILMONTANT;75020;Ouvert;Non;Non;08:00 - 18:00;08:00 - 18:00;08:00 - 18:00;08:00 - 18:00;08:00 - 18:00;09:00 - 18:00;09:00 - 18:00;48.8699218889;2.39352953107
140;ESPLANADE GASTON MONNERVILLE;Promenades ouvertes;24.695237;1 PL ANDRE HONNORAT;75006;Ouvert;Non;Non;08:00 - 18:00;08:00 - 18:00;08:00 - 18:00;08:00 - 18:00;08:00 - 18:00;09:00 - 18:00;09:00 - 18:00;48.8433964102;2.336974776
141;Bois de Vincennes;Bois;83.511555;;75012;Ouvert;Non;Non;00:00 - 23:59;00:00 - 23:59;00:00 - 23:59;00:00 - 23:59;00:00 - 23:59;00:00 - 23:59;00:00 - 23:59;48.8253389457;2.42575031331
142;JARDINS DES CHAMPS ELYSEES;Promenades ouvertes;24.776381999999998;5 AV CHAMPS ELYSEES;75008;Ouvert;Oui;Non;00:00 - 23:59;00:00 - 23:59;00:00 - 23:59;00:00 - 23:59;00:00 - 23:59;00:00 - 23:59;00:00 - 23:59;;
143;;;;;;;;;;;;;;;;;
144;;;;;;;;;;;;;;;;;
145;;;;;;;;;;;;;;;;;
146;;;;;;;;;;;;;;;;;
147;;;;;;;;;;;;;;;;;
148;;;;;;;;;;;;;;;;;
149;;;;;;;;;;;;;;;;;
150;;;;;;;;;;;;;;;;;
151;SQUARE LOUIS LUMIERE;Promenades ouvertes;39.736125;24 RUE LOUIS LUMIERE;75020;Ouvert;Non;Non;08:00 - 18:00;08:00 - 18:00;08:00 - 18:00;08:00 - 18:00;08:00 - 18:00;09:00 - 18:00;09:00 - 18:00;48.8588418424;2.41184653326
152;PARC DE BERCY;Promenades ouvertes;33.744447;2 RUE JOSEPH KESSEL;75012;Ouvert;Oui;Non;00:00 - 23:59;00:00 - 23:59;00:00 - 23:59;00:00 - 23:59;00:00 - 23:59;00:00 - 23:59;00:00 - 23:59;48.833589434;2.38446601101
153;JARDIN DE LA FOLIE TITON;Promenades ouvertes;3.548883;17 RUE TITON;75011;Ouvert;Non;Non;08:00 - 21:30;08:00 - 21:30;08:00 - 21:30;08:00 - 21:30;08:00 - 21:30;09:00 - 21:30;09:00 - 21:30;48.8521233375;2.38569497051
154;MAIL MAURICE NOGUES;Promenades ouvertes;9.373348;15 RUE MAURICE NOGUES;75014;;Non;Non;;;;;;;;48.8252850068;2.30490732574
155;Club Tir à l'Arc;Bois;52.529222;10 w Route Saint Louis;75012;;Non;Non;;;;;;;;48.8258917057;2.42647099638
156;PROMENADE RICHARD LENOIR SQUARE MAY PICQUERAY;Promenades ouvertes;68.790772;35   BOULEVARD RICHARD LENOIR;75011;Ouvert;Non;Non;08:00 - 18:00;08:00 - 18:00;08:00 - 18:00;08:00 - 18:00;08:00 - 18:00;09:00 - 18:00;09:00 - 18:00;48.863433039;2.37146182992
157;JARDINETS DE LA PLACE DE LA PORTE D'AUTEUIL;Jardinets décoratifs;42.387843000000004;4 X PLACE DE LA PORTE D'AUTEUIL;75016;;Non;Non;;;;;;;;48.848507653;2.25838993579
158;DECORATION DE LA PLACE LUCIEN HERR;Décorations sur la voie publique;0.380607;2   PLACE LUCIEN HERR;75005;;Non;Non;;;;;;;;48.841860475;2.34809109254
159;PARC FLORAL DE PARIS;Promenades ouvertes;44.827989;7   CARREFOUR DE LA PYRAMIDE;75012;Ouvert;Non;Non;09:30 - 18:00;09:30 - 18:00;09:30 - 18:00;09:30 - 18:00;09:30 - 18:00;09:30 - 18:00;09:30 - 18:00;;
160;;;;;;;;;;;;;;;;;
161;JARDIN D'AGRONOMIE TROPICALE;Promenades ouvertes;53.926283;45 BIS AVENUE DE LA BELLE GABRIELLE * NOGENT FONTENAY;75012;Ouvert;Non;Non;09:30 - 18:00;09:30 - 18:00;09:30 - 18:00;09:30 - 18:00;09:30 - 18:00;09:30 - 18:00;09:30 - 18:00;48.833809925;2.46659209552
162;HIPPODROME D'AUTEUIL, PELOUSE B;Promenades ouvertes;0.009807;3  ROUTE D' AUTEUIL AUX LACS;75016;Ouvert;Non;Non;08:00 - 18:00;08:00 - 18:00;08:00 - 18:00;08:00 - 18:00;08:00 - 18:00;09:00 - 18:00;09:00 - 18:00;48.8537223347;2.25888978406
163;JARDINIERES ET PLACETTE LEON BLUM;Promenades ouvertes;38.813017;1 PL LEON BLUM;75011;Ouvert;Oui;Non;00:00 - 23:59;00:00 - 23:59;00:00 - 23:59;00:00 - 23:59;00:00 - 23:59;00:00 - 23:59;00:00 - 23:59;48.8580253972;2.38010498098
164;JARDIN DE L'AVENUE FOCH - PELOUSE 01;Promenades ouvertes;45.869279999999996;10 AV FOCH;75016;Ouvert;Oui;Non;00:00 - 23:59;00:00 - 23:59;00:00 - 23:59;00:00 - 23:59;00:00 - 23:59;00:00 - 23:59;00:00 - 23:59;48.8720522153;2.27593431262
165;SQUARE HENRI KARCHER;Promenades ouvertes;18.170738;165 RUE PYRENEES;75020;Ouvert;Non;Non;09:30 - 18:00;09:30 - 18:00;09:30 - 18:00;09:30 - 18:00;09:30 - 18:00;09:00 - 18:00;09:00 - 18:00;48.8598401279;2.40079846038
166;JARDIN DU MONUMENT AUX MERES FRANCAISES;Promenades ouvertes;37.48564;29 BD KELLERMANN;75013;Ouvert;Non;Non;08:00 - 18:00;08:00 - 18:00;08:00 - 18:00;08:00 - 18:00;08:00 - 18:00;09:00 - 18:00;09:00 - 18:00;48.820001597;2.35591001348
167;SQUARE DE L'ABBE ESQUERRE;Promenades ouvertes;37.209077;1 PL PRESIDENT MITHOUARD;75007;Ouvert;Non;Non;09:30 - 18:00;09:30 - 18:00;09:30 - 18:00;09:30 - 18:00;09:30 - 18:00;09:00 - 18:00;09:00 - 18:00;48.8503145914;2.31365147436
168;SQUARE DES MISSIONS ETRANGERES;Promenades ouvertes;41.450734;105 RUE BAC;75007;Ouvert;Non;Non;09:30 - 18:00;09:30 - 18:00;09:30 - 18:00;09:30 - 18:00;09:30 - 18:00;09:00 - 18:00;09:00 - 18:00;48.8524261871;2.32444452368
169;SQUARE MADELEINE TRIBOLATI;Promenades ouvertes;45.824432;2 B RUE ROBERT BLACHE;75010;Ouvert;Non;Non;08:00 - 19:00;08:00 - 19:00;08:00 - 19:00;08:00 - 19:00;08:00 - 19:00;09:00 - 19:00;09:00 - 19:00;48.8771732706;2.36433563376
170;Jardin du passage STENDHAL;Promenades ouvertes;6.368473;7 PAS STENDHAL;75020;;Non;Non;;;;;;;;48.8616199077;2.4006444858
171;TERRAIN DE BOULES AVENUE JUNOT;Promenades ouvertes;65.536628;8 VOIE M/18;75018;;Non;Non;;;;;;;;48.8880894988;2.33545429889
172;Jardin d'Isoré;Promenades ouvertes;60.00000000000001;1 rue Bézout;75014;Ouvert;Oui;Non;00:00 - 23:59;00:00 - 23:59;00:00 - 23:59;00:00 - 23:59;00:00 - 23:59;00:00 - 23:59;00:00 - 23:59;48.828902073;2.33304051108
173;Jardin de la place Mohamed Bouazizi;Promenades ouvertes;70.0;place Mohamed Bouazizi;75014;;Oui;Non;;;;;;;;48.8249212448;2.33759726842
174;PARC DE LA CITÉ UNIVERSITAIRE;Jardins grandes institutions;30.619059999999998;;75014;;Non;Non;;;;;;;;;
175;;;;;;;;;;;;;;;;;
176;;;;;;;;;;;;;;;;;
177;SQUARE DES CHAMAILLARDS;Promenades ouvertes;5.764209999999999;55 RUE CHATEAU RENTIERS;75013;Ouvert;Non;Non;08:00 - 18:00;08:00 - 18:00;08:00 - 18:00;08:00 - 18:00;08:00 - 18:00;09:00 - 18:00;09:00 - 18:00;48.8253429815;2.36923023856
178;PARC DE PASSY;Promenades ouvertes;5.545915;11 AV MARCEL PROUST;75016;Ouvert;Non;Non;08:00 - 18:00;08:00 - 18:00;08:00 - 18:00;08:00 - 18:00;08:00 - 18:00;09:00 - 18:00;09:00 - 18:00;48.8557519768;2.28343833911
179;Manège Baby Zoo;Bois;29.630847;29 Route de Ceinture du Lac Daumesnil;75012;;Non;Non;;;;;;;;48.8330446508;2.41371026919
180;Chalet de Vente Les Bosquettes Dauphine;Bois;100.0;13 Allée Fortunée;75016;;Non;Non;;;;;;;;48.8725205838;2.2724587263
181;Manège Le Chahut;Bois;0.0;21 w Avenue de Bel Air;75012;;Non;Non;;;;;;;;48.8429896422;2.42030232037
182;Tir aux Pigeons;Bois;13.932404000000002;Route de l'Etoile;75016;Ouvert;Non;Non;08:00 - 17:30;08:00 - 17:30;08:00 - 17:30;08:00 - 17:30;08:00 - 17:30;10:00 - 17:30;10:00 - 17:30;48.8735611979;2.25909981807
183;PARC MONTSOURIS;Promenades ouvertes;47.128294;28 BD JOURDAN;75014;Ouvert;Non;Non;07:00 - 18:00;07:00 - 18:00;07:00 - 18:00;07:00 - 18:00;07:00 - 18:00;07:00 - 18:00;07:00 - 18:00;48.8221998667;2.3381114802
184;SQUARE TROUSSEAU;Promenades ouvertes;63.455348;6 RUE ANTOINE VOLLON;75012;Ouvert;Non;Non;09:30 - 19:00;09:30 - 19:00;09:30 - 19:00;09:30 - 19:00;09:30 - 19:00;09:00 - 19:00;09:00 - 19:00;48.8504235034;2.37711825009
185;Bois de Vincennes;Bois;97.822129;;75012;Ouvert;Non;Non;00:00 - 23:59;00:00 - 23:59;00:00 - 23:59;00:00 - 23:59;00:00 - 23:59;00:00 - 23:59;00:00 - 23:59;48.8297568203;2.42645289088
186;JARDIN DE L'AVENUE DODE DE LA BRUNERIE;Promenades ouvertes;40.0;1 AVENUE DODE DE LA BRUNERIE;75016;Ouvert;Non;Non;00:00 - 23:59;00:00 - 23:59;00:00 - 23:59;00:00 - 23:59;00:00 - 23:59;00:00 - 23:59;00:00 - 23:59;48.8359034081;2.25764422604
187;JARDIN DU MOULIN DES TROIS CORNETS;Promenades ouvertes;31.916606;2 T RUE RAYMOND LOSSERAND;75014;Ouvert;Non;Non;09:30 - 18:00;09:30 - 18:00;09:30 - 18:00;09:30 - 18:00;09:30 - 18:00;09:00 - 18:00;09:00 - 18:00;48.8366737248;2.32236548532
188;SQUARE JEAN MOULIN;Promenades ouvertes;28.576898;2 RUE NICOLAS TAUNAY;75014;Ouvert;Non;Non;09:30 - 18:00;09:30 - 18:00;09:30 - 18:00;09:30 - 18:00;09:30 - 18:00;09:00 - 18:00;09:00 - 18:00;48.8239132448;2.31877348894
189;Bois de Vincennes;Bois;61.903374;;75012;Ouvert;Non;Non;00:00 - 23:59;00:00 - 23:59;00:00 - 23:59;00:00 - 23:59;00:00 - 23:59;00:00 - 23:59;00:00 - 23:59;48.8195174696;2.44463965852
190;Bois de Vincennes;Bois;93.852486;;75012;Ouvert;Non;Non;00:00 - 23:59;00:00 - 23:59;00:00 - 23:59;00:00 - 23:59;00:00 - 23:59;00:00 - 23:59;00:00 - 23:59;48.8216271147;2.43425850314
191;SQUARE DE LA BUTTE DU CHAPEAU ROUGE;Promenades ouvertes;36.831196;4 AV DEBIDOUR;75019;Ouvert;Non;Non;08:00 - 18:00;08:00 - 18:00;08:00 - 18:00;08:00 - 18:00;08:00 - 18:00;09:00 - 18:00;09:00 - 18:00;48.8818794063;2.39859738045
192;SQUARE DE LA RUE CURIAL;Promenades ouvertes;37.675503;85 RUE CURIAL;75019;Ouvert;Non;Non;09:30 - 18:00;09:30 - 18:00;09:30 - 18:00;09:30 - 18:00;09:30 - 18:00;09:00 - 18:00;09:00 - 18:00;48.8956482647;2.37495183946
193;JARDIN DE LA RUE REBEVAL;Promenades ouvertes;72.85672;13 RUE REBEVAL;75019;Ouvert;Non;Non;09:30 - 18:00;09:30 - 18:00;09:30 - 18:00;09:30 - 18:00;09:30 - 18:00;09:00 - 18:00;09:00 - 18:00;48.874525799;2.37709656141
194;SQUARE ROBERT BAJAC;Promenades ouvertes;43.116313;1 BD KELLERMANN;75013;Ouvert;Oui;Non;00:00 - 23:59;00:00 - 23:59;00:00 - 23:59;00:00 - 23:59;00:00 - 23:59;00:00 - 23:59;00:00 - 23:59;48.8185545886;2.35892975882
195;Bois de Vincennes;Bois;48.949876;;75012;Ouvert;Non;Non;00:00 - 23:59;00:00 - 23:59;00:00 - 23:59;00:00 - 23:59;00:00 - 23:59;00:00 - 23:59;00:00 - 23:59;48.826065922;2.44233631878
196;Bois de Vincennes;Bois;19.50534;;75012;Ouvert;Non;Non;00:00 - 23:59;00:00 - 23:59;00:00 - 23:59;00:00 - 23:59;00:00 - 23:59;00:00 - 23:59;00:00 - 23:59;48.8281461968;2.41356542003
197;PROMENADE RICHARD LENOIR SQUARE RICHARD LENOIR;Promenades ouvertes;46.769305;35   BOULEVARD RICHARD LENOIR;75011;Ouvert;Non;Non;08:00 - 18:45;08:00 - 18:45;08:00 - 18:45;08:00 - 18:45;08:00 - 18:45;09:00 - 18:45;09:00 - 18:45;48.859101105;2.37182298533
198;SQUARE TARAS CHEVTCHENKO;Promenades ouvertes;34.808568;186 BD SAINT GERMAIN;75006;Ouvert;Non;Non;09:30 - 18:00;09:30 - 18:00;09:30 - 18:00;09:30 - 18:00;09:30 - 18:00;09:00 - 18:00;09:00 - 18:00;48.8545966123;2.33084811711
199;SQUARE GEORGES MELIES;Promenades ouvertes;22.113766000000002;58 BD SOULT;75012;Ouvert;Non;Non;09:30 - 18:00;09:30 - 18:00;09:30 - 18:00;09:30 - 18:00;09:30 - 18:00;09:00 - 18:00;09:00 - 18:00;48.841131646;2.4098095
200;SQUARE RUES BELLEVILLE - TELEGRAPHE;Promenades ouvertes;72.477129;44 RUE TELEGRAPHE;75020;Ouvert;Non;Non;08:00 - 18:00;08:00 - 18:00;08:00 - 18:00;08:00 - 18:00;08:00 - 18:00;09:00 - 18:00;09:00 - 18:00;48.8753438906;2.39956518319
201;JARDIN CYPRIAN KAMIL NORWID;Promenades ouvertes;2.3463770000000004;46 RUE GRANDS MOULINS;75013;Ouvert;Non;Non;08:00 - 18:00;08:00 - 18:00;08:00 - 18:00;08:00 - 18:00;08:00 - 18:00;09:00 - 18:00;09:00 - 18:00;48.8282609803;2.3772006106
202;SQUARE ALBERT SCHWEITZER;Promenades ouvertes;0.0;10 RUE HOTEL VILLE;75004;Ouvert;Non;Non;08:00 - 18:00;08:00 - 18:00;08:00 - 18:00;08:00 - 18:00;08:00 - 18:00;09:00 - 18:00;09:00 - 18:00;48.8538701962;2.35789546267
203;Location de barques du Lac des Minimes;Bois;0.0;42 w Route du Grand Prieur;75012;;Non;Non;;;;;;;;48.8384471523;2.45802516666
204;SEPE, billetterie, garage quadricycles;Bois;0.0;Parc Floral, aire de jeux;75012;;Non;Non;;;;;;;;48.8374801073;2.44751486928
205;JARDIN ALEXANDRE SOLJENITSYNE;Promenades ouvertes;21.915051;4 PL PORTE MAILLOT;75016;Ouvert;Non;Non;00:00 - 23:59;00:00 - 23:59;00:00 - 23:59;00:00 - 23:59;00:00 - 23:59;00:00 - 23:59;00:00 - 23:59;48.8778147829;2.28237578485
206;JARDINS DU TROCADERO;Promenades ouvertes;27.710021;1 PL VARSOVIE;75016;Ouvert;Oui;Non;00:00 - 23:59;00:00 - 23:59;00:00 - 23:59;00:00 - 23:59;00:00 - 23:59;00:00 - 23:59;00:00 - 23:59;;
207;;;;;;;;;;;;;;;;;
208;;;;;;;;;;;;;;;;;
209;;;;;;;;;;;;;;;;;
210;JARDIN DES MERES ET GRAND-MERES DE LA PLACE DE MAI;Promenades ouvertes;0.0038730000000000006;2 RUE BALARD;75015;Ouvert;Oui;Non;00:00 - 23:59;00:00 - 23:59;00:00 - 23:59;00:00 - 23:59;00:00 - 23:59;00:00 - 23:59;00:00 - 23:59;48.8454045439;2.27658496764
211;SQUARE PRIOU - VALJEAN;Promenades ouvertes;18.345139;6 RUE FIGUIER;75004;Ouvert;Non;Non;08:00 - 18:15;08:00 - 18:15;08:00 - 18:15;08:00 - 18:15;08:00 - 18:15;09:00 - 18:15;09:00 - 18:15;48.85397747;2.35936353593
212;JARDIN HEROLD;Promenades ouvertes;0.48166;13 RUE FRANCIS PONGE;75019;Ouvert;Non;Non;09:30 - 18:00;09:30 - 18:00;09:30 - 18:00;09:30 - 18:00;09:30 - 18:00;09:00 - 18:00;09:00 - 18:00;48.8824792115;2.39494115466
213;Bois de Vincennes;Bois;57.476912999999996;;75012;Ouvert;Non;Non;00:00 - 23:59;00:00 - 23:59;00:00 - 23:59;00:00 - 23:59;00:00 - 23:59;00:00 - 23:59;00:00 - 23:59;48.8255696561;2.46533969083
214;JARDIN DE LA PLACE PIERRE LAFUE;Promenades ouvertes;51.105752;2 V PL PIERRE LAFUE;75006;;Oui;Non;;;;;;;;48.8447432176;2.3290802088
215;JARDIN DU MUSÉE DE MONTMARTRE;Jardins grandes institutions;46.156153;;75018;;Non;Non;;;;;;;;48.887949245;2.34100593609
216;Le Pavillon Dauphine;Bois;39.909403999999995;Route des Lacs à la Porte des Sablons;75016;;Non;Non;;;;;;;;48.8718677796;2.27307014989
217;JARDIN DES DEUX MOULINS;Promenades ouvertes;13.173061;78 AV EDISON;75013;Ouvert;Non;Non;08:00 - 18:00;08:00 - 18:00;08:00 - 18:00;08:00 - 18:00;08:00 - 18:00;09:00 - 18:00;09:00 - 18:00;48.8304806771;2.35790505736
218;PARC DE CHOISY;Promenades ouvertes;31.573572;128 AV CHOISY;75013;Ouvert;Non;Non;08:00 - 18:00;08:00 - 18:00;08:00 - 18:00;08:00 - 18:00;08:00 - 18:00;09:00 - 18:00;09:00 - 18:00;48.8279366174;2.36028455182
219;SQUARE DE LA RAFFINERIE SAY;Promenades ouvertes;5.319585;147 BD VINCENT AURIOL;75013;Ouvert;Non;Non;08:00 - 18:00;08:00 - 18:00;08:00 - 18:00;08:00 - 18:00;08:00 - 18:00;09:00 - 18:00;09:00 - 18:00;48.8318768796;2.36154615903
220;SQUARE HELENE BOUCHER;Promenades ouvertes;34.674309;6 RUE FERNAND WIDAL;75013;Ouvert;Non;Non;08:00 - 18:00;08:00 - 18:00;08:00 - 18:00;08:00 - 18:00;08:00 - 18:00;09:00 - 18:00;09:00 - 18:00;48.8185150331;2.36028555149
221;SQUARE GUSTAVE MESUREUR;Promenades ouvertes;49.06425;105 RUE JEANNE ARC;75013;Ouvert;Non;Non;08:00 - 18:00;08:00 - 18:00;08:00 - 18:00;08:00 - 18:00;08:00 - 18:00;09:00 - 18:00;09:00 - 18:00;48.8337409481;2.36237142922
222;SQUARE SAMUEL BECKETT;Promenades ouvertes;29.591762;47 RUE GANDON;75013;Ouvert;Non;Non;08:00 - 18:00;08:00 - 18:00;08:00 - 18:00;08:00 - 18:00;08:00 - 18:00;09:00 - 18:00;09:00 - 18:00;48.8201353188;2.36255302035
223;JARDIN DU MOULIN DE LA POINTE;Promenades ouvertes;16.454439999999998;22 BD KELLERMANN;75013;Ouvert;Non;Non;08:00 - 18:00;08:00 - 18:00;08:00 - 18:00;08:00 - 18:00;08:00 - 18:00;09:00 - 18:00;09:00 - 18:00;48.8210696517;2.35729905657
224;JARDIN EMILE GALLE;Promenades ouvertes;35.586664;32 RUE NEUVE BOULETS;75011;Ouvert;Non;Non;08:00 - 19:00;08:00 - 19:00;08:00 - 19:00;08:00 - 19:00;08:00 - 19:00;09:00 - 19:00;09:00 - 19:00;48.8539500207;2.39080188071
225;Bois de Boulogne;Bois;55.589062;;75016;Ouvert;Non;Non;00:00 - 23:59;00:00 - 23:59;00:00 - 23:59;00:00 - 23:59;00:00 - 23:59;00:00 - 23:59;00:00 - 23:59;;
226;;;;;;;;;;;;;;;;;
227;Bois de Boulogne;Bois;38.319435;;75016;Ouvert;Non;Non;00:00 - 23:59;00:00 - 23:59;00:00 - 23:59;00:00 - 23:59;00:00 - 23:59;00:00 - 23:59;00:00 - 23:59;48.8483981781;2.25182293528
228;Bois de Boulogne;Bois;36.585373;;75016;Ouvert;Non;Non;00:00 - 23:59;00:00 - 23:59;00:00 - 23:59;00:00 - 23:59;00:00 - 23:59;00:00 - 23:59;00:00 - 23:59;48.8563155884;2.25694213638
229;JARDIN DU GRAND PAVOIS;Promenades ouvertes;10.992951000000001;18 RUE VASCO GAMA;75015;Ouvert;Non;Non;08:00 - 18:00;08:00 - 18:00;08:00 - 18:00;08:00 - 18:00;08:00 - 18:00;09:00 - 18:00;09:00 - 18:00;48.8371897466;2.28199797756
230;JARDIN DES POETES;Promenades ouvertes;44.751652;1 AV PORTE AUTEUIL;75016;Ouvert;Non;Non;08:00 - 18:00;08:00 - 18:00;08:00 - 18:00;08:00 - 18:00;08:00 - 18:00;09:00 - 18:00;09:00 - 18:00;48.8475186023;2.25543494804
231;PARC OMNISPORT SUZANNE LENGLEN;Promenades ouvertes;34.28873;7 BD FRERES VOISIN;75015;Ouvert;Non;Non;00:00 - 23:59;00:00 - 23:59;00:00 - 23:59;00:00 - 23:59;00:00 - 23:59;00:00 - 23:59;00:00 - 23:59;;
232;;;;;;;;;;;;;;;;;
233;;;;;;;;;;;;;;;;;
234;;;;;;;;;;;;;;;;;
235;JARDIN MARIE POUSSEPIN;Promenades ouvertes;20.003598;135 RUE CONVENTION;75015;Ouvert;Non;Non;08:00 - 18:00;08:00 - 18:00;08:00 - 18:00;08:00 - 18:00;08:00 - 18:00;09:00 - 18:00;09:00 - 18:00;48.8399952438;2.29148911655
236;JARDIN SAÏDA;Promenades ouvertes;20.843418;68 RUE DANTZIG;75015;Ouvert;Non;Non;08:00 - 18:00;08:00 - 18:00;08:00 - 18:00;08:00 - 18:00;08:00 - 18:00;09:00 - 18:00;09:00 - 18:00;48.8312215294;2.29592464233
237;SQUARE RENE VIVIANI-MONTEBELLO;Promenades ouvertes;19.524529;25 QU MONTEBELLO;75005;Ouvert;Non;Non;08:00 - 18:00;08:00 - 18:00;08:00 - 18:00;08:00 - 18:00;08:00 - 18:00;09:00 - 18:00;09:00 - 18:00;48.8521658038;2.34755385486
238;Bois de Boulogne;Bois;63.512882999999995;;75016;Ouvert;Non;Non;00:00 - 23:59;00:00 - 23:59;00:00 - 23:59;00:00 - 23:59;00:00 - 23:59;00:00 - 23:59;00:00 - 23:59;;
239;;;;;;;;;;;;;;;;;
240;Bois de Vincennes;Bois;85.289152;;75012;Ouvert;Non;Non;00:00 - 23:59;00:00 - 23:59;00:00 - 23:59;00:00 - 23:59;00:00 - 23:59;00:00 - 23:59;00:00 - 23:59;48.8422762206;2.44431754474
241;SQUARE DE LA VILLA SAINTE-CROIX;Promenades ouvertes;31.427518;10 VLA SAINTE CROIX;75017;Ouvert;Non;Non;09:30 - 18:00;09:30 - 18:00;09:30 - 18:00;09:30 - 18:00;09:30 - 18:00;09:00 - 18:00;09:00 - 18:00;48.8941402986;2.32484218879
242;JARDIN LUCIEN FONTANAROSA;Promenades ouvertes;60.484669999999994;29 RUE CINO DEL DUCA;75017;Ouvert;Non;Non;08:00 - 18:00;08:00 - 18:00;08:00 - 18:00;08:00 - 18:00;08:00 - 18:00;09:00 - 18:00;09:00 - 18:00;48.8835851976;2.28268029226
243;PARC DE BERCY;Promenades ouvertes;33.744447;2 RUE JOSEPH KESSEL;75012;Ouvert;Oui;Non;00:00 - 23:59;00:00 - 23:59;00:00 - 23:59;00:00 - 23:59;00:00 - 23:59;00:00 - 23:59;00:00 - 23:59;48.8368777944;2.38028157194
244;SQUARE DES RECOLLETS;Promenades ouvertes;90.28439900000001;105 X QU JEMMAPES;75010;Ouvert;Oui;Non;00:00 - 23:59;00:00 - 23:59;00:00 - 23:59;00:00 - 23:59;00:00 - 23:59;00:00 - 23:59;00:00 - 23:59;48.8735722796;2.36359183892
245;Bois de Vincennes;Bois;96.717059;;75012;Ouvert;Non;Non;00:00 - 23:59;00:00 - 23:59;00:00 - 23:59;00:00 - 23:59;00:00 - 23:59;00:00 - 23:59;00:00 - 23:59;48.8351215437;2.42898431317
246;Bois de Vincennes;Bois;59.638780999999994;;75012;Ouvert;Non;Non;00:00 - 23:59;00:00 - 23:59;00:00 - 23:59;00:00 - 23:59;00:00 - 23:59;00:00 - 23:59;00:00 - 23:59;48.8214567355;2.44237246495
247;Bois de Vincennes;Bois;80.105339;;75012;Ouvert;Non;Non;00:00 - 23:59;00:00 - 23:59;00:00 - 23:59;00:00 - 23:59;00:00 - 23:59;00:00 - 23:59;00:00 - 23:59;48.8270293069;2.46539036166
248;SQUARE LAMARTINE;Promenades ouvertes;1.7510080000000001;3 SQ LAMARTINE;75016;Ouvert;Non;Non;08:00 - 18:00;08:00 - 18:00;08:00 - 18:00;08:00 - 18:00;08:00 - 18:00;09:00 - 18:00;09:00 - 18:00;48.8648951488;2.27516500391
249;SQUARE DU QUAI DE LA LOIRE;Promenades ouvertes;36.510744;33 QU LOIRE;75019;Ouvert;Oui;Non;00:00 - 23:59;00:00 - 23:59;00:00 - 23:59;00:00 - 23:59;00:00 - 23:59;00:00 - 23:59;00:00 - 23:59;48.8861047277;2.37596774322
250;SQUARE BERLIOZ;Promenades ouvertes;21.211976000000003;1 PL ADOLPHE MAX;75009;Ouvert;Non;Non;08:00 - 19:00;08:00 - 19:00;08:00 - 19:00;08:00 - 19:00;08:00 - 19:00;09:00 - 19:00;09:00 - 19:00;48.8831610459;2.32985858876
251;JARDIN D'EOLE;Promenades ouvertes;2.180571;20 RUE DEPARTEMENT;75018;Ouvert;Non;Non;08:00 - 18:00;08:00 - 18:00;08:00 - 18:00;08:00 - 18:00;08:00 - 18:00;09:00 - 18:00;09:00 - 18:00;48.8875131408;2.36621527554
252;SQUARE REJANE;Promenades ouvertes;49.169976;58 RUE LAGNY;75020;Ouvert;Non;Non;08:00 - 18:00;08:00 - 18:00;08:00 - 18:00;08:00 - 18:00;08:00 - 18:00;09:00 - 18:00;09:00 - 18:00;48.8484174958;2.40458517478
253;Le Pré Catelan;Bois;38.422753;Route de la Grande Cascade;75016;Ouvert;Non;Non;09:30 - 18:30;09:30 - 18:30;09:30 - 18:30;09:30 - 18:30;09:30 - 18:30;09:30 - 18:30;09:30 - 18:30;48.8638648899;2.25062001959
254;Ecole Chiens-guides d'Aveugles;Bois;17.196939999999998;102 Avenue de Saint Maurice;75012;;Non;Non;;;;;;;;48.8341223149;2.42102022348
255;Bois de Vincennes;Bois;32.157947;;75012;Ouvert;Non;Non;00:00 - 23:59;00:00 - 23:59;00:00 - 23:59;00:00 - 23:59;00:00 - 23:59;00:00 - 23:59;00:00 - 23:59;48.8302542701;2.44222603012
256;CIMETIERE DE LA VILLETTE;Cimetières;34.349795;46, rue d’Hautpoul;75019;Fermé;Non;Non;;;;;;;;48.8847234084;2.38900601783
257;JARDIN DE LA PLACE DU TROCADERO ET DU ONZE NOVEMBRE;Promenades ouvertes;16.607075000000002;10   PLACE DU TROCADERO ET DU ONZE NOVEMBRE;75016;;Oui;Non;;;;;;;;48.8629950637;2.28712780221
258;ESPLANADE HABIB BOURGUIBA;Promenades ouvertes;31.625118;2 ESPL HABIB BOURGUIBA;75007;Ouvert;Oui;Non;00:00 - 23:59;00:00 - 23:59;00:00 - 23:59;00:00 - 23:59;00:00 - 23:59;00:00 - 23:59;00:00 - 23:59;;
259;;;;;;;;;;;;;;;;;
260;JARDIN DE L'AVENUE FOCH - PELOUSE 20;Promenades ouvertes;42.233648;10 AV FOCH;75016;Ouvert;Oui;Non;00:00 - 23:59;00:00 - 23:59;00:00 - 23:59;00:00 - 23:59;00:00 - 23:59;00:00 - 23:59;00:00 - 23:59;48.8717056578;2.27860616553
261;JARDIN DE L'AVENUE FOCH - PELOUSE 11;Promenades ouvertes;30.227939;10 AV FOCH;75016;Ouvert;Oui;Non;00:00 - 23:59;00:00 - 23:59;00:00 - 23:59;00:00 - 23:59;00:00 - 23:59;00:00 - 23:59;00:00 - 23:59;;
262;;;;;;;;;;;;;;;;;
263;SQUARE DE L'ABBE LEMIRE;Promenades ouvertes;34.446515;36 RUE ALAIN;75014;Ouvert;Oui;Non;00:00 - 23:59;00:00 - 23:59;00:00 - 23:59;00:00 - 23:59;00:00 - 23:59;00:00 - 23:59;00:00 - 23:59;48.835249513;2.31458984798
264;SQUARE DE LA PLACE ETIENNE PERNET;Promenades ouvertes;88.289772;30 PL ETIENNE PERNET;75015;Ouvert;Oui;Non;00:00 - 23:59;00:00 - 23:59;00:00 - 23:59;00:00 - 23:59;00:00 - 23:59;00:00 - 23:59;00:00 - 23:59;48.8428667079;2.29230007266
265;SQUARE GEORGES CAIN;Promenades ouvertes;33.364821;8 RUE PAYENNE;75003;Ouvert;Non;Non;08:00 - 18:00;08:00 - 18:00;08:00 - 18:00;08:00 - 18:00;08:00 - 18:00;09:00 - 18:00;09:00 - 18:00;48.8580501966;2.36275794354
266;SQUARE JEAN XXIII;Promenades ouvertes;7.031598;2 QU ARCHEVECHE;75004;Fermé;Non;Non;08:00 - 17:45;08:00 - 17:45;08:00 - 17:45;08:00 - 17:45;08:00 - 17:45;09:00 - 17:45;09:00 - 17:45;48.8523947023;2.35080506566
267;SQUARE SAINT-MEDARD;Promenades ouvertes;59.585803999999996;34 RUE CENSIER;75005;Ouvert;Non;Non;09:30 - 18:00;09:30 - 18:00;09:30 - 18:00;09:30 - 18:00;09:30 - 18:00;09:00 - 18:00;09:00 - 18:00;48.8397237745;2.35048393037
268;SQUARE FELIX DESRUELLES;Promenades ouvertes;31.450719999999997;168 B BD SAINT GERMAIN;75006;Ouvert;Non;Non;08:00 - 19:00;08:00 - 19:00;08:00 - 19:00;08:00 - 19:00;08:00 - 19:00;09:00 - 19:00;09:00 - 19:00;48.8537145565;2.33459814897
269;SQUARE JULES VERNE;Promenades ouvertes;5.568178;19 RUE ORILLON;75011;Ouvert;Non;Non;08:00 - 19:00;08:00 - 19:00;08:00 - 19:00;08:00 - 19:00;08:00 - 19:00;09:00 - 19:00;09:00 - 19:00;48.8702579408;2.37508109756
270;L'Orée du Bois;Bois;15.252946000000001;Boulevard Maillot;75016;;Non;Non;;;;;;;;48.8775888219;2.27874924437
271;Camping du Bois de Boulogne;Bois;46.156889;Allée du Bord de l'Eau;75016;;Non;Non;;;;;;;;48.8696532167;2.23640927785
272;JARDIN FEDERICA MONTSENY;Promenades ouvertes;0.0;2 V PL LOUIS ARMSTRONG;75013;Ouvert;Non;Non;08:00 - 18:00;08:00 - 18:00;08:00 - 18:00;08:00 - 18:00;08:00 - 18:00;09:00 - 18:00;09:00 - 18:00;48.836153725;2.35989249399
273;SQUARE DU DOCTEUR CALMETTE;Promenades ouvertes;44.883619;35 AV ALBERT BARTHOLOME;75015;Ouvert;Non;Non;08:00 - 18:00;08:00 - 18:00;08:00 - 18:00;08:00 - 18:00;08:00 - 18:00;09:00 - 18:00;09:00 - 18:00;48.8287025156;2.29780110445
274;Bois de Boulogne;Bois;15.373038;;75016;Ouvert;Non;Non;00:00 - 23:59;00:00 - 23:59;00:00 - 23:59;00:00 - 23:59;00:00 - 23:59;00:00 - 23:59;00:00 - 23:59;48.8668974927;2.24146685475
275;JARDIN FRANCOISE MALLET-JORIS;Promenades ouvertes;10.0;11 RUE ALPHONSE BOUDARD;75013;Ouvert;Non;Non;08:00 - 18:00;08:00 - 18:00;08:00 - 18:00;08:00 - 18:00;08:00 - 18:00;09:00 - 18:00;09:00 - 18:00;48.8317058467;2.37363714466
276;JARDIN PROMENADE CESARIA EVORA;Promenades ouvertes;10.0;2 RUE CESARIA EVORA;75019;Ouvert;Non;Non;08:00 - 18:00;08:00 - 18:00;08:00 - 18:00;08:00 - 18:00;08:00 - 18:00;09:00 - 18:00;09:00 - 18:00;48.8976351767;2.3772125994
277;SQUARE DU MOULIN DE LA VIERGE;Promenades ouvertes;7.838439999999999;125 RUE VERCINGETORIX;75014;Ouvert;Non;Non;08:00 - 18:00;08:00 - 18:00;08:00 - 18:00;08:00 - 18:00;08:00 - 18:00;09:00 - 18:00;09:00 - 18:00;48.8335659681;2.31364134627
278;SQUARE YVES KLEIN;Promenades ouvertes;45.168783000000005;24 RUE CAMPAGNE 1ERE;75014;;Non;Non;;;;;;;;48.8390737295;2.33112462915
279;Bois de Vincennes;Bois;20.880145;;75012;Ouvert;Non;Non;00:00 - 23:59;00:00 - 23:59;00:00 - 23:59;00:00 - 23:59;00:00 - 23:59;00:00 - 23:59;00:00 - 23:59;48.8427474934;2.43790341134
280;JARDIN FRIDA KAHLO;Promenades ouvertes;23.091199999999997;18 RUE NOISY SEC;75020;Ouvert;Non;Non;08:00 - 18:00;08:00 - 18:00;08:00 - 18:00;08:00 - 18:00;08:00 - 18:00;09:00 - 18:00;09:00 - 18:00;48.8720656366;2.41292421473
281;JARDIN DE L'AVENUE FOCH - PELOUSE 06;Promenades ouvertes;37.393411;10 AV FOCH;75016;Ouvert;Oui;Non;00:00 - 23:59;00:00 - 23:59;00:00 - 23:59;00:00 - 23:59;00:00 - 23:59;00:00 - 23:59;00:00 - 23:59;;
282;;;;;;;;;;;;;;;;;
283;SQUARE DE LA RUE HENRI HUCHARD;Promenades ouvertes;10.246553;36 AV PORTE SAINT OUEN;75018;Ouvert;Non;Non;08:00 - 17:30;08:00 - 17:30;08:00 - 17:30;08:00 - 17:30;08:00 - 17:30;09:00 - 17:30;09:00 - 17:30;48.8997672032;2.33082511594
284;Bois de Vincennes;Bois;60.212107;;75012;Ouvert;Non;Non;00:00 - 23:59;00:00 - 23:59;00:00 - 23:59;00:00 - 23:59;00:00 - 23:59;00:00 - 23:59;00:00 - 23:59;48.8401855022;2.43107510427
285;Bois de Vincennes;Bois;52.953503999999995;;75012;Ouvert;Non;Non;00:00 - 23:59;00:00 - 23:59;00:00 - 23:59;00:00 - 23:59;00:00 - 23:59;00:00 - 23:59;00:00 - 23:59;;
286;;;;;;;;;;;;;;;;;
287;Bois de Vincennes;Bois;58.808943;;75012;Ouvert;Non;Non;00:00 - 23:59;00:00 - 23:59;00:00 - 23:59;00:00 - 23:59;00:00 - 23:59;00:00 - 23:59;00:00 - 23:59;48.8448295864;2.44111018065
288;JARDIN CLEMENCE-ANNICK BURGARD;Promenades ouvertes;10.7151;49 RUE PIERRE REBIERE;75017;;Non;Non;;;;;;;;48.8970402862;2.31790775319
289;SQUARE MARCEL MOULOUDJI;Promenades ouvertes;68.033396;12 RUE PIERRE REVERDY;75019;Ouvert;Non;Non;09:30 - 18:00;09:30 - 18:00;09:30 - 18:00;09:30 - 18:00;09:30 - 18:00;09:00 - 18:00;09:00 - 18:00;48.8854039116;2.37717554017
290;SQUARE EUGENIE COTTON;Promenades ouvertes;33.296475;60 RUE COMPANS;75019;Ouvert;Non;Non;09:30 - 18:00;09:30 - 18:00;09:30 - 18:00;09:30 - 18:00;09:30 - 18:00;09:00 - 18:00;09:00 - 18:00;48.8785812739;2.39356088357
291;Jardin des rues Maronites-Pressoir;Promenades ouvertes;0.029123000000000003;3 RUE PRESSOIR;75020;Ouvert;Non;Non;08:00 - 18:00;08:00 - 18:00;08:00 - 18:00;08:00 - 18:00;08:00 - 18:00;09:00 - 18:00;09:00 - 18:00;48.8683800859;2.38362350047
292;SQUARE JACQUES ANTOINE;Promenades ouvertes;21.863329;2 M PL DENFERT ROCHEREAU;75014;Ouvert;Oui;Non;00:00 - 23:59;00:00 - 23:59;00:00 - 23:59;00:00 - 23:59;00:00 - 23:59;00:00 - 23:59;00:00 - 23:59;48.8347396458;2.33182890059
293;SQUARE ELISA BOREY;Promenades ouvertes;6.159657999999999;3 RUE ELISA BOREY;75020;Ouvert;Oui;Non;00:00 - 23:59;00:00 - 23:59;00:00 - 23:59;00:00 - 23:59;00:00 - 23:59;00:00 - 23:59;00:00 - 23:59;48.8665970756;2.39022146181
294;Bois de Vincennes;Bois;89.56020500000001;;75012;Ouvert;Non;Non;00:00 - 23:59;00:00 - 23:59;00:00 - 23:59;00:00 - 23:59;00:00 - 23:59;00:00 - 23:59;00:00 - 23:59;48.8272173316;2.42745515535
295;Bois de Vincennes;Bois;29.506441;;75012;Ouvert;Non;Non;00:00 - 23:59;00:00 - 23:59;00:00 - 23:59;00:00 - 23:59;00:00 - 23:59;00:00 - 23:59;00:00 - 23:59;48.8258887996;2.41810811748
296;Bois de Vincennes;Bois;71.221226;;75012;Ouvert;Non;Non;00:00 - 23:59;00:00 - 23:59;00:00 - 23:59;00:00 - 23:59;00:00 - 23:59;00:00 - 23:59;00:00 - 23:59;48.8250070747;2.43072133179
297;Bois de Vincennes;Bois;72.42792100000001;;75012;Ouvert;Non;Non;00:00 - 23:59;00:00 - 23:59;00:00 - 23:59;00:00 - 23:59;00:00 - 23:59;00:00 - 23:59;00:00 - 23:59;48.8289515508;2.42055549539
298;SQUARE CARNOT;Promenades ouvertes;26.666767000000004;3  ESPLANADE SAINT-LOUIS;75012;Ouvert;Oui;Non;00:00 - 23:59;00:00 - 23:59;00:00 - 23:59;00:00 - 23:59;00:00 - 23:59;00:00 - 23:59;00:00 - 23:59;48.8396808139;2.43329232934
299;SQUARE DU SERGENT AURELIE-SALEL;Promenades ouvertes;62.948828;13 RUE SORBIER;75020;Ouvert;Non;Non;09:30 - 18:00;09:30 - 18:00;09:30 - 18:00;09:30 - 18:00;09:30 - 18:00;09:00 - 18:00;09:00 - 18:00;48.8670402058;2.39164263645
300;SQUARE DE LA PORTE DE LA PLAINE;Promenades ouvertes;22.724234000000003;16 RUE GENERAL GUILLAUMAT;75015;Ouvert;Non;Non;08:00 - 18:00;08:00 - 18:00;08:00 - 18:00;08:00 - 18:00;08:00 - 18:00;09:00 - 18:00;09:00 - 18:00;48.8286192388;2.29300892494
301;Bois de Vincennes;Bois;46.347117;;75012;Ouvert;Non;Non;00:00 - 23:59;00:00 - 23:59;00:00 - 23:59;00:00 - 23:59;00:00 - 23:59;00:00 - 23:59;00:00 - 23:59;48.8296110934;2.40661348191
302;PARC CHAPELLE CHARBON;Promenades ouvertes;30.000000000000004;rue de la Croix Moreau;75018;Ouvert;;Non;08:00 - 18:00;08:00 - 18:00;08:00 - 18:00;08:00 - 18:00;08:00 - 18:00;09:00 - 18:00;09:00 - 18:00;48.8967057671;2.36556411459
303;Les Bosquettes Hippodrome/St Cloud;Bois;39.653655;22 x Avenue de Saint Cloud;75016;;Non;Non;;;;;;;;48.8580459419;2.25506038611
304;JARDINET BRUNE VERCINGETORIX;Jardinets décoratifs;15.694292;3   BOULEVARD BRUNE;75014;Ouvert;Non;Non;00:00 - 23:59;00:00 - 23:59;00:00 - 23:59;00:00 - 23:59;00:00 - 23:59;00:00 - 23:59;00:00 - 23:59;48.8282474214;2.30534998678
305;CIMETIERE DU NORD DIT DE MONTMARTRE;Cimetières;43.032011000000004;20, avenue Rachel;75018;Ouvert;Non;Non;08:00 - 12:00;08:00 - 12:00;08:00 - 12:00;08:00 - 12:00;08:00 - 12:00;08:30 - 12:00;09:00 - 12:00;48.8875690147;2.33027869951
306;PROMENADE BERNARD LAFAY - B2;Promenades ouvertes;42.050644;8   BOULEVARD DE REIMS;75017;Ouvert;Non;Non;08:00 - 18:00;08:00 - 18:00;08:00 - 18:00;08:00 - 18:00;08:00 - 18:00;09:00 - 18:00;09:00 - 18:00;48.888377529;2.29136373293
307;PROMENADE PC 15 - BALARD - DESNOUETTES - SERRES;Promenades ouvertes;42.429410000000004;66 Z RUE LEBLANC;75015;Ouvert;Non;Non;09:00 - 18:00;09:00 - 18:00;09:00 - 18:00;09:00 - 18:00;09:00 - 18:00;09:30 - 18:00;09:30 - 18:00;48.8350835252;2.2837073576
308;PROMENADE DU COURS ALBERT 1ER;Promenades ouvertes;11.984628;5 X COUR ALBERT IER;75008;Ouvert;Oui;Non;00:00 - 23:59;00:00 - 23:59;00:00 - 23:59;00:00 - 23:59;00:00 - 23:59;00:00 - 23:59;00:00 - 23:59;48.8643460113;2.30667375201
309;JARDIN PAUL BOURGET;Promenades ouvertes;39.836222;1 RUE PAUL BOURGET;75013;Ouvert;Oui;Non;00:00 - 23:59;00:00 - 23:59;00:00 - 23:59;00:00 - 23:59;00:00 - 23:59;00:00 - 23:59;00:00 - 23:59;48.8172364901;2.35812078668
310;JARDIN DE L'AVENUE FOCH - PELOUSE 04;Promenades ouvertes;51.588623;10 AV FOCH;75016;Ouvert;Oui;Non;00:00 - 23:59;00:00 - 23:59;00:00 - 23:59;00:00 - 23:59;00:00 - 23:59;00:00 - 23:59;00:00 - 23:59;;
311;;;;;;;;;;;;;;;;;
312;JARDIN DE L'AVENUE FOCH - PELOUSE 03;Promenades ouvertes;31.621375;10 AV FOCH;75116;Ouvert;Oui;Non;00:00 - 23:59;00:00 - 23:59;00:00 - 23:59;00:00 - 23:59;00:00 - 23:59;00:00 - 23:59;00:00 - 23:59;48.8722340969;2.27763795436
313;PROMENADE DE L'AVENUE DE BRETEUIL;Promenades ouvertes;0.704582;16 V ESPL SOUVENIR FRANCAIS;75007;Ouvert;Oui;Non;00:00 - 23:59;00:00 - 23:59;00:00 - 23:59;00:00 - 23:59;00:00 - 23:59;00:00 - 23:59;00:00 - 23:59;;
314;;;;;;;;;;;;;;;;;
315;;;;;;;;;;;;;;;;;
316;;;;;;;;;;;;;;;;;
317;;;;;;;;;;;;;;;;;
318;JARDIN DE LA PLACE DE LA PORTE DE SAINT-CLOUD;Promenades ouvertes;1.3621050000000001;2 PL PORTE SAINT CLOUD;75016;Ouvert;Oui;Non;00:00 - 23:59;00:00 - 23:59;00:00 - 23:59;00:00 - 23:59;00:00 - 23:59;00:00 - 23:59;00:00 - 23:59;48.8379378209;2.25697865549
319;JARDIN DES COMBATTANTS DE LA NUEVE;Promenades ouvertes;16.813485;2 PL HOTEL VILLE ESPLANADE LIBERATION;75004;Ouvert;Non;Non;08:00 - 18:00;08:00 - 18:00;08:00 - 18:00;08:00 - 18:00;08:00 - 18:00;09:00 - 18:00;09:00 - 18:00;48.8557617669;2.35216311141
320;Centre Culturel de la Cartoucherie;Bois;23.017254;Route du Champ de Manoeuvre;75012;;Non;Non;;;;;;;;48.8355523172;2.44849049342
321;JARDIN DU GYMNASE ALICE MILLIAT;Promenades ouvertes;30.185381;11 C RUE D' ALESIA;75014;;Non;Non;;;;;;;;48.8269654139;2.33546808485
322;Manège Le Carrousel;Bois;28.610623;15 w Avenue de Bel Air;75012;;Non;Non;;;;;;;;48.8430797222;2.42115129514
323;Embarcadère Chalet des Iles;Bois;0.0;2 Chemin de Ceinture du Lac Inférieur;75016;;Non;Non;;;;;;;;48.8675897444;2.26499957117
324;SQUARE PAULY;Promenades ouvertes;33.24934;17 RUE PAULY;75014;Ouvert;Non;Non;08:00 - 18:00;08:00 - 18:00;08:00 - 18:00;08:00 - 18:00;08:00 - 18:00;09:00 - 18:00;09:00 - 18:00;48.8304362639;2.31343520262
325;Bois de Boulogne;Bois;76.478632;;75016;Ouvert;Non;Non;00:00 - 23:59;00:00 - 23:59;00:00 - 23:59;00:00 - 23:59;00:00 - 23:59;00:00 - 23:59;00:00 - 23:59;;
326;;;;;;;;;;;;;;;;;
327;JARDIN DES PETITES RIGOLES;Promenades ouvertes;10.0;1 RUE FERNAND RAYNAUD;75020;Ouvert;Non;Non;08:00 - 18:00;08:00 - 18:00;08:00 - 18:00;08:00 - 18:00;08:00 - 18:00;09:00 - 18:00;09:00 - 18:00;48.8711495307;2.3915267074
328;SQUARE EMILE CHAUTEMPS;Promenades ouvertes;61.84630800000001;98 B BD SEBASTOPOL;75003;Ouvert;Non;Non;08:00 - 18:00;08:00 - 18:00;08:00 - 18:00;08:00 - 18:00;08:00 - 18:00;09:00 - 18:00;09:00 - 18:00;48.867164881;2.35381786802
329;Bois de Vincennes;Bois;39.959666999999996;;75012;Ouvert;Non;Non;00:00 - 23:59;00:00 - 23:59;00:00 - 23:59;00:00 - 23:59;00:00 - 23:59;00:00 - 23:59;00:00 - 23:59;48.8334985885;2.40729651954
330;Bois de Boulogne;Bois;54.187556;;75016;Ouvert;Non;Non;00:00 - 23:59;00:00 - 23:59;00:00 - 23:59;00:00 - 23:59;00:00 - 23:59;00:00 - 23:59;00:00 - 23:59;;
331;;;;;;;;;;;;;;;;;
332;JARDIN DES ENFANTS DU VELODROME D'HIVER;Promenades ouvertes;10.0;5 RUE NELATON;75015;;Non;Non;;;;;;;;48.8535155519;2.2887378749
333;JARDIN MARY CASSAT;Promenades ouvertes;48.677744000000004;55 BD PICPUS;75012;Ouvert;Non;Non;09:30 - 18:00;09:30 - 18:00;09:30 - 18:00;09:30 - 18:00;09:30 - 18:00;09:00 - 18:00;09:00 - 18:00;48.8459946478;2.40092026087
334;SQUARE PAUL ROBIN;Promenades ouvertes;47.765088;10 PL HEBERT;75018;Ouvert;Non;Non;08:00 - 18:00;08:00 - 18:00;08:00 - 18:00;08:00 - 18:00;08:00 - 18:00;09:00 - 18:00;09:00 - 18:00;48.8936424248;2.36337669309
335;SQUARE DES EPINETTES;Promenades ouvertes;57.80456900000001;9 RUE MARIA DERAISMES;75017;Ouvert;Non;Non;08:00 - 18:00;08:00 - 18:00;08:00 - 18:00;08:00 - 18:00;08:00 - 18:00;09:00 - 18:00;09:00 - 18:00;48.8943656657;2.32655558299
336;Bois de Vincennes;Bois;24.314237;;75012;Ouvert;Non;Non;00:00 - 23:59;00:00 - 23:59;00:00 - 23:59;00:00 - 23:59;00:00 - 23:59;00:00 - 23:59;00:00 - 23:59;48.8364405986;2.45349314657
337;Bois de Vincennes;Bois;50.755802;;75012;Ouvert;Non;Non;00:00 - 23:59;00:00 - 23:59;00:00 - 23:59;00:00 - 23:59;00:00 - 23:59;00:00 - 23:59;00:00 - 23:59;48.8441940273;2.44537302298
338;Bois de Vincennes;Bois;48.315746;;75012;Ouvert;Non;Non;00:00 - 23:59;00:00 - 23:59;00:00 - 23:59;00:00 - 23:59;00:00 - 23:59;00:00 - 23:59;00:00 - 23:59;48.8247094959;2.46427602463
339;Square des rue des Orteaux et Croix Saint Simon;Promenades ouvertes;6.774948;108 RUE ORTEAUX;75020;Ouvert;Non;Non;08:00 - 18:00;08:00 - 18:00;08:00 - 18:00;08:00 - 18:00;08:00 - 18:00;09:00 - 18:00;09:00 - 18:00;48.8553720431;2.40936893301
340;JARDIN RUE SERPOLLET BD DAVOUT;Promenades ouvertes;38.053996;1 RUE SERPOLLET;75020;Ouvert;Non;Non;09:30 - 18:00;09:30 - 18:00;09:30 - 18:00;09:30 - 18:00;09:30 - 18:00;09:00 - 18:00;09:00 - 18:00;48.8608365407;2.40990995699
341;SQUARE DE LA PAIX;Promenades ouvertes;15.783704000000002;128 RUE LAGNY;75020;Ouvert;Non;Non;08:00 - 18:00;08:00 - 18:00;08:00 - 18:00;08:00 - 18:00;08:00 - 18:00;09:00 - 18:00;09:00 - 18:00;48.8487839147;2.41582504862
342;Square des Grès;Promenades ouvertes;14.200474;57 RUE VITRUVE;75020;Ouvert;Non;Non;09:30 - 18:00;09:30 - 18:00;09:30 - 18:00;09:30 - 18:00;09:30 - 18:00;09:00 - 18:00;09:00 - 18:00;48.8595598113;2.4061977026
343;Bois de Vincennes;Bois;76.682297;;75012;Ouvert;Non;Non;00:00 - 23:59;00:00 - 23:59;00:00 - 23:59;00:00 - 23:59;00:00 - 23:59;00:00 - 23:59;00:00 - 23:59;48.8266641257;2.42439050183
344;JARDIN DES GRANDS MOULINS - ABBE PIERRE - JARDIN DES ECOLES;Promenades ouvertes;2.86508;22 RUE THOMAS MANN;75013;Ouvert;Non;Non;08:00 - 18:00;08:00 - 18:00;08:00 - 18:00;08:00 - 18:00;08:00 - 18:00;09:00 - 18:00;09:00 - 18:00;48.8300579376;2.37961099901
345;Porte Jaune;Bois;47.752583;Avenue de Nogent;75012;;Non;Non;;;;;;;;48.8382204149;2.45903191388
346;Quartier Carnot;Bois;5.073178;Esplanade Saint Louis;75012;;Non;Non;;;;;;;;48.8377064318;2.4338819438
347;PARC DES BUTTES CHAUMONT;Promenades ouvertes;60.00000000000001;;75019;Ouvert;Non;Non;07:00 - 18:00;07:00 - 18:00;07:00 - 18:00;07:00 - 18:00;07:00 - 18:00;07:00 - 18:00;07:00 - 18:00;48.8800392639;2.38289925126
348;JARDINET DE LA PLACE DE FONTENOY;Jardinets décoratifs;26.855038000000004;3   PLACE DE FONTENOY;75007;;Non;Non;;;;;;;;48.850605809;2.30644864846
349;JARDINET DE LA PLACE SAINT-ESTEPHE;Jardinets décoratifs;50.233467;102   QUAI DE BERCY;75012;;Non;Non;;;;;;;;48.8312445937;2.38605561979
350;JARDINET DE LA PLACE JACQUES BAINVILLE;Jardinets décoratifs;78.675335;2   PLACE JACQUES BAINVILLE;75007;;Non;Non;;;;;;;;48.8585959312;2.32243085825
351;JARDINIERES DE LA RUE SERGE PROKOFIEV;Décorations sur la voie publique;10.344539;1   RUE SERGE PROKOFIEV;75016;;Non;Non;;;;;;;;48.8542132592;2.26839227644
352;ECOLE D'HORTICULTURE DU BREUIL ARBORETUM;Promenades ouvertes;39.406961;0   ROUTE DE LA PYRAMIDE;75012;;Non;Non;;;;;;;;;
353;;;;;;;;;;;;;;;;;
354;SQUARE DAUMESNIL;Promenades ouvertes;48.55224;29  ROUTE DE CEINTURE DU LAC DAUMESNIL;75012;;Non;Non;;;;;;;;48.8329398642;2.4139016565
355;PELOUSE DE SAINT CLOUD;Promenades ouvertes;7.452259;28 W AVENUE DE  SAINT CLOUD;75016;;Non;Non;;;;;;;;48.8563971592;2.25440753095
356;Jardin de l'îlot Riquet;Promenades ouvertes;24.921454;8 RUE DOCTEUR LAMAZE;75019;Ouvert;Oui;Non;00:00 - 23:59;00:00 - 23:59;00:00 - 23:59;00:00 - 23:59;00:00 - 23:59;00:00 - 23:59;00:00 - 23:59;48.8896521279;2.37342643137
357;JARDIN DE L'AVENUE FOCH - PELOUSE 18;Promenades ouvertes;35.948919000000004;10 AV FOCH;75016;Ouvert;Oui;Non;00:00 - 23:59;00:00 - 23:59;00:00 - 23:59;00:00 - 23:59;00:00 - 23:59;00:00 - 23:59;00:00 - 23:59;;
358;;;;;;;;;;;;;;;;;
359;JARDIN DE L'EGLISE SAINT-JEAN-DENYS-BÜHLER;Promenades ouvertes;39.661916000000005;147 RUE GRENELLE;75007;Ouvert;Non;Non;08:00 - 18:00;08:00 - 18:00;08:00 - 18:00;08:00 - 18:00;08:00 - 18:00;09:00 - 18:00;09:00 - 18:00;48.8573918553;2.30804362003
360;SQUARE LEO FERRE;Promenades ouvertes;0.13020600000000002;3 IMP DRUINOT;75012;Ouvert;Non;Non;09:30 - 18:00;09:30 - 18:00;09:30 - 18:00;09:30 - 18:00;09:30 - 18:00;09:00 - 18:00;09:00 - 18:00;48.8496830274;2.38060355761
361;SQUARE ALAIN BASHUNG;Promenades ouvertes;0.895852;16 RUE JESSAINT;75018;Ouvert;Non;Non;08:00 - 18:00;08:00 - 18:00;08:00 - 18:00;08:00 - 18:00;08:00 - 18:00;09:00 - 18:00;09:00 - 18:00;48.8853288477;2.35620182079
362;JARDIN DES FRANCS BOURGEOIS / RUE DES ROSIERS;Promenades ouvertes;16.785192000000002;35 RUE FRANCS BOURGEOIS;75004;Ouvert;Non;Non;08:00 - 18:00;08:00 - 18:00;08:00 - 18:00;08:00 - 18:00;08:00 - 18:00;09:00 - 18:00;09:00 - 18:00;48.8573503547;2.36019348387
363;JARDIN CROMOT-DU BOURG;Promenades ouvertes;0.0;9 RUE CADET;75009;;Non;Non;;;;;;;;48.8750995159;2.3427469534
364;JARDIN DES ARTS;Promenades ouvertes;0.8311599999999999;18 RUE HOTEL VILLE;75004;Ouvert;Non;Non;00:00 - 23:59;00:00 - 23:59;00:00 - 23:59;00:00 - 23:59;00:00 - 23:59;00:00 - 23:59;00:00 - 23:59;48.8541860078;2.35768730054
365;SQUARE EUGENE VARLIN;Promenades ouvertes;94.17456899999999;151 X QU JEMMAPES;75010;Ouvert;Oui;Non;00:00 - 23:59;00:00 - 23:59;00:00 - 23:59;00:00 - 23:59;00:00 - 23:59;00:00 - 23:59;00:00 - 23:59;48.8780835491;2.36589415254
366;JARDIN DU CARROUSEL;Jardins d'Etat;3.788763;;75001;;Non;Non;;;;;;;;48.8619212007;2.33248409207
367;CIMETIÈRE DE VALMY;Cimetières non parisiens;0.332372;;75012;;Non;Non;;;;;;;;48.8300248281;2.39919365741
368;Blockhaus Maunoury;Bois;0.0;Avenue de Saint-Cloud;75016;;Non;Non;;;;;;;;48.8621804345;2.26566198216
369;Fondation Vuitton;Bois;1.424825;Avenue du Mahatma Gandhi;75016;;Non;Non;;;;;;;;48.8767857994;2.26383987523
370;SQUARE SAINT-LAURENT;Promenades ouvertes;14.253169999999999;68 BD MAGENTA;75010;Ouvert;Non;Non;09:00 - 17:00;09:00 - 17:00;09:00 - 17:00;09:00 - 17:00;09:00 - 17:00;09:00 - 17:00;09:00 - 17:00;48.8745251758;2.35817194002
371;JARDIN D'IMMEUBLES CHOISY - CAILLAUX;Promenades ouvertes;1.591267;1 RUE CAILLAUX;75013;Ouvert;Non;Non;08:00 - 18:00;08:00 - 18:00;08:00 - 18:00;08:00 - 18:00;08:00 - 18:00;09:00 - 18:00;09:00 - 18:00;48.8226640039;2.36225798691
372;JARDIN JAMES JOYCE;Promenades ouvertes;25.337309999999995;7 RUE GEORGE BALANCHINE;75013;Ouvert;Non;Non;08:00 - 18:00;08:00 - 18:00;08:00 - 18:00;08:00 - 18:00;08:00 - 18:00;09:00 - 18:00;09:00 - 18:00;48.8359961623;2.3736442619
373;Chalet de vente Croix Rouge;Bois;23.045461;13 w Route de Ceinture du Lac Daumesnil;75012;;Non;Non;;;;;;;;48.8310370398;2.40863491671
374;Stades de Joinville;Bois;6.70225;Avenue des Canadiens;75012;;Non;Non;;;;;;;;48.818499022;2.45938375317
375;Association;Bois;0.0;2 Carrefour de la Pyramide;75012;;Non;Non;;;;;;;;48.8357232;2.44311140147
376;Abri 8 Dépôt Forestier;Bois;24.012421;15 w Route des Batteries;75012;;Non;Non;;;;;;;;48.8318961809;2.42566537337
377;JARDIN MICHELET;Promenades ouvertes;55.015861;233 T RUE TOLBIAC;75013;Ouvert;Non;Non;08:00 - 18:00;08:00 - 18:00;08:00 - 18:00;08:00 - 18:00;08:00 - 18:00;09:00 - 18:00;09:00 - 18:00;48.8258202176;2.34316929062
378;SQUARE SARAH BERNHARDT;Promenades ouvertes;30.982784000000002;13 RUE MOUNET SULLY;75020;Ouvert;Non;Non;08:00 - 18:00;08:00 - 18:00;08:00 - 18:00;08:00 - 18:00;08:00 - 18:00;09:00 - 18:00;09:00 - 18:00;48.8493440188;2.40388311874
379;Bois de Boulogne;Bois;55.24606;;75016;Ouvert;Non;Non;00:00 - 23:59;00:00 - 23:59;00:00 - 23:59;00:00 - 23:59;00:00 - 23:59;00:00 - 23:59;00:00 - 23:59;48.8768611931;2.27772299014
380;SQUARE DU CARDINAL VERDIER;Promenades ouvertes;69.47243;1 RUE THUREAU DANGIN;75015;Ouvert;Non;Non;08:00 - 18:00;08:00 - 18:00;08:00 - 18:00;08:00 - 18:00;08:00 - 18:00;09:00 - 18:00;09:00 - 18:00;48.8295667574;2.29384551377
381;PROMENADE PEREIRE - TERNES / MAILLOT;Promenades ouvertes;0.732114;87 AV TERNES;75017;Ouvert;Non;Non;08:00 - 18:00;08:00 - 18:00;08:00 - 18:00;08:00 - 18:00;08:00 - 18:00;09:00 - 18:00;09:00 - 18:00;48.8793725161;2.28688343634
382;JARDIN MARIE-THERESE AUFFRAY;Promenades ouvertes;16.639926;8 AV SIBELLE;75014;Ouvert;Non;Non;09:30 - 18:00;09:30 - 18:00;09:30 - 18:00;09:30 - 18:00;09:30 - 18:00;09:00 - 18:00;09:00 - 18:00;48.8263583837;2.33787505491
383;JARDIN JUAN MIRO;Promenades ouvertes;27.063242999999996;40 RUE GANDON;75013;Ouvert;Non;Non;08:00 - 18:00;08:00 - 18:00;08:00 - 18:00;08:00 - 18:00;08:00 - 18:00;09:00 - 18:00;09:00 - 18:00;48.8201779008;2.36054064003
384;JARDIN DU CLOS DES BLANCS MANTEAUX;Promenades ouvertes;48.679255;21 RUE BLANCS MANTEAUX;75004;Ouvert;Non;Non;09:30 - 18:00;09:30 - 18:00;09:30 - 18:00;09:30 - 18:00;09:30 - 18:00;08:30 - 18:00;08:30 - 18:00;48.8586135405;2.35650465102
385;SQUARE MARCEL SEMBAT;Promenades ouvertes;3.1032859999999998;2 RUE MARCEL SEMBAT;75018;Ouvert;Non;Non;08:00 - 18:00;08:00 - 18:00;08:00 - 18:00;08:00 - 18:00;08:00 - 18:00;09:00 - 18:00;09:00 - 18:00;48.8988398662;2.33833053382
386;SQUARE COLBERT;Promenades ouvertes;46.886537;159 RUE CHARONNE;75011;Ouvert;Non;Non;08:00 - 18:00;08:00 - 18:00;08:00 - 18:00;08:00 - 18:00;08:00 - 18:00;09:00 - 18:00;09:00 - 18:00;48.8564208594;2.38935156548
387;Bois de Vincennes;Bois;40.934165;;75012;Ouvert;Non;Non;00:00 - 23:59;00:00 - 23:59;00:00 - 23:59;00:00 - 23:59;00:00 - 23:59;00:00 - 23:59;00:00 - 23:59;48.8386277546;2.42260925787
388;Bois de Vincennes;Bois;51.828284999999994;;75012;Ouvert;Non;Non;00:00 - 23:59;00:00 - 23:59;00:00 - 23:59;00:00 - 23:59;00:00 - 23:59;00:00 - 23:59;00:00 - 23:59;48.8435046702;2.44903094988
389;Bois de Vincennes;Bois;51.986878999999995;;75012;Ouvert;Non;Non;00:00 - 23:59;00:00 - 23:59;00:00 - 23:59;00:00 - 23:59;00:00 - 23:59;00:00 - 23:59;00:00 - 23:59;48.8198657176;2.44680465955
390;PROMENADE PEREIRE - RENNEQUIN / LAUGIER;Promenades ouvertes;10.418753;59 RUE RENNEQUIN;75017;Ouvert;Non;Non;08:00 - 18:00;08:00 - 18:00;08:00 - 18:00;08:00 - 18:00;08:00 - 18:00;09:00 - 18:00;09:00 - 18:00;48.8834295631;2.2943859821
391;Jardin rue de PALI-KAO;Promenades ouvertes;48.782557;38 RUE PALI KAO;75020;Ouvert;Non;Non;08:00 - 18:00;08:00 - 18:00;08:00 - 18:00;08:00 - 18:00;08:00 - 18:00;09:00 - 18:00;09:00 - 18:00;48.870747543;2.38323643083
392;Square du Docteur Jacques-Joseph GRANCHER;Promenades ouvertes;4.898882;9 RUE BIDASSOA;75020;Ouvert;Non;Non;09:30 - 18:00;09:30 - 18:00;09:30 - 18:00;09:30 - 18:00;09:30 - 18:00;09:00 - 18:00;09:00 - 18:00;48.8654335291;2.39418947783
393;SQUARE COURTELINE;Promenades ouvertes;13.781264000000002;51 BD PICPUS;75012;Ouvert;Oui;Non;00:00 - 23:59;00:00 - 23:59;00:00 - 23:59;00:00 - 23:59;00:00 - 23:59;00:00 - 23:59;00:00 - 23:59;48.8445301275;2.40209180011
394;Bois de Vincennes;Bois;39.032754000000004;;75012;Ouvert;Non;Non;00:00 - 23:59;00:00 - 23:59;00:00 - 23:59;00:00 - 23:59;00:00 - 23:59;00:00 - 23:59;00:00 - 23:59;48.8303916892;2.40206817103
395;SQUARE LOUISE DE MARILLAC;Promenades ouvertes;84.117816;5 PL CHAPELLE;75018;Ouvert;Non;Non;08:00 - 18:00;08:00 - 18:00;08:00 - 18:00;08:00 - 18:00;08:00 - 18:00;09:00 - 18:00;09:00 - 18:00;48.8847104646;2.3600012333
396;SQUARE DU PETIT BOIS;Promenades ouvertes;27.050401;79 ALL DARIUS MILHAUD;75019;Ouvert;Non;Non;09:30 - 18:00;09:30 - 18:00;09:30 - 18:00;09:30 - 18:00;09:30 - 18:00;09:00 - 18:00;09:00 - 18:00;48.8858076599;2.39256544139
397;SQUARE HENRI CADIOU;Promenades ouvertes;10.874918000000001;69 BD ARAGO;75013;Ouvert;Non;Non;08:00 - 18:00;08:00 - 18:00;08:00 - 18:00;08:00 - 18:00;08:00 - 18:00;09:00 - 18:00;09:00 - 18:00;48.8342511705;2.34250104025
398;SQUARE CLOS FEUQUIERES - DESNOUETTES;Promenades ouvertes;54.357794999999996;12 RUE CLOS FEUQUIERES;75015;Ouvert;Non;Non;08:00 - 18:00;08:00 - 18:00;08:00 - 18:00;08:00 - 18:00;08:00 - 18:00;09:00 - 18:00;09:00 - 18:00;48.8367448388;2.29070899193
399;SQUARE JEAN LECLAIRE;Promenades ouvertes;22.598767;25 B RUE JEAN LECLAIRE;75017;Ouvert;Non;Non;08:00 - 18:00;08:00 - 18:00;08:00 - 18:00;08:00 - 18:00;08:00 - 18:00;09:00 - 18:00;09:00 - 18:00;48.8959731865;2.32553696233
400;Bois de Boulogne;Bois;36.032813000000004;;75016;Ouvert;Non;Non;00:00 - 23:59;00:00 - 23:59;00:00 - 23:59;00:00 - 23:59;00:00 - 23:59;00:00 - 23:59;00:00 - 23:59;48.8745585475;2.25051020403
401;JARDINET DE LA PLACED'ITALIE EST;Jardinets décoratifs;4.798923;9 V PLACE D' ITALIE;75013;;Non;Non;;;;;;;;48.8317080289;2.35645309529
402;CIMETIERE SAINT-VINCENT;Cimetières;1.4936330000000002;6, rue Lucien-Gaulard;75018;Ouvert;Non;Non;08:00 - 12:00;08:00 - 12:00;08:00 - 12:00;08:00 - 12:00;08:00 - 12:00;08:30 - 12:00;09:00 - 12:00;48.8890224385;2.33930292145
403;MAIL DU PASSAGE NAFISSA SID CARA;Décorations sur la voie publique;1.3769399999999998;1 Z PASSAGE NAFISSA SID CARA;75019;;Non;Non;;;;;;;;48.8791726906;2.40940907826
404;ESPLANADE DES INVALIDES;Promenades ouvertes;24.634257;15 RUE FABERT;75007;Ouvert;Oui;Non;00:00 - 23:59;00:00 - 23:59;00:00 - 23:59;00:00 - 23:59;00:00 - 23:59;00:00 - 23:59;00:00 - 23:59;;
405;;;;;;;;;;;;;;;;;
406;SQUARE PABLO CASALS;Promenades ouvertes;43.837379999999996;49 RUE EMERIAU;75015;;Oui;Non;;;;;;;;48.8488577436;2.28609580243
407;JARDIN DES ABORDS DU PETIT PALAIS;Promenades ouvertes;19.554933;14 COUR REINE;75008;Ouvert;Oui;Non;00:00 - 23:59;00:00 - 23:59;00:00 - 23:59;00:00 - 23:59;00:00 - 23:59;00:00 - 23:59;00:00 - 23:59;48.8653765847;2.31465884411
408;Jeux de Boules-Bridge de Saint Mandé;Bois;64.70683700000001;21 w Route du Lac de Saint Mandé;75012;;Non;Non;;;;;;;;48.8380243293;2.42310361122
409;SQUARE FRANCK BAUER;Promenades ouvertes;53.707558;1 PL DUPLEIX;75015;Ouvert;Non;Non;08:00 - 18:00;08:00 - 18:00;08:00 - 18:00;08:00 - 18:00;08:00 - 18:00;09:00 - 18:00;09:00 - 18:00;48.8512055798;2.29577393111
410;JARDIN DE LA DALLE D'IVRY;Promenades ouvertes;13.569959;9 RUE POINTE IVRY;75013;Ouvert;Non;Non;08:00 - 18:00;08:00 - 18:00;08:00 - 18:00;08:00 - 18:00;08:00 - 18:00;09:00 - 18:00;09:00 - 18:00;48.8222760583;2.36484067006
411;SQUARE YILMAZ GUNEY;Promenades ouvertes;0.6023499999999999;25 RUE ECHIQUIER;75010;Ouvert;Non;Non;08:00 - 18:00;08:00 - 18:00;08:00 - 18:00;08:00 - 18:00;08:00 - 18:00;09:00 - 18:00;09:00 - 18:00;48.8711759189;2.35046934052
412;SQUARE JACQUES BIDAUT;Promenades ouvertes;20.453159999999997;18 RUE LUNE;75002;Ouvert;Non;Non;08:15 - 18:15;08:15 - 18:15;08:15 - 18:15;08:15 - 18:15;08:15 - 18:15;09:00 - 18:15;09:00 - 18:15;48.8698676527;2.34996063554
413;Allée des fortifications;Promenades ouvertes;30.000000000000004;Allée des fortifications;75016;;Non;Non;;;;;;;;48.8603673889;2.26482774847
414;PROMENADE DU QUAI DE LA GIRONDE;Promenades ouvertes;10.0;Quai de la gironde;75019;;Oui;Non;;;;;;;;48.8983406765;2.3816736186
415;Tennis Club de Joinville;Bois;18.557015000000003;Route de la Pyramide;75012;;Non;Non;;;;;;;;48.8213528667;2.46034440688
416;Hippodrome de Vincennes;Bois;6.298687;Route de la Ferme;75012;;Non;Non;;;;;;;;48.8239532056;2.45076872415
417;Stade et tennis de Vincennes;Bois;4.051815;Route de la Pyramide;75012;;Non;Non;;;;;;;;48.8360498496;2.43965965324
418;Le Pavillon Royal;Bois;31.697619999999997;Route de la Muette à Neuilly;75016;;Non;Non;;;;;;;;48.8691273593;2.26434624107
419;Le Pavillon d'Armenonville;Bois;35.846944;121 w Allée de Longchamp;75016;;Non;Non;;;;;;;;48.8760658898;2.27326599977
420;SQUARE D'ESTIENNE D'ORVES;Promenades ouvertes;38.617892;1 PL ESTIENNE ORVES;75009;Ouvert;Non;Non;08:00 - 19:00;08:00 - 19:00;08:00 - 19:00;08:00 - 19:00;08:00 - 19:00;09:00 - 19:00;09:00 - 19:00;48.876738007;2.33162982369
421;SQUARE ALEX BISCARRE;Promenades ouvertes;41.202173;31 RUE NOTRE DAME LORETTE;75009;Ouvert;Non;Non;09:00 - 17:30;09:00 - 17:30;09:00 - 17:30;09:00 - 17:30;09:00 - 17:30;09:00 - 17:30;09:00 - 17:30;48.8784949014;2.33674341695
422;JARDIN VILLEMIN;Promenades ouvertes;24.725661000000002;20 RUE RECOLLETS;75010;Ouvert;Non;Non;08:00 - 19:00;08:00 - 19:00;08:00 - 19:00;08:00 - 19:00;08:00 - 19:00;09:00 - 19:00;09:00 - 19:00;48.8751469261;2.36179583269
423;PARC KELLERMANN;Promenades ouvertes;43.633018;19 RUE POTERNE PEUPLIERS;75013;Ouvert;Non;Non;08:00 - 18:00;08:00 - 18:00;08:00 - 18:00;08:00 - 18:00;08:00 - 18:00;09:00 - 18:00;09:00 - 18:00;48.8183177594;2.3553571426
424;SQUARE SUZANNE BUISSON;Promenades ouvertes;9.003727999999999;7 B RUE GIRARDON;75018;Ouvert;Non;Non;08:00 - 18:00;08:00 - 18:00;08:00 - 18:00;08:00 - 18:00;08:00 - 18:00;09:00 - 18:00;09:00 - 18:00;48.8881989728;2.33714729828
425;Manège Dame Blanche;Bois;39.645856;9 w Route de la Dame Blanche;75012;;Non;Non;;;;;;;;48.844820137;2.44429015448
426;JARDIN DE LA MONTGOLFIERE;Promenades ouvertes;27.971074;42 RUE MOULINET;75013;Ouvert;Non;Non;08:00 - 18:00;08:00 - 18:00;08:00 - 18:00;08:00 - 18:00;08:00 - 18:00;09:00 - 18:00;09:00 - 18:00;48.826994667;2.35395662521
427;SQUARE HENRI ROUSSELLE;Promenades ouvertes;70.006511;6 PL PAUL VERLAINE;75013;Ouvert;Non;Non;08:00 - 18:00;08:00 - 18:00;08:00 - 18:00;08:00 - 18:00;08:00 - 18:00;09:00 - 18:00;09:00 - 18:00;48.8278662094;2.35214854655
428;SQUARE FREDERIC BAZILLE;Promenades ouvertes;5.260167;15 T RUE BARDINET;75014;Ouvert;Non;Non;09:30 - 18:00;09:30 - 18:00;09:30 - 18:00;09:30 - 18:00;09:30 - 18:00;09:00 - 18:00;09:00 - 18:00;48.8302194308;2.31688044847
429;Bois de Boulogne;Bois;25.818839999999998;;75016;Ouvert;Non;Non;00:00 - 23:59;00:00 - 23:59;00:00 - 23:59;00:00 - 23:59;00:00 - 23:59;00:00 - 23:59;00:00 - 23:59;48.8750310322;2.24723202041
430;JARDIN MARGUERITE BOUCICAUT;Promenades ouvertes;40.0;7 ALLEE ISADORA DUNCAN;75015;Ouvert;Non;Non;09:00 - 18:00;09:00 - 18:00;09:00 - 18:00;09:00 - 18:00;09:00 - 18:00;09:00 - 18:00;09:00 - 18:00;48.8420032473;2.28397264865
431;Guignol Les Marionnettes;Bois;10.22168;Parc Floral;75012;;Non;Non;;;;;;;;48.8392352011;2.44436811255
432;Bois de Boulogne;Bois;42.526634;;75016;Ouvert;Non;Non;00:00 - 23:59;00:00 - 23:59;00:00 - 23:59;00:00 - 23:59;00:00 - 23:59;00:00 - 23:59;00:00 - 23:59;;
433;;;;;;;;;;;;;;;;;
434;Bois de Boulogne;Bois;48.594809;;75016;Ouvert;Non;Non;00:00 - 23:59;00:00 - 23:59;00:00 - 23:59;00:00 - 23:59;00:00 - 23:59;00:00 - 23:59;00:00 - 23:59;48.8641547812;2.26385629233
435;Bois de Vincennes;Bois;90.60037999999999;;75012;Ouvert;Non;Non;00:00 - 23:59;00:00 - 23:59;00:00 - 23:59;00:00 - 23:59;00:00 - 23:59;00:00 - 23:59;00:00 - 23:59;48.8352571329;2.43075016451
436;PROMENADE DE LA GARE D'AUTEUIL;Promenades ouvertes;60.00000000000001;130 BOULEVARD SUCHET;75016;;Non;Non;;;;;;;;48.8496038021;2.2608156102
437;SQUARE DE LA MADONE;Promenades ouvertes;51.549802;17 RUE ROSES;75018;Ouvert;Non;Non;08:00 - 19:00;08:00 - 19:00;08:00 - 19:00;08:00 - 19:00;08:00 - 19:00;09:00 - 19:00;09:00 - 19:00;48.8926627089;2.36149212797
438;JARDIN HENRI SAUVAGE;Promenades ouvertes;30.272201;5 RUE AMIRAUX;75018;Ouvert;Non;Non;08:00 - 18:00;08:00 - 18:00;08:00 - 18:00;08:00 - 18:00;08:00 - 18:00;09:00 - 18:00;09:00 - 18:00;48.8940455516;2.35226956867
439;SQUARE HENRI GALLI;Promenades ouvertes;43.587284;9 BD HENRI 4;75004;Ouvert;Oui;Non;00:00 - 23:59;00:00 - 23:59;00:00 - 23:59;00:00 - 23:59;00:00 - 23:59;00:00 - 23:59;00:00 - 23:59;48.8513240939;2.36178078039
440;Bois de Vincennes;Bois;23.602328;;75012;Ouvert;Non;Non;00:00 - 23:59;00:00 - 23:59;00:00 - 23:59;00:00 - 23:59;00:00 - 23:59;00:00 - 23:59;00:00 - 23:59;48.8362240722;2.455300907
441;Bois de Vincennes;Bois;90.658444;;75012;Ouvert;Non;Non;00:00 - 23:59;00:00 - 23:59;00:00 - 23:59;00:00 - 23:59;00:00 - 23:59;00:00 - 23:59;00:00 - 23:59;48.8380412511;2.4311393765
442;Bois de Vincennes;Bois;69.842545;;75012;Ouvert;Non;Non;00:00 - 23:59;00:00 - 23:59;00:00 - 23:59;00:00 - 23:59;00:00 - 23:59;00:00 - 23:59;00:00 - 23:59;48.8366226733;2.43499025278
443;Bois de Vincennes;Bois;25.655654;;75012;Ouvert;Non;Non;00:00 - 23:59;00:00 - 23:59;00:00 - 23:59;00:00 - 23:59;00:00 - 23:59;00:00 - 23:59;00:00 - 23:59;48.841652222;2.43852376596
444;Bois de Vincennes;Bois;50.568883;;75012;Ouvert;Non;Non;00:00 - 23:59;00:00 - 23:59;00:00 - 23:59;00:00 - 23:59;00:00 - 23:59;00:00 - 23:59;00:00 - 23:59;;
445;;;;;;;;;;;;;;;;;
446;SQUARE DU PERE PLUMIER;Promenades ouvertes;17.994256;136 RUE VERCINGETORIX;75014;Ouvert;Oui;Non;00:00 - 23:59;00:00 - 23:59;00:00 - 23:59;00:00 - 23:59;00:00 - 23:59;00:00 - 23:59;00:00 - 23:59;48.8335141461;2.31207745929
447;SQUARE DU CARDINAL WYSZINSKI;Promenades ouvertes;38.454613;72 RUE VERCINGETORIX;75014;Ouvert;Oui;Non;00:00 - 23:59;00:00 - 23:59;00:00 - 23:59;00:00 - 23:59;00:00 - 23:59;00:00 - 23:59;00:00 - 23:59;48.8362581375;2.31620129125
448;SQUARE NADAR;Promenades ouvertes;73.16517300000001;2 RUE SAINT ELEUTHERE;75018;Ouvert;Oui;Non;00:00 - 23:59;00:00 - 23:59;00:00 - 23:59;00:00 - 23:59;00:00 - 23:59;00:00 - 23:59;00:00 - 23:59;48.8859243625;2.34186779117
449;SQUARE DU QUAI DE LA SEINE;Promenades ouvertes;24.765694;40 QU SEINE;75019;Ouvert;Oui;Non;00:00 - 23:59;00:00 - 23:59;00:00 - 23:59;00:00 - 23:59;00:00 - 23:59;00:00 - 23:59;00:00 - 23:59;48.8868222134;2.37514184725
450;Bois de Vincennes;Bois;71.925821;;75012;Ouvert;Non;Non;00:00 - 23:59;00:00 - 23:59;00:00 - 23:59;00:00 - 23:59;00:00 - 23:59;00:00 - 23:59;00:00 - 23:59;48.8249802757;2.44470918791
451;Bois de Vincennes;Bois;75.169487;;75012;Ouvert;Non;Non;00:00 - 23:59;00:00 - 23:59;00:00 - 23:59;00:00 - 23:59;00:00 - 23:59;00:00 - 23:59;00:00 - 23:59;48.8270228735;2.42359734724
452;SQUARE YILMAZ GUNEY;Promenades ouvertes;10.0;25 RUE DE L' ECHIQUIER;75010;Ouvert;Non;Non;08:00 - 18:00;08:00 - 18:00;08:00 - 18:00;08:00 - 18:00;08:00 - 18:00;09:00 - 18:00;09:00 - 18:00;48.8710779552;2.35045756059
453;SQUARE HENRI CHRISTINE;Promenades ouvertes;98.153023;151 X QU JEMMAPES;75010;Ouvert;Oui;Non;00:00 - 23:59;00:00 - 23:59;00:00 - 23:59;00:00 - 23:59;00:00 - 23:59;00:00 - 23:59;00:00 - 23:59;48.8779662738;2.3662032332
454;Le Chalet des Iles;Bois;4.203589;Ile du Lac Inférieur;75016;;Non;Non;;;;;;;;48.8635526934;2.26016235377
455;Les Bosquettes Plaine de Jeux;Bois;1.070131;14 w Route du Champ d'Entraînement;75016;;Non;Non;;;;;;;;48.8740130509;2.24774471028
456;JARDINIERES DE LA RUE DE L'AMIRAL  ROUSSIN;Décorations sur la voie publique;4.820377;20   RUE DE L' AMIRAL ROUSSIN;75015;;Non;Non;;;;;;;;48.8435373672;2.2997055919
457;Mail place Saint BLAISE;Promenades ouvertes;0.0;119 RUE BAGNOLET;75020;Ouvert;Non;Non;09:30 - 18:00;09:30 - 18:00;09:30 - 18:00;09:30 - 18:00;09:30 - 18:00;09:00 - 18:00;09:00 - 18:00;48.8604396233;2.40414267566
458;JARDIN CHARLES TRENET;Promenades ouvertes;0.0;31 RUE BRILLAT SAVARIN;75013;Ouvert;Non;Non;08:00 - 18:00;08:00 - 18:00;08:00 - 18:00;08:00 - 18:00;08:00 - 18:00;09:00 - 18:00;09:00 - 18:00;48.8218856111;2.34841466921
459;CIMETIERE DU SUD DIT DU MONTPARNASSE;Cimetières;23.952954000000002;3, boulevard Edgar-Quinet;75014;Ouvert;Non;Non;08:00 - 12:00 / 14:00 - 17:30;08:00 - 12:00 / 14:00 - 17:30;08:00 - 12:00 / 14:00 - 17:30;08:00 - 12:00 / 14:00 - 17:30;08:00 - 12:00 / 14:00 - 17:30;08:30 - 12:00 / 14:00 - 17:30;09:00 - 12:00 / 14:00 - 17:30;48.838019798;2.32729301594
460;JARDINIERES DE L'AVENUE DE LA PORTE DE VINCENNES (12EME);Décorations sur la voie publique;24.941232;2   AVENUE DE LA PORTE DE VINCENNES;75012;;Non;Non;;;;;;;;48.8466526766;2.41254841407
461;SQUARE DE LA CROIX ROUGE;Promenades ouvertes;26.133509;6 W ROUTE DE CEINTURE DU LAC DAUMESNIL;75012;Ouvert;Non;Non;00:00 - 23:59;00:00 - 23:59;00:00 - 23:59;00:00 - 23:59;00:00 - 23:59;00:00 - 23:59;00:00 - 23:59;48.8324381255;2.40744518494
462;SQUARE DU JEU DE BOULES DE SAINT MANDE;Promenades ouvertes;37.222314;23 W ROUTE DE  LAC DE SAINT-MANDÉ;75012;Ouvert;Non;Non;00:00 - 23:59;00:00 - 23:59;00:00 - 23:59;00:00 - 23:59;00:00 - 23:59;00:00 - 23:59;00:00 - 23:59;48.8390750128;2.4221961378
463;JARDIN DU CHAMP DE MARS ET PELOUSES DE L'ECOLE MILITAIRE;Promenades ouvertes;22.972025000000002;1 AV ANATOLE FRANCE;75007;Ouvert;Oui;Non;00:00 - 23:59;00:00 - 23:59;00:00 - 23:59;00:00 - 23:59;00:00 - 23:59;00:00 - 23:59;00:00 - 23:59;;
464;;;;;;;;;;;;;;;;;
465;;;;;;;;;;;;;;;;;
466;;;;;;;;;;;;;;;;;
467;;;;;;;;;;;;;;;;;
468;COULEE VERTE RENE DUMONT - MAIL DE REUILLY - ALLEE VIVALDI;Promenades ouvertes;20.068736;11 ALL VIVALDI;75012;Ouvert;Oui;Non;08:00 - 19:00;08:00 - 19:00;08:00 - 19:00;08:00 - 19:00;08:00 - 19:00;09:00 - 19:00;09:00 - 19:00;48.8416133417;2.39060339861
469;SQUARE JULIA BARTET;Promenades ouvertes;27.302726;3 RUE JULIA BARTET;75014;Ouvert;Oui;Non;00:00 - 23:59;00:00 - 23:59;00:00 - 23:59;00:00 - 23:59;00:00 - 23:59;00:00 - 23:59;00:00 - 23:59;48.8262041255;2.30356321708
470;JARDIN JULES NOEL;Promenades ouvertes;41.370627;1 B AV MAURICE OCAGNE;75014;;Oui;Non;;;;;;;;48.8242342568;2.31482566769
471;PROMENADE DU COURS LA REINE;Promenades ouvertes;4.107627;19 X COUR REINE;75008;Ouvert;Oui;Non;00:00 - 23:59;00:00 - 23:59;00:00 - 23:59;00:00 - 23:59;00:00 - 23:59;00:00 - 23:59;00:00 - 23:59;48.8645290262;2.3147877729
472;JARDIN DE L'AVENUE FOCH - PELOUSE 08;Promenades ouvertes;38.138142;10 AV FOCH;75016;Ouvert;Oui;Non;00:00 - 23:59;00:00 - 23:59;00:00 - 23:59;00:00 - 23:59;00:00 - 23:59;00:00 - 23:59;00:00 - 23:59;;
473;;;;;;;;;;;;;;;;;
474;JARDIN DE L'AVENUE FOCH - PELOUSE 12;Promenades ouvertes;36.288882;10 AV FOCH;75016;Ouvert;Oui;Non;00:00 - 23:59;00:00 - 23:59;00:00 - 23:59;00:00 - 23:59;00:00 - 23:59;00:00 - 23:59;00:00 - 23:59;;
475;;;;;;;;;;;;;;;;;
476;JARDIN DE L'HOTEL SALE - LEONOR FINI;Promenades ouvertes;0.520419;90 RUE VIEILLE TEMPLE;75003;Ouvert;Non;Non;08:00 - 18:00;08:00 - 18:00;08:00 - 18:00;08:00 - 18:00;08:00 - 18:00;09:00 - 18:00;09:00 - 18:00;48.8601785216;2.36165436775
477;SQUARE SAINT-GILLES - GRAND VENEUR - PAULINE ROLAND;Promenades ouvertes;7.423699;15 RUE GRAND VENEUR;75003;Ouvert;Non;Non;08:00 - 18:00;08:00 - 18:00;08:00 - 18:00;08:00 - 18:00;08:00 - 18:00;09:00 - 18:00;09:00 - 18:00;48.8592395367;2.36539797762
478;JARDIN DU 122 RUE DES POISSONNIERS;Promenades ouvertes;13.532308;122 RUE POISSONNIERS;75018;Ouvert;Non;Non;08:00 - 18:00;08:00 - 18:00;08:00 - 18:00;08:00 - 18:00;08:00 - 18:00;09:00 - 18:00;09:00 - 18:00;48.8951059958;2.35373254543
479;Jeu de boules La Nogentaise;Bois;50.839690999999995;14 w Route de la Ménagerie;75012;;Non;Non;;;;;;;;48.8351305367;2.46664807666
480;SQUARE GEORGES SARRE;Promenades ouvertes;60.46496500000001;5 AV JEAN AICARD;75011;Ouvert;Non;Non;08:00 - 18:00;08:00 - 18:00;08:00 - 18:00;08:00 - 18:00;08:00 - 18:00;09:00 - 18:00;09:00 - 18:00;48.8655225996;2.38103053293
481;SQUARE FRANCIS LEMARQUE;Promenades ouvertes;0.6053430000000001;90 RUE ROQUETTE;75011;Ouvert;Non;Non;08:00 - 18:00;08:00 - 18:00;08:00 - 18:00;08:00 - 18:00;08:00 - 18:00;09:00 - 18:00;09:00 - 18:00;48.8560546638;2.37679339464
482;SQUARE EMILE COHL;Promenades ouvertes;8.223689;60 BD SOULT;75012;Ouvert;Non;Non;09:30 - 18:00;09:30 - 18:00;09:30 - 18:00;09:30 - 18:00;09:30 - 18:00;09:00 - 18:00;09:00 - 18:00;48.8421391144;2.4101832247
483;SQUARE LOUVOIS;Promenades ouvertes;69.08514799999999;69 B RUE RICHELIEU;75002;Ouvert;Non;Non;08:15 - 18:30;08:15 - 18:30;08:15 - 18:30;08:15 - 18:30;08:15 - 18:30;09:00 - 18:30;09:00 - 18:30;48.8679743442;2.33757322837
484;JARDIN DU MUSÉE RODIN;Jardins grandes institutions;41.397081;;75007;;Non;Non;;;;;;;;48.8546751162;2.31585960877
485;JARDIN DU PALAIS ROYAL;Jardins d'Etat;1.4565919999999999;;75001;Ouvert;Non;Non;00:00 - 23:59;00:00 - 23:59;00:00 - 23:59;00:00 - 23:59;00:00 - 23:59;00:00 - 23:59;00:00 - 23:59;48.8650073432;2.33780889276
486;JARDIN DES PLANTES;Jardins d'Etat;33.932202000000004;;75005;Ouvert;Non;Non;00:00 - 23:59;00:00 - 23:59;00:00 - 23:59;00:00 - 23:59;00:00 - 23:59;00:00 - 23:59;00:00 - 23:59;;
487;;;;;;;;;;;;;;;;;
488;CIMETIÈRE DE SAINT-MANDE;Cimetières non parisiens;4.397699;;75012;;Non;Non;;;;;;;;48.8371398137;2.41117916268
489;La Garde Républicaine;Bois;31.328162;93 w Avenue de l'Hippodrome;75016;;Non;Non;;;;;;;;48.8607558711;2.25461888961
490;JARDINETS DE LA RUE DU COLONEL COLONNA D'ORNANO;Jardinets décoratifs;22.674901;6   RUE DU  COLONEL COLONNA D'ORNANO;75015;;Non;Non;;;;;;;;;
491;;;;;;;;;;;;;;;;;
492;;;;;;;;;;;;;;;;;
493;;;;;;;;;;;;;;;;;
494;JARDIN FRANCOISE HERITIER;Promenades ouvertes;1.2496399999999999;1 PL GARENNE;75014;Ouvert;Non;Non;08:00 - 19:00;08:00 - 19:00;08:00 - 19:00;08:00 - 19:00;08:00 - 19:00;09:00 - 19:00;09:00 - 19:00;48.8339668613;2.31968483796
495;JARDIN DES GRANDS EXPLORATEURS - MARCO POLO ET CAVELIER DE LA SALLE;Promenades ouvertes;27.923251999999998;10 AV OBSERVATOIRE;75006;Ouvert;Non;Non;08:00 - 19:00;08:00 - 19:00;08:00 - 19:00;08:00 - 19:00;08:00 - 19:00;09:00 - 19:00;09:00 - 19:00;48.84172398;2.33686401135
496;SQUARE DE LA RUE JEAN DUNAND (ZAC BAUDRICOURT);Promenades ouvertes;64.35849300000001;14 RUE POINTE IVRY;75013;Ouvert;Non;Non;08:00 - 18:00;08:00 - 18:00;08:00 - 18:00;08:00 - 18:00;08:00 - 18:00;09:00 - 18:00;09:00 - 18:00;48.823061108;2.36429753037
497;Piscine à boules SEPE;Bois;0.0;Parc Floral, aire de jeux;75012;;Non;Non;;;;;;;;48.8373629132;2.44777864525
498;JARDIN LIONEL ASSOUAD;Promenades ouvertes;16.278482;22 RUE CHATILLON;75014;Ouvert;Non;Non;08:00 - 19:00;08:00 - 19:00;08:00 - 19:00;08:00 - 19:00;08:00 - 19:00;09:00 - 19:00;09:00 - 19:00;48.82793191;2.32284217162
499;Jardin de l'Hospice DEBROUSSE;Promenades ouvertes;36.392684;148 RUE BAGNOLET;75020;Ouvert;Non;Non;08:00 - 18:00;08:00 - 18:00;08:00 - 18:00;08:00 - 18:00;08:00 - 18:00;09:00 - 18:00;09:00 - 18:00;48.8620064088;2.40683987149
500;SQUARE SAINT-ELOI;Promenades ouvertes;25.933083;11 RUE COLONEL ROZANOFF;75012;Ouvert;Non;Non;09:30 - 18:00;09:30 - 18:00;09:30 - 18:00;09:30 - 18:00;09:30 - 18:00;09:00 - 18:00;09:00 - 18:00;48.8446240186;2.38750278658
501;JARDIN DE REUILLY - PAUL PERNIN;Promenades ouvertes;21.041697;15 RUE ALBINONI;75012;Ouvert;Non;Non;08:00 - 19:00;08:00 - 19:00;08:00 - 19:00;08:00 - 19:00;08:00 - 19:00;09:00 - 19:00;09:00 - 19:00;48.8421803172;2.387757755
502;PROMENADE PC 12 - SAHEL - VOUTE;Promenades ouvertes;60.00000000000001;59 RUE DU SAHEL;75012;Ouvert;Non;Non;00:00 - 23:59;00:00 - 23:59;00:00 - 23:59;00:00 - 23:59;00:00 - 23:59;00:00 - 23:59;00:00 - 23:59;48.8435454542;2.40861631819
503;SQUARE GARIBALDI;Promenades ouvertes;42.735189;141 BD GRENELLE;75015;Ouvert;Non;Non;09:30 - 18:00;09:30 - 18:00;09:30 - 18:00;09:30 - 18:00;09:30 - 18:00;09:00 - 18:00;09:00 - 18:00;48.8484555775;2.3018550144
504;JARDIN DES SERRES D'AUTEUIL;Promenades ouvertes;21.268788;3 AV PORTE AUTEUIL;75016;Ouvert;Non;Non;08:00 - 18:00;08:00 - 18:00;08:00 - 18:00;08:00 - 18:00;08:00 - 18:00;09:00 - 18:00;09:00 - 18:00;48.8467450766;2.25270450094
505;JARDIN BERTHE WEILL;Promenades ouvertes;10.0;1 RUE DE THORIGNY;75003;Ouvert;Non;Non;08:00 - 18:00;08:00 - 18:00;08:00 - 18:00;08:00 - 18:00;08:00 - 18:00;09:00 - 18:00;09:00 - 18:00;48.8594523451;2.36227530696
506;PROMENADE PC 17 TRANCHEE PEREIRE;Promenades ouvertes;60.00000000000001;109 RUE DE SAUSSURE;75017;Ouvert;Non;Non;08:00 - 18:00;08:00 - 18:00;08:00 - 18:00;08:00 - 18:00;08:00 - 18:00;09:00 - 18:00;09:00 - 18:00;48.8874870968;2.30588550251
507;JARDIN DE VITALY;Promenades ouvertes;1.5702;20 RUE FONTARABIE;75020;Ouvert;Non;Non;00:00 - 23:59;00:00 - 23:59;00:00 - 23:59;00:00 - 23:59;00:00 - 23:59;00:00 - 23:59;00:00 - 23:59;48.8571227797;2.40167283602
508;JARDIN PAUL DIDIER;Promenades ouvertes;1.683477;12 RUE COLONEL MANHES;75017;Ouvert;Non;Non;08:00 - 18:00;08:00 - 18:00;08:00 - 18:00;08:00 - 18:00;08:00 - 18:00;09:00 - 18:00;09:00 - 18:00;48.8953107848;2.31991951804
509;Bois de Vincennes;Bois;85.228967;;75012;Ouvert;Non;Non;00:00 - 23:59;00:00 - 23:59;00:00 - 23:59;00:00 - 23:59;00:00 - 23:59;00:00 - 23:59;00:00 - 23:59;;
510;;;;;;;;;;;;;;;;;
511;;;;;;;;;;;;;;;;;
512;Bois de Vincennes;Bois;65.712552;;75012;Ouvert;Non;Non;00:00 - 23:59;00:00 - 23:59;00:00 - 23:59;00:00 - 23:59;00:00 - 23:59;00:00 - 23:59;00:00 - 23:59;48.8204336606;2.43416629799
513;SQUARE ROBERT SCHUMANN;Promenades ouvertes;15.775138;20 BD LANNES;75016;Ouvert;Oui;Non;00:00 - 23:59;00:00 - 23:59;00:00 - 23:59;00:00 - 23:59;00:00 - 23:59;00:00 - 23:59;00:00 - 23:59;48.8691273421;2.27268376555
514;SQUARE LEON TOLSTOI;Promenades ouvertes;33.328300999999996;1 AV MARECHAL LYAUTEY;75016;Ouvert;Oui;Non;00:00 - 23:59;00:00 - 23:59;00:00 - 23:59;00:00 - 23:59;00:00 - 23:59;00:00 - 23:59;00:00 - 23:59;48.853034063;2.26115657609
515;SQUARE DU SERMENT DE KOUFRA;Promenades ouvertes;27.321971;30 X AV ERNEST REYER;75014;Ouvert;Non;Non;08:00 - 19:00;08:00 - 19:00;08:00 - 19:00;08:00 - 19:00;08:00 - 19:00;09:00 - 19:00;09:00 - 19:00;48.8215435208;2.32328638173
516;JARDIN ANNA MARLY;Promenades ouvertes;41.205598;25 V AV PORTE VANVES;75014;Ouvert;Non;Non;08:00 - 19:00;08:00 - 19:00;08:00 - 19:00;08:00 - 19:00;08:00 - 19:00;09:00 - 19:00;09:00 - 19:00;48.8250169357;2.30350595904
517;SQUARE RUE DES PERICHAUX;Promenades ouvertes;12.396943;123 BD LEFEBVRE;75015;Ouvert;Oui;Non;00:00 - 23:59;00:00 - 23:59;00:00 - 23:59;00:00 - 23:59;00:00 - 23:59;00:00 - 23:59;00:00 - 23:59;48.8296376737;2.29877818881
518;SQUARE AUGUSTE RENOIR;Promenades ouvertes;28.513029;205 RUE RAYMOND LOSSERAND;75014;Ouvert;Oui;Non;00:00 - 23:59;00:00 - 23:59;00:00 - 23:59;00:00 - 23:59;00:00 - 23:59;00:00 - 23:59;00:00 - 23:59;48.828197557;2.30951094721
519;Bois de Boulogne;Bois;88.55810600000001;;75016;Ouvert;Non;Non;00:00 - 23:59;00:00 - 23:59;00:00 - 23:59;00:00 - 23:59;00:00 - 23:59;00:00 - 23:59;00:00 - 23:59;48.8640979629;2.24632591573
520;SQUARE SAINTE-HELENE;Promenades ouvertes;56.52071600000001;43 RUE LETORT;75018;Ouvert;Non;Non;08:00 - 18:00;08:00 - 18:00;08:00 - 18:00;08:00 - 18:00;08:00 - 18:00;09:00 - 18:00;09:00 - 18:00;48.8962335425;2.34310310499
521;MAIL BELLIARD;Jardinets décoratifs;95.33470700000001;1 V RUE LEIBNIZ;75018;;Non;Non;;;;;;;;48.8963311634;2.33434985394
522;JARDINIERE ANGLE DES RUES DES HAUDRIETTES - TEMPLE;Décorations sur la voie publique;12.716609000000002;7   RUE DES HAUDRIETTES;75003;;Non;Non;;;;;;;;48.8617353124;2.35707004847
523;JARDINIERES DE LA PLACE DU PERE MARCELLIN CHAMPAGNAT;Décorations sur la voie publique;28.367897000000003;8   PLACE DU PERE MARCELLIN CHAMPAGNAT;75016;;Non;Non;;;;;;;;48.8561890486;2.28029395419
524;PROMENADE DU QUAI ANDRE CITROEN;Promenades ouvertes;5.100608;13   QUAI ANDRE CITROEN;75015;Ouvert;Oui;Non;00:00 - 23:59;00:00 - 23:59;00:00 - 23:59;00:00 - 23:59;00:00 - 23:59;00:00 - 23:59;00:00 - 23:59;48.8476350492;2.2794839
525;ALEXANDRE 1ER DE YOUGOSLAVIE;Promenades ouvertes;47.845287000000006;5 BIS PLACE DE COLOMBIE;75016;Ouvert;Non;Non;00:00 - 23:59;00:00 - 23:59;00:00 - 23:59;00:00 - 23:59;00:00 - 23:59;00:00 - 23:59;00:00 - 23:59;48.8635956407;2.26814628497
526;SQUARE MARIGNY;Promenades ouvertes;12.917863000000002;AVENUE DES CHAMPS ELYSEES;94300;;Non;Non;;;;;;;;48.84612954;2.43944343804
527;JARDIN DE L’ESPLANADE DES GRANDS MOULINS;Promenades ouvertes;3.078925;8 RUE MARGUERITE DURAS;75013;Ouvert;Oui;Non;08:00 - 18:00;08:00 - 18:00;08:00 - 18:00;08:00 - 18:00;08:00 - 18:00;09:00 - 18:00;09:00 - 18:00;48.8295277716;2.38144514728
528;JARDIN DE LA PLACE DU MARECHAL DELATTRE DE TASSIGNY;Promenades ouvertes;33.669711;5 PL MARECHAL LATTRE TASSIGNY;75016;;Oui;Non;;;;;;;;48.8716234365;2.2749197363
529;SQUARE ANNA DE NOAILLES;Promenades ouvertes;23.496074;46 BD AMIRAL BRUIX;75016;Ouvert;Oui;Non;00:00 - 23:59;00:00 - 23:59;00:00 - 23:59;00:00 - 23:59;00:00 - 23:59;00:00 - 23:59;00:00 - 23:59;48.875520379;2.27771570325
530;JARDIN DE L'AVENUE FOCH - PELOUSE 13;Promenades ouvertes;37.196194999999996;10 AV FOCH;75016;Ouvert;Oui;Non;00:00 - 23:59;00:00 - 23:59;00:00 - 23:59;00:00 - 23:59;00:00 - 23:59;00:00 - 23:59;00:00 - 23:59;48.8731422598;2.29140996371
531;JARDIN DE LA COUR DE LA FERME SAINT-LAZARE;Promenades ouvertes;0.377944;6 SQ ALBAN SATRAGNE;75010;;Non;Non;;;;;;;;48.8759707048;2.35418862308
532;JARDIN DE LA FONDATION NATIONALE DES ARTS GRAPHIQUES ET PLASTIQUES SALOMON DE ROTHSCHILD;Promenades ouvertes;41.919181;22 RUE BALZAC;75008;Ouvert;Non;Non;00:00 - 23:59;00:00 - 23:59;00:00 - 23:59;00:00 - 23:59;00:00 - 23:59;00:00 - 23:59;00:00 - 23:59;48.8751631692;2.30281037196
533;SQUARE ALBAN SATRAGNE;Promenades ouvertes;16.616676;107 B RUE FAUBOURG SAINT DENIS;75010;Ouvert;Non;Non;08:00 - 19:00;08:00 - 19:00;08:00 - 19:00;08:00 - 19:00;08:00 - 19:00;09:00 - 19:00;09:00 - 19:00;48.8755610041;2.35498297536
534;SQUARE ANDRE BRECHET;Promenades ouvertes;33.012525;22 RUE ANDRE BRECHET;75017;Ouvert;Non;Non;09:30 - 18:00;09:30 - 18:00;09:30 - 18:00;09:30 - 18:00;09:30 - 18:00;09:00 - 18:00;09:00 - 18:00;48.899018878;2.32515198225
535;JARDIN BRASSAI;Promenades ouvertes;14.676262000000001;2 RUE EUGENE ATGET;75013;Ouvert;Non;Non;08:00 - 18:00;08:00 - 18:00;08:00 - 18:00;08:00 - 18:00;08:00 - 18:00;09:00 - 18:00;09:00 - 18:00;48.8288013894;2.34961724964
536;SQUARE JEHAN RICTUS;Promenades ouvertes;62.487963;14 PL ABBESSES;75018;Ouvert;Non;Non;08:00 - 18:00;08:00 - 18:00;08:00 - 18:00;08:00 - 18:00;08:00 - 18:00;09:00 - 18:00;09:00 - 18:00;48.8848618584;2.33869512077
537;L'Auberge du Bonheur;Bois;33.813707;Allée de Longchamp;75016;;Non;Non;;;;;;;;48.8621709117;2.24033391535
538;Théâtre de Marionnettes de Saint Mandé;Bois;62.226649;5 Avenue de Bel Air;75012;;Non;Non;;;;;;;;48.8427604037;2.42075027056
539;SQUARE HECTOR MALOT;Promenades ouvertes;49.160959999999996;17 RUE HECTOR MALOT;75012;Ouvert;Non;Non;08:00 - 19:00;08:00 - 19:00;08:00 - 19:00;08:00 - 19:00;08:00 - 19:00;09:00 - 19:00;09:00 - 19:00;48.8471135208;2.37691355581
540;JARDIN YACINE KATEB;Promenades ouvertes;16.899168;18 RUE WATTEAU;75013;Ouvert;Non;Non;08:00 - 18:00;08:00 - 18:00;08:00 - 18:00;08:00 - 18:00;08:00 - 18:00;09:00 - 18:00;09:00 - 18:00;48.8346970785;2.35628820517
541;SQUARE ALLERAY - SAINT-AMAND;Promenades ouvertes;31.784074;90 RUE ALLERAY;75015;;Non;Non;;;;;;;;48.8358576504;2.30843054521
542;JARDIN DE LA RUE COMPANS;Promenades ouvertes;34.490205;39 RUE COMPANS;75019;Ouvert;Non;Non;09:30 - 18:00;09:30 - 18:00;09:30 - 18:00;09:30 - 18:00;09:30 - 18:00;09:00 - 18:00;09:00 - 18:00;48.8780052589;2.39259023118
543;SQUARE LOUIS MAJORELLE;Promenades ouvertes;26.177853000000002;28 RUE FORGE ROYALE;75011;Ouvert;Non;Non;08:00 - 18:00;08:00 - 18:00;08:00 - 18:00;08:00 - 18:00;08:00 - 18:00;09:00 - 18:00;09:00 - 18:00;48.8521146306;2.38128104111
544;SQUARE VAN VOLLENHOVEN;Promenades ouvertes;34.870592;5 RUE MARCEL DUBOIS;75012;Ouvert;Non;Non;09:30 - 18:00;09:30 - 18:00;09:30 - 18:00;09:30 - 18:00;09:30 - 18:00;09:00 - 18:00;09:00 - 18:00;48.8346033565;2.40677077776
545;Association Escapade Liberté, Mobilité;Bois;20.143227;Carrefour de la Patte d'Oie;75012;;Non;Non;;;;;;;;48.8220825414;2.44282087056
546;Bois de Vincennes;Bois;71.301965;;75012;Ouvert;Non;Non;00:00 - 23:59;00:00 - 23:59;00:00 - 23:59;00:00 - 23:59;00:00 - 23:59;00:00 - 23:59;00:00 - 23:59;48.830494724;2.46233963465
547;Bois de Vincennes;Bois;38.14098;;75012;Ouvert;Non;Non;00:00 - 23:59;00:00 - 23:59;00:00 - 23:59;00:00 - 23:59;00:00 - 23:59;00:00 - 23:59;00:00 - 23:59;48.8291046749;2.41351875159
548;Bois de Vincennes;Bois;32.526101000000004;;75012;Ouvert;Non;Non;00:00 - 23:59;00:00 - 23:59;00:00 - 23:59;00:00 - 23:59;00:00 - 23:59;00:00 - 23:59;00:00 - 23:59;48.830988558;2.41367625715
549;SQUARE HENRI COLLET;Promenades ouvertes;10.583906;18 RUE GROS;75016;Ouvert;Non;Non;08:00 - 18:00;08:00 - 18:00;08:00 - 18:00;08:00 - 18:00;08:00 - 18:00;09:00 - 18:00;09:00 - 18:00;48.8517796386;2.27557165504
550;JARDIN DE L'ABONDANCE;Promenades ouvertes;10.0;2 AVENUE DE TOURVILLE;75007;Ouvert;Non;Non;00:00 - 23:59;00:00 - 23:59;00:00 - 23:59;00:00 - 23:59;00:00 - 23:59;00:00 - 23:59;00:00 - 23:59;48.8543777316;2.31362666265
551;SQUARE CLAUDE CHARPENTIER;Promenades ouvertes;60.102049;14 RUE MONT CENIS;75018;Ouvert;Non;Non;08:00 - 18:00;08:00 - 18:00;08:00 - 18:00;08:00 - 18:00;08:00 - 18:00;09:00 - 18:00;09:00 - 18:00;48.8875050676;2.34180008491
552;SQUARE ALEXIS CLEREL DE TOCQUEVILLE;Promenades ouvertes;6.364116;89 RUE TOCQUEVILLE;75017;Ouvert;Non;Non;09:30 - 18:00;09:30 - 18:00;09:30 - 18:00;09:30 - 18:00;09:30 - 18:00;09:00 - 18:00;09:00 - 18:00;48.8866762285;2.3066709215
553;Bois de Vincennes;Bois;92.013672;;75012;Ouvert;Non;Non;00:00 - 23:59;00:00 - 23:59;00:00 - 23:59;00:00 - 23:59;00:00 - 23:59;00:00 - 23:59;00:00 - 23:59;48.8373410081;2.42854004353
554;Bois de Vincennes;Bois;95.733286;;75012;Ouvert;Non;Non;00:00 - 23:59;00:00 - 23:59;00:00 - 23:59;00:00 - 23:59;00:00 - 23:59;00:00 - 23:59;00:00 - 23:59;48.8223356987;2.43154155982
555;JARDIN DE L'HOPITAL SAINTE-PERINE;Promenades ouvertes;37.23758;41 RUE MIRABEAU;75016;Ouvert;Non;Non;08:00 - 18:00;08:00 - 18:00;08:00 - 18:00;08:00 - 18:00;08:00 - 18:00;09:00 - 18:00;09:00 - 18:00;48.844609281;2.26876700896
556;SQUARE HELENE;Promenades ouvertes;0.444398;12 RUE HELENE;75017;;Non;Non;;;;;;;;48.88647972;2.32474648456
557;SQUARE DE L'EGLISE NOTRE-DAME DE LA CROIX;Promenades ouvertes;19.159024;12 RUE EUPATORIA;75020;Ouvert;Non;Non;08:00 - 18:00;08:00 - 18:00;08:00 - 18:00;08:00 - 18:00;08:00 - 18:00;09:00 - 18:00;09:00 - 18:00;48.8687405718;2.38816836609
558;PARC MONCEAU;Promenades ouvertes;36.952534;1 PL REPUBLIQUE DOMINICAINE;75008;Ouvert;Non;Oui;07:00 - 20:00;07:00 - 20:00;07:00 - 20:00;07:00 - 20:00;07:00 - 20:00;07:00 - 20:00;07:00 - 20:00;;
559;;;;;;;;;;;;;;;;;
560;JARDIN MARGUERITE LONG;Promenades ouvertes;63.170387000000005;2 AV SALONIQUE;75017;Ouvert;Oui;Non;00:00 - 23:59;00:00 - 23:59;00:00 - 23:59;00:00 - 23:59;00:00 - 23:59;00:00 - 23:59;00:00 - 23:59;48.8819299243;2.28393244748
561;JARDIN DE L'AVENUE FOCH - PELOUSE 09;Promenades ouvertes;34.313249;10 AV FOCH;75016;Ouvert;Oui;Non;00:00 - 23:59;00:00 - 23:59;00:00 - 23:59;00:00 - 23:59;00:00 - 23:59;00:00 - 23:59;00:00 - 23:59;;
562;;;;;;;;;;;;;;;;;
563;SQUARE DE LA FOLIE-REGNAULT;Promenades ouvertes;19.729737;24 RUE FOLIE REGNAULT;75011;Ouvert;Non;Non;08:00 - 18:00;08:00 - 18:00;08:00 - 18:00;08:00 - 18:00;08:00 - 18:00;09:00 - 18:00;09:00 - 18:00;48.8574476481;2.38789158005
564;SQUARE YVETTE CHAUVIRE;Promenades ouvertes;50.780578;25 PL COMMERCE;75015;Ouvert;Non;Non;08:00 - 18:00;08:00 - 18:00;08:00 - 18:00;08:00 - 18:00;08:00 - 18:00;09:00 - 18:00;09:00 - 18:00;48.8450193667;2.29295163378
565;SQUARE PATURLE;Promenades ouvertes;0.888691;1 RUE PATURLE;75014;Ouvert;Oui;Non;00:00 - 23:59;00:00 - 23:59;00:00 - 23:59;00:00 - 23:59;00:00 - 23:59;00:00 - 23:59;00:00 - 23:59;48.8287871726;2.30677032556
566;JARDIN BIOPARK;Promenades ouvertes;3.855002;11 RUE WATT;75013;Ouvert;Oui;Non;08:00 - 18:00;08:00 - 18:00;08:00 - 18:00;08:00 - 18:00;08:00 - 18:00;09:00 - 18:00;09:00 - 18:00;48.8278058149;2.38305176398
567;SQUARE DE LA PLACE LOUISE LOSSERAND;Promenades ouvertes;97.064897;145 RUE RAYMOND LOSSERAND;75014;Ouvert;Oui;Non;00:00 - 23:59;00:00 - 23:59;00:00 - 23:59;00:00 - 23:59;00:00 - 23:59;00:00 - 23:59;00:00 - 23:59;48.8311521201;2.31334930573
568;SQUARE ALEXANDRE ET RENE PARODI;Promenades ouvertes;18.09636;1 PL PORTE MAILLOT;75016;Ouvert;Oui;Non;00:00 - 23:59;00:00 - 23:59;00:00 - 23:59;00:00 - 23:59;00:00 - 23:59;00:00 - 23:59;00:00 - 23:59;48.8764810635;2.28087907005
569;Fort Neuf;Bois;28.738796;Cours des Maréchaux;75012;;Non;Non;;;;;;;;48.8420582631;2.44308073567
570;Jeu de boules de Saint Maurice;Bois;34.717939;8 w Route Saint Louis;75012;;Non;Non;;;;;;;;48.8257909188;2.42528194436
571;Bois de Vincennes;Bois;42.239711;;75012;Ouvert;Non;Non;00:00 - 23:59;00:00 - 23:59;00:00 - 23:59;00:00 - 23:59;00:00 - 23:59;00:00 - 23:59;00:00 - 23:59;48.8302059665;2.403849549
572;Square Emmanuel FLEURY;Promenades ouvertes;38.1719;40 RUE VAU;75020;Ouvert;Non;Non;08:00 - 18:00;08:00 - 18:00;08:00 - 18:00;08:00 - 18:00;08:00 - 18:00;09:00 - 18:00;09:00 - 18:00;48.870412885;2.41194582676
573;PROMENADE RICHARD LENOIR TERRAIN DE BOULES JULES FERRY;Promenades ouvertes;55.371163;35   BOULEVARD RICHARD LENOIR;75011;;Oui;Non;;;;;;;;48.866591065;2.36901201642
574;PROMENADE RICHARD LENOIR  PELEE-SAINT SEBASTIEN (ALLEE PAULINE LEON);Promenades ouvertes;45.209597;35   BOULEVARD RICHARD LENOIR;75011;;Oui;Non;;;;;;;;48.8610923567;2.37250023258
575;JARDIN OLYMPIADES;Promenades ouvertes;0.0;42   RUE DU JAVELOT;75013;Ouvert;Non;Non;08:00 - 18:00;08:00 - 18:00;08:00 - 18:00;08:00 - 18:00;08:00 - 18:00;09:00 - 18:00;09:00 - 18:00;48.8245162784;2.36556468633
576;JARDINET DE LA RUE DE L'AMIRAL MOUCHEZ;Jardinets décoratifs;21.610359000000003;72 BIS RUE DE L' AMIRAL MOUCHEZ;75014;;Non;Non;;;;;;;;48.8214020975;2.34231134635
577;JARDINIERES DE L'AVENUE DE LA PORTE DE VINCENNES (20EME);Décorations sur la voie publique;8.698628;1   AVENUE DE LA PORTE DE VINCENNES;75020;;Non;Non;;;;;;;;48.8471766233;2.4126545045
578;ECOLE D'HORTICULTURE DU BREUIL;Promenades ouvertes;5.750311;0   ROUTE DE LA FERME;75012;;Non;Non;;;;;;;;48.8233968693;2.46052559374
579;JARDIN MARIE TRINTIGNANT;Promenades ouvertes;0.24205999999999997;17 RUE AVE MARIA;75004;Ouvert;Oui;Non;00:00 - 23:59;00:00 - 23:59;00:00 - 23:59;00:00 - 23:59;00:00 - 23:59;00:00 - 23:59;00:00 - 23:59;48.8530587269;2.35938217019
580;JARDIN ANAIS NIN;Promenades ouvertes;56.850192;2 V RUE JEAN OBERLE;75019;Ouvert;Oui;Non;00:00 - 23:59;00:00 - 23:59;00:00 - 23:59;00:00 - 23:59;00:00 - 23:59;00:00 - 23:59;00:00 - 23:59;48.8994706173;2.37071205117
581;SQUARE DE L'ABBE MIGNE;Promenades ouvertes;48.838481;1 T PL DENFERT ROCHEREAU;75014;Ouvert;Non;Non;00:00 - 23:59;00:00 - 23:59;00:00 - 23:59;00:00 - 23:59;00:00 - 23:59;00:00 - 23:59;00:00 - 23:59;48.8338011221;2.33270851606
582;JARDIN DE L'AVENUE FOCH - PELOUSE 23;Promenades ouvertes;36.691006;10 AV FOCH;75016;Ouvert;Oui;Non;00:00 - 23:59;00:00 - 23:59;00:00 - 23:59;00:00 - 23:59;00:00 - 23:59;00:00 - 23:59;00:00 - 23:59;48.8714213629;2.27655209104
583;SQUARE DU TEMPLE;Promenades ouvertes;36.572197;50 RUE BRETAGNE;75003;Ouvert;Non;Non;08:00 - 19:00;08:00 - 19:00;08:00 - 19:00;08:00 - 19:00;08:00 - 19:00;09:00 - 19:00;09:00 - 19:00;48.8644579662;2.36075526453
584;SQUARE PIERRE DE GAULLE;Promenades ouvertes;51.236031000000004;2 PL PRESIDENT MITHOUARD;75007;Ouvert;Non;Non;09:30 - 18:00;09:30 - 18:00;09:30 - 18:00;09:30 - 18:00;09:30 - 18:00;09:00 - 18:00;09:00 - 18:00;48.8509756894;2.31318798249
585;JARDIN MEDIEVAL DU MUSEE DE CLUNY;Promenades ouvertes;41.600808;73 BD SAINT GERMAIN;75005;Ouvert;Non;Non;08:00 - 18:00;08:00 - 18:00;08:00 - 18:00;08:00 - 18:00;08:00 - 18:00;09:00 - 18:00;09:00 - 18:00;48.8508155974;2.34414001388
586;SQUARE GABRIEL PIERNE;Promenades ouvertes;28.544161000000003;9 RUE SEINE;75006;Ouvert;Non;Non;08:00 - 18:00;08:00 - 18:00;08:00 - 18:00;08:00 - 18:00;08:00 - 18:00;09:00 - 18:00;09:00 - 18:00;48.856915483;2.33679413509
587;JARDINS ROSA LUXEMBOURG;Promenades ouvertes;60.00000000000001;22 RUE PAJOL;75018;Ouvert;Non;Non;08:00 - 18:00;08:00 - 18:00;08:00 - 18:00;08:00 - 18:00;08:00 - 18:00;09:00 - 18:00;09:00 - 18:00;48.8889709185;2.36333482681
588;Parc de Belleville;Promenades ouvertes;35.555681;45 RUE COURONNES;75020;Ouvert;Non;Non;08:00 - 18:00;08:00 - 18:00;08:00 - 18:00;08:00 - 18:00;08:00 - 18:00;09:00 - 18:00;09:00 - 18:00;;
589;;;;;;;;;;;;;;;;;
590;PARC CLICHY BATIGNOLLES - MARTIN LUTHER KING;Promenades ouvertes;9.999999999999999e-05;;75017;Ouvert;Non;Non;07:00 - 18:00;07:00 - 18:00;07:00 - 18:00;07:00 - 18:00;07:00 - 18:00;08:00 - 18:00;08:00 - 18:00;48.8926240535;2.31236948188
591;Le Pavillon des Princes;Bois;2.552874;69 Avenue de la Porte d'Auteuil;75016;;Non;Non;;;;;;;;48.8477752426;2.24271082032
592;SQUARE CHARLES PEGUY;Promenades ouvertes;41.322731000000005;21 RUE ROTTEMBOURG;75012;Ouvert;Non;Non;08:00 - 19:00;08:00 - 19:00;08:00 - 19:00;08:00 - 19:00;08:00 - 19:00;09:00 - 19:00;09:00 - 19:00;48.8392065607;2.40640189466
593;Stade Roland Garros;Bois;10.021067;Avenue de la Porte d'Auteuil;75016;;Non;Non;;;;;;;;48.8470977977;2.24813760955
594;Les Bosquettes Saint James;Bois;47.241984;6 Allée de Madrid à Neuilly;75016;;Non;Non;;;;;;;;48.8754316787;2.25671595557
595;Bois de Boulogne;Bois;49.534725;;75016;Ouvert;Non;Non;00:00 - 23:59;00:00 - 23:59;00:00 - 23:59;00:00 - 23:59;00:00 - 23:59;00:00 - 23:59;00:00 - 23:59;;
596;;;;;;;;;;;;;;;;;
597;JARDIN DU POTAGER (ANCIEN HOPITAL LAENNEC);Promenades ouvertes;10.0;29 RUE DE BABYLONE;75007;Ouvert;Non;Non;08:00 - 19:00;08:00 - 19:00;08:00 - 19:00;08:00 - 19:00;08:00 - 19:00;09:00 - 19:00;09:00 - 19:00;48.8506276635;2.32139762196
598;SQUARE JEAN CHERIOUX;Promenades ouvertes;36.751577000000005;260 RUE VAUGIRARD;75015;Ouvert;Non;Non;08:00 - 18:00;08:00 - 18:00;08:00 - 18:00;08:00 - 18:00;08:00 - 18:00;09:00 - 18:00;09:00 - 18:00;48.8401918958;2.30061935133
599;Jardin Emmi Pickler;Promenades ouvertes;0.0;3 RUE OLIVIER METRA;75020;Ouvert;Non;Non;08:00 - 18:00;08:00 - 18:00;08:00 - 18:00;08:00 - 18:00;08:00 - 18:00;09:00 - 18:00;09:00 - 18:00;48.8716298186;2.39523323212
600;SQUARE JEAN COCTEAU;Promenades ouvertes;36.494673;126 AV FELIX FAURE;75015;Ouvert;Non;Non;08:00 - 18:00;08:00 - 18:00;08:00 - 18:00;08:00 - 18:00;08:00 - 18:00;09:00 - 18:00;09:00 - 18:00;48.8387168469;2.28045142647
601;SQUARE PIERRE-ADRIEN DALPAYRAT;Promenades ouvertes;20.451724000000002;21 RUE COTENTIN;75015;Ouvert;Non;Non;08:00 - 18:00;08:00 - 18:00;08:00 - 18:00;08:00 - 18:00;08:00 - 18:00;09:00 - 18:00;09:00 - 18:00;48.8378875325;2.31316646555
602;Bois de Boulogne;Bois;53.646539000000004;;75016;Ouvert;Non;Non;00:00 - 23:59;00:00 - 23:59;00:00 - 23:59;00:00 - 23:59;00:00 - 23:59;00:00 - 23:59;00:00 - 23:59;48.8677145343;2.2682375947
603;Bois de Boulogne;Bois;80.97975600000001;;75016;Ouvert;Non;Non;00:00 - 23:59;00:00 - 23:59;00:00 - 23:59;00:00 - 23:59;00:00 - 23:59;00:00 - 23:59;00:00 - 23:59;;
604;;;;;;;;;;;;;;;;;
605;Bois de Boulogne;Bois;64.709345;;75016;Ouvert;Non;Non;00:00 - 23:59;00:00 - 23:59;00:00 - 23:59;00:00 - 23:59;00:00 - 23:59;00:00 - 23:59;00:00 - 23:59;48.8520350321;2.23166678404
606;Bois de Vincennes;Bois;75.360855;;75012;Ouvert;Non;Non;00:00 - 23:59;00:00 - 23:59;00:00 - 23:59;00:00 - 23:59;00:00 - 23:59;00:00 - 23:59;00:00 - 23:59;48.8333011635;2.4217536378
607;Jardin de la gare de Charonne;Promenades ouvertes;51.488124;59 BD DAVOUT;75020;Ouvert;Non;Non;08:00 - 18:00;08:00 - 18:00;08:00 - 18:00;08:00 - 18:00;08:00 - 18:00;09:00 - 18:00;09:00 - 18:00;48.8522404546;2.40971337232
608;Bois de Vincennes;Bois;63.629633;;75012;Ouvert;Non;Non;00:00 - 23:59;00:00 - 23:59;00:00 - 23:59;00:00 - 23:59;00:00 - 23:59;00:00 - 23:59;00:00 - 23:59;48.836350945;2.42531587546
609;Bois de Vincennes;Bois;23.841432;;75012;Ouvert;Non;Non;00:00 - 23:59;00:00 - 23:59;00:00 - 23:59;00:00 - 23:59;00:00 - 23:59;00:00 - 23:59;00:00 - 23:59;48.8433560014;2.43887232514
610;MAIL EMILE BOLLAERT;Promenades ouvertes;44.759491000000004;18 AV PORTE AUBERVILLIERS;75019;Ouvert;Oui;Non;00:00 - 23:59;00:00 - 23:59;00:00 - 23:59;00:00 - 23:59;00:00 - 23:59;00:00 - 23:59;00:00 - 23:59;48.899974819;2.37344405776
611;SQUARE SEVERINE;Promenades ouvertes;27.798351999999998;1 AV PORTE BAGNOLET;75020;Ouvert;Non;Non;08:00 - 18:00;08:00 - 18:00;08:00 - 18:00;08:00 - 18:00;08:00 - 18:00;09:00 - 18:00;09:00 - 18:00;48.8656590727;2.41015030393
612;SQUARE CLAUDE BERNARD;Promenades ouvertes;18.13901;176 BD MACDONALD;75019;Ouvert;Non;Non;09:30 - 18:00;09:30 - 18:00;09:30 - 18:00;09:30 - 18:00;09:30 - 18:00;09:00 - 18:00;09:00 - 18:00;48.8992627867;2.37528919152
613;Square Louis LUMIERE (Centre Handisports);Promenades ouvertes;50.770826;42 RUE LOUIS LUMIERE;75020;;Non;Non;;;;;;;;48.8599569156;2.41163173672
614;SQUARE MARC SEGUIN;Promenades ouvertes;96.523779;27 RUE MARC SEGUIN;75018;Ouvert;Non;Non;08:00 - 18:00;08:00 - 18:00;08:00 - 18:00;08:00 - 18:00;08:00 - 18:00;09:00 - 18:00;09:00 - 18:00;48.8919733228;2.36119422625
615;Bois de Vincennes;Bois;39.418626;;75012;Ouvert;Non;Non;00:00 - 23:59;00:00 - 23:59;00:00 - 23:59;00:00 - 23:59;00:00 - 23:59;00:00 - 23:59;00:00 - 23:59;48.8278658755;2.41061305523
616;SQUARE THEODORE MONOD;Promenades ouvertes;63.801363;23 RUE FER MOULIN;75005;Ouvert;Non;Non;09:30 - 18:00;09:30 - 18:00;09:30 - 18:00;09:30 - 18:00;09:30 - 18:00;09:00 - 18:00;09:00 - 18:00;48.838752019;2.35371062798
617;SQUARE EDOUARD VAILLANT;Promenades ouvertes;64.50046900000001;3 B RUE CHINE;75020;Ouvert;Non;Non;08:00 - 18:00;08:00 - 18:00;08:00 - 18:00;08:00 - 18:00;08:00 - 18:00;09:00 - 18:00;09:00 - 18:00;48.8655254427;2.40021554013
618;Parc Zoologique de Paris;Bois;13.672049999999999;65 Avenue de Saint Maurice;75012;Ouvert;Non;Non;00:00 - 23:59;00:00 - 23:59;00:00 - 23:59;00:00 - 23:59;00:00 - 23:59;00:00 - 23:59;00:00 - 23:59;;
619;;;;;;;;;;;;;;;;;
620;SQUARE FREDERIC LEMAITRE;Promenades ouvertes;82.224935;42 X QU VALMY;75010;Ouvert;Non;Non;08:00 - 18:00;08:00 - 18:00;08:00 - 18:00;08:00 - 18:00;08:00 - 18:00;09:00 - 18:00;09:00 - 18:00;48.8693201022;2.36688129577
621;Bois de Boulogne;Bois;37.714782;;75016;Ouvert;Non;Non;00:00 - 23:59;00:00 - 23:59;00:00 - 23:59;00:00 - 23:59;00:00 - 23:59;00:00 - 23:59;00:00 - 23:59;;
622;;;;;;;;;;;;;;;;;
623;Bois de Vincennes;Bois;75.455241;;75012;Ouvert;Non;Non;00:00 - 23:59;00:00 - 23:59;00:00 - 23:59;00:00 - 23:59;00:00 - 23:59;00:00 - 23:59;00:00 - 23:59;48.8419090046;2.4561059253
624;JARDINET DE LA PLACE RAOUL FOLLEREAU;Jardinets décoratifs;27.136291;2   PLACE  RAOUL FOLLEREAU;75010;;Non;Non;;;;;;;;;
625;;;;;;;;;;;;;;;;;
626;JARDINIERES DE LA RUE DES MORILLONS;Décorations sur la voie publique;45.692031;38 BIS  RUE DES MORILLONS;75015;;Non;Non;;;;;;;;;
627;;;;;;;;;;;;;;;;;
628;;;;;;;;;;;;;;;;;
629;MAIL PIERRE DESPROGES DIT TROTTOIR PIERRE DESPROGES;Promenades ouvertes;68.550155;143   RUE DE LA ROQUETTE;75011;;Oui;Non;;;;;;;;48.8590860644;2.38518194028
630;SQUARE ALBERT BESNARD;Promenades ouvertes;8.477603;9 PL MARECHAL JUIN;75017;Ouvert;Oui;Non;00:00 - 23:59;00:00 - 23:59;00:00 - 23:59;00:00 - 23:59;00:00 - 23:59;00:00 - 23:59;00:00 - 23:59;48.8849354404;2.29732370083
631;JARDIN DE LA PLACE JEAN-PAUL II;Promenades ouvertes;45.465403;2 W PL PARVIS NOTRE DAME PLACE JEAN PAUL 2;75004;Ouvert;Oui;Non;00:00 - 23:59;00:00 - 23:59;00:00 - 23:59;00:00 - 23:59;00:00 - 23:59;00:00 - 23:59;00:00 - 23:59;;
632;;;;;;;;;;;;;;;;;
633;;;;;;;;;;;;;;;;;
634;SQUARE FEDERICO GARCIA LORCA;Promenades ouvertes;30.844974000000004;7 W PORT HOTEL VILLE;75004;Ouvert;Oui;Non;00:00 - 23:59;00:00 - 23:59;00:00 - 23:59;00:00 - 23:59;00:00 - 23:59;00:00 - 23:59;00:00 - 23:59;48.8547807645;2.35310179162
635;SQUARE DES MAURES;Promenades ouvertes;10.564378000000001;150 X QU VALMY;75010;;Oui;Non;;;;;;;;48.8771352659;2.36511375267
636;JARDIN DE L'AVENUE FOCH - PELOUSE 21;Promenades ouvertes;30.443194000000002;10 AV FOCH;75016;Ouvert;Oui;Non;00:00 - 23:59;00:00 - 23:59;00:00 - 23:59;00:00 - 23:59;00:00 - 23:59;00:00 - 23:59;00:00 - 23:59;48.8716126075;2.27744241496
637;JARDIN DE L'AVENUE FOCH - PELOUSE 05;Promenades ouvertes;33.641046;10 AV FOCH;75016;Ouvert;Oui;Non;00:00 - 23:59;00:00 - 23:59;00:00 - 23:59;00:00 - 23:59;00:00 - 23:59;00:00 - 23:59;00:00 - 23:59;;
638;;;;;;;;;;;;;;;;;
639;JARDIN VISCONTI-ALICE SAUNIER SEITE;Promenades ouvertes;68.186153;8 RUE VISCONTI;75006;Ouvert;Non;Non;00:00 - 23:59;00:00 - 23:59;00:00 - 23:59;00:00 - 23:59;00:00 - 23:59;00:00 - 23:59;00:00 - 23:59;48.855810757;2.33593776432
640;SQUARE MARCEL RAJMAN;Promenades ouvertes;43.113404;13 RUE MERLIN;75011;Ouvert;Non;Non;08:00 - 19:00;08:00 - 19:00;08:00 - 19:00;08:00 - 19:00;08:00 - 19:00;09:00 - 19:00;09:00 - 19:00;48.8603447931;2.38521600318
641;SQUARE FREDERIC ROSSIF;Promenades ouvertes;13.219142;173 T RUE CHARENTON;75012;Ouvert;Non;Non;09:30 - 18:00;09:30 - 18:00;09:30 - 18:00;09:30 - 18:00;09:30 - 18:00;09:00 - 18:00;09:00 - 18:00;48.8435813606;2.38532041676
642;JARDIN DE LA RUE DU SIMPLON (JARDIN D'ENFANTS);Promenades ouvertes;5.75794;36 RUE SIMPLON;75018;Ouvert;Non;Non;08:00 - 17:30;08:00 - 17:30;08:00 - 17:30;08:00 - 17:30;08:00 - 17:30;09:00 - 17:30;09:00 - 17:30;48.8940581953;2.34975347043
643;CAU Saint-Vincent;Bois;36.458221;Route du Champ d'Entraînement;75016;;Non;Non;;;;;;;;48.87297269;2.25280556656
644;SQUARE MONTHOLON;Promenades ouvertes;49.782656;79 RUE FAYETTE;75009;Ouvert;Non;Oui;08:00 - 19:00;08:00 - 19:00;08:00 - 19:00;08:00 - 19:00;08:00 - 19:00;09:00 - 19:00;09:00 - 19:00;48.8769715124;2.34648869834
645;SQUARE JOEL LE TAC;Promenades ouvertes;93.655727;3 PL CONSTANTIN PECQUEUR;75018;Ouvert;Non;Non;08:00 - 18:00;08:00 - 18:00;08:00 - 18:00;08:00 - 18:00;08:00 - 18:00;09:00 - 18:00;09:00 - 18:00;48.8892651321;2.33813732432
646;JARDIN JEAN-CLAUDE NICOLAS FORESTIER;Promenades ouvertes;27.575688;12 RUE THOMIRE;75013;Ouvert;Non;Non;08:00 - 18:00;08:00 - 18:00;08:00 - 18:00;08:00 - 18:00;08:00 - 18:00;09:00 - 18:00;09:00 - 18:00;48.8193121851;2.34790187124
647;JARDINIERES DE LA PLACE DE LA NATION (11eme);Décorations sur la voie publique;9.861314;2   PLACE DE LA NATION;75012;;Oui;Non;;;;;;;;48.8487570945;2.39648982268
648;JARDIN ALBERTO GIACOMETTI;Promenades ouvertes;0.0;1 RUE THERMOPYLES;75014;Ouvert;Non;Non;08:00 - 18:00;08:00 - 18:00;08:00 - 18:00;08:00 - 18:00;08:00 - 18:00;09:00 - 18:00;09:00 - 18:00;48.8319287407;2.31968134957
649;JARDIN DAMIA;Promenades ouvertes;12.236652000000001;24 RUE ROBERT ET SONIA DELAUNAY;75011;Ouvert;Non;Non;08:00 - 18:00;08:00 - 18:00;08:00 - 18:00;08:00 - 18:00;08:00 - 18:00;08:00 - 18:00;08:00 - 18:00;48.8549022461;2.39459138695
650;JARDIN CASQUE D'OR;Promenades ouvertes;20.108331;12 RUE MICHEL BOURGES;75020;Ouvert;Non;Non;08:00 - 18:00;08:00 - 18:00;08:00 - 18:00;08:00 - 18:00;08:00 - 18:00;09:00 - 18:00;09:00 - 18:00;48.8542126967;2.40124667233
651;SQUARE DES JARDINIERS;Promenades ouvertes;23.572806;4 PAS DUMAS;75011;Ouvert;Non;Non;08:00 - 18:00;08:00 - 18:00;08:00 - 18:00;08:00 - 18:00;08:00 - 18:00;09:00 - 18:00;09:00 - 18:00;48.8520436396;2.39108592776
652;Redoute de Gravelle;Bois;6.644316;Avenue de l'Ecole de Joinville;75012;;Non;Non;;;;;;;;48.8191115679;2.45433370073
653;Bois de Boulogne;Bois;73.294488;;75016;Ouvert;Non;Non;00:00 - 23:59;00:00 - 23:59;00:00 - 23:59;00:00 - 23:59;00:00 - 23:59;00:00 - 23:59;00:00 - 23:59;48.8658970128;2.25696798683
654;Bois de Boulogne;Bois;53.631955;;75016;Ouvert;Non;Non;00:00 - 23:59;00:00 - 23:59;00:00 - 23:59;00:00 - 23:59;00:00 - 23:59;00:00 - 23:59;00:00 - 23:59;48.8708790032;2.25520841424
655;SQUARE LOUIS XIII;Promenades ouvertes;11.890429999999999;1 PL VOSGES;75004;Ouvert;Non;Non;08:00 - 19:00;08:00 - 19:00;08:00 - 19:00;08:00 - 19:00;08:00 - 19:00;09:00 - 19:00;09:00 - 19:00;48.8556190586;2.36554401287
656;JARDIN RUE DU CHALET;Promenades ouvertes;0.11316799999999999;18 RUE CHALET;75010;Ouvert;Non;Non;08:00 - 18:00;08:00 - 18:00;08:00 - 18:00;08:00 - 18:00;08:00 - 18:00;09:00 - 18:00;09:00 - 18:00;48.8739410548;2.37339460207
657;PROMENADE PC 20 RUE DE LA MARE;Promenades ouvertes;60.00000000000001;11 RUE DE LA MARE;75020;Ouvert;Non;Non;08:00 - 18:00;08:00 - 18:00;08:00 - 18:00;08:00 - 18:00;08:00 - 18:00;09:00 - 18:00;09:00 - 18:00;48.8695672817;2.38870036906
658;SQUARE LOUISE MICHEL;Promenades ouvertes;33.889214;6 PL SAINT PIERRE;75018;Ouvert;Non;Non;08:00 - 18:00;08:00 - 18:00;08:00 - 18:00;08:00 - 18:00;08:00 - 18:00;09:00 - 18:00;09:00 - 18:00;48.8854011983;2.34363926529
659;COULEE VERTE RENE DUMONT - PROMENADE DES RUES DE PICPUS ET DE REUILLY;Promenades ouvertes;86.983385;82 RUE PICPUS;75012;Ouvert;Non;Non;08:00 - 19:00;08:00 - 19:00;08:00 - 19:00;08:00 - 19:00;08:00 - 19:00;09:00 - 19:00;09:00 - 19:00;48.8411583915;2.39762335503
660;Bois de Vincennes;Bois;67.551028;;75012;Ouvert;Non;Non;00:00 - 23:59;00:00 - 23:59;00:00 - 23:59;00:00 - 23:59;00:00 - 23:59;00:00 - 23:59;00:00 - 23:59;48.8367829219;2.46495102103
661;Bois de Vincennes;Bois;67.89639;;75012;Ouvert;Non;Non;00:00 - 23:59;00:00 - 23:59;00:00 - 23:59;00:00 - 23:59;00:00 - 23:59;00:00 - 23:59;00:00 - 23:59;48.8442035327;2.45169659737
662;PROMENADE DU QUAI DE GRENELLE;Promenades ouvertes;11.218812999999999;65   QUAI DE GRENELLE;75015;Ouvert;Oui;Non;00:00 - 23:59;00:00 - 23:59;00:00 - 23:59;00:00 - 23:59;00:00 - 23:59;00:00 - 23:59;00:00 - 23:59;48.850867862;2.2839863249
663;JARDIN JACQUES AUDIBERTI;Promenades ouvertes;19.010823000000002;25 AV PORTE VILLIERS;75017;Ouvert;Non;Non;08:00 - 18:00;08:00 - 18:00;08:00 - 18:00;08:00 - 18:00;08:00 - 18:00;09:00 - 18:00;09:00 - 18:00;48.8850099773;2.28462401479
664;JARDIN SAMUEL DE CHAMPLAIN;Promenades ouvertes;60.648113;18 AV GAMBETTA;75020;Ouvert;Non;Non;08:00 - 18:00;08:00 - 18:00;08:00 - 18:00;08:00 - 18:00;08:00 - 18:00;09:00 - 18:00;09:00 - 18:00;48.8639611888;2.39276493694
665;SQUARE SAINTE-ODILE;Promenades ouvertes;57.973063999999994;9 BD SOMME;75017;Ouvert;Non;Non;08:00 - 18:00;08:00 - 18:00;08:00 - 18:00;08:00 - 18:00;08:00 - 18:00;09:00 - 18:00;09:00 - 18:00;48.887574536;2.29333426328
666;SQUARE JEROME BELLAT;Promenades ouvertes;49.224038;2 PL STUART MERRILL;75017;Ouvert;Non;Non;09:30 - 18:00;09:30 - 18:00;09:30 - 18:00;09:30 - 18:00;09:30 - 18:00;09:00 - 18:00;09:00 - 18:00;48.8859216615;2.29375169271
667;PARC CLICHY-BATIGNOLLES - MARTIN LUTHER KING;Promenades ouvertes;5.563189;147 RUE CARDINET;75017;Ouvert;Non;Non;07:00 - 18:00;07:00 - 18:00;07:00 - 18:00;07:00 - 18:00;07:00 - 18:00;08:00 - 18:00;08:00 - 18:00;48.8905499139;2.31531921295
668;SQUARE DE LA PLACE PASDELOUP;Promenades ouvertes;67.91818900000001;2 PL PASDELOUP;75011;Ouvert;Oui;Non;00:00 - 23:59;00:00 - 23:59;00:00 - 23:59;00:00 - 23:59;00:00 - 23:59;00:00 - 23:59;00:00 - 23:59;48.8629653517;2.36704979594
669;WWF Le Domaine de Longchamp;Bois;68.687385;Route de Sèvres à Neuilly;75016;;Non;Non;;;;;;;;48.8650478285;2.23763061984
670;Bois de Vincennes;Bois;20.133311000000003;;75012;Ouvert;Non;Non;00:00 - 23:59;00:00 - 23:59;00:00 - 23:59;00:00 - 23:59;00:00 - 23:59;00:00 - 23:59;00:00 - 23:59;48.829487757;2.4477382944
671;Chalet de vente de la Porte Jaune;Bois;34.926362;60 w Route Circulaire;75012;;Non;Non;;;;;;;;48.8387242682;2.45828293538
672;CIMETIERE D'AUTEUIL;Cimetières;8.916481;57, rue Claude-Lorrain;75016;Ouvert;Non;Non;08:00 - 12:00;08:00 - 12:00;08:00 - 12:00;08:00 - 12:00;08:00 - 12:00;08:30 - 12:00;09:00 - 12:00;48.8410358187;2.25934983529
673;CIMETIERE DES BATIGNOLLES;Cimetières;32.78217;8   RUE SAINT-JUST;75017;Ouvert;Non;Non;08:00 - 12:00;08:00 - 12:00;08:00 - 12:00;08:00 - 12:00;08:00 - 12:00;08:30 - 12:00;09:00 - 12:00;48.8979890789;2.3163375522
674;JARDINETS ANGLE DES RUES DES PETITS CARREAUX - ABOUKIR;Décorations sur la voie publique;3.028664;41   RUE DES PETITS CARREAUX;75002;;Non;Non;;;;;;;;48.8679914138;2.34741132985
675;JARDIN DU PRE CATELAN;Promenades ouvertes;35.808939;11   CHEMIN DE LA  CROIX CATELAN;75016;Ouvert;Non;Non;09:30 - 18:30;09:30 - 18:30;09:30 - 18:30;09:30 - 18:30;09:30 - 18:30;09:30 - 18:30;09:30 - 18:30;48.8647628535;2.2529079524
676;JARDIN YITZHAK RABIN;Promenades ouvertes;54.38121099999999;16   RUE JOSEPH KESSEL;75012;Ouvert;Non;Non;00:00 - 23:59;00:00 - 23:59;00:00 - 23:59;00:00 - 23:59;00:00 - 23:59;00:00 - 23:59;00:00 - 23:59;48.835170747;2.38247992756
677;PROMENADE DE LA FORET LINEAIRE;Promenades ouvertes;0.0;13 QU LOT;75019;;Oui;Non;;;;;;;;48.8999481538;2.37846668265
678;SQUARE OLGA BANCIC;Promenades ouvertes;9.833126;34 RUE GODEFROY CAVAIGNAC;75011;Ouvert;Non;Non;08:00 - 18:00;08:00 - 18:00;08:00 - 18:00;08:00 - 18:00;08:00 - 18:00;09:00 - 18:00;09:00 - 18:00;48.8561983936;2.38088719033
679;SQUARE ERNEST GOUIN;Promenades ouvertes;0.8200270000000001;2 RUE ERNEST GOUIN;75017;Ouvert;Non;Non;09:30 - 18:00;09:30 - 18:00;09:30 - 18:00;09:30 - 18:00;09:30 - 18:00;09:00 - 18:00;09:00 - 18:00;48.89410294;2.31832118725
680;JARDIN DE LA RUE LA QUINTINIE;Promenades ouvertes;15.596507;41 RUE QUINTINIE;75015;Ouvert;Non;Non;08:00 - 18:00;08:00 - 18:00;08:00 - 18:00;08:00 - 18:00;08:00 - 18:00;09:00 - 18:00;09:00 - 18:00;48.8372411068;2.30431572426
681;Promenade de la hauteur;Promenades ouvertes;70.0;Hôpital de la Salpêtrière;75013;;Non;Non;;;;;;;;48.8378489159;2.36401175935
682;JARDIN DU MUSÉE MUNICIPAL COGNACQ-JAY;Jardins grandes institutions;0.97996;;75003;;Non;Non;;;;;;;;48.8579831359;2.3620273095
683;Chalet de vente n° 4 Ceinture du Lac;Bois;69.789691;31 Route de Ceinture du Lac Daumesnil;75012;;Non;Non;;;;;;;;48.8337998594;2.41066734744
684;SQUARE PHILIPPE FARINE;Promenades ouvertes;67.05491;12 PAS GATBOIS;75012;Ouvert;Non;Non;09:30 - 18:00;09:30 - 18:00;09:30 - 18:00;09:30 - 18:00;09:30 - 18:00;09:00 - 18:00;09:00 - 18:00;48.8444232135;2.37920785533
685;JARDIN MAUDY PIOT-JACOMET;Promenades ouvertes;70.330501;8 RUE SUISSES;75014;Ouvert;Non;Non;08:00 - 18:00;08:00 - 18:00;08:00 - 18:00;08:00 - 18:00;08:00 - 18:00;09:00 - 18:00;09:00 - 18:00;48.8309700656;2.31421824176
686;JARDIN ROSALIND FRANKLIN;Promenades ouvertes;73.49382999999999;167 RUE LOURMEL;75015;Ouvert;Non;Non;08:00 - 18:00;08:00 - 18:00;08:00 - 18:00;08:00 - 18:00;08:00 - 18:00;09:00 - 18:00;09:00 - 18:00;48.8392126628;2.28278373
687;Bois de Boulogne;Bois;15.006419999999999;;75016;Ouvert;Non;Non;00:00 - 23:59;00:00 - 23:59;00:00 - 23:59;00:00 - 23:59;00:00 - 23:59;00:00 - 23:59;00:00 - 23:59;48.8703613407;2.24248362678
688;Bois de Boulogne;Bois;76.988639;;75016;Ouvert;Non;Non;00:00 - 23:59;00:00 - 23:59;00:00 - 23:59;00:00 - 23:59;00:00 - 23:59;00:00 - 23:59;00:00 - 23:59;48.8576343219;2.22806014232
689;Bois de Boulogne;Bois;66.10166100000001;;75016;Ouvert;Non;Non;00:00 - 23:59;00:00 - 23:59;00:00 - 23:59;00:00 - 23:59;00:00 - 23:59;00:00 - 23:59;00:00 - 23:59;;
690;;;;;;;;;;;;;;;;;
691;Bois de Boulogne;Bois;45.148942000000005;;75016;Ouvert;Non;Non;00:00 - 23:59;00:00 - 23:59;00:00 - 23:59;00:00 - 23:59;00:00 - 23:59;00:00 - 23:59;00:00 - 23:59;;
692;;;;;;;;;;;;;;;;;
693;PROMENADE PC 14 - CORENTIN - JEAN MOULIN;Promenades ouvertes;60.00000000000001;39 AVENUE JEAN MOULIN;75014;Ouvert;Non;Non;08:00 - 18:00;08:00 - 18:00;08:00 - 18:00;08:00 - 18:00;08:00 - 18:00;09:00 - 18:00;09:00 - 18:00;48.8248899352;2.32444292937
694;PARC DES RIVES DE SEINE;Promenades ouvertes;60.00000000000001;1 QUAI HENRI IV;75001;;Non;Non;;;;;;;;;
695;;;;;;;;;;;;;;;;;
696;SQUARE BRIGNOLE - MUSEE GALLIERA;Promenades ouvertes;19.562751;4 PL TOKYO;75016;;Non;Non;;;;;;;;48.8654142577;2.2966909781
697;SQUARE DU REGARD DE LA LANTERNE;Promenades ouvertes;24.79471;3 RUE AUGUSTIN THIERRY;75019;Ouvert;Non;Non;09:30 - 18:00;09:30 - 18:00;09:30 - 18:00;09:30 - 18:00;09:30 - 18:00;09:00 - 18:00;09:00 - 18:00;48.8757953051;2.39446669366
698;JARDIN PARTAGE DU 3 PASSAGE DES PATRIARCHES;Ephémères, partagés, pédagogiques;20.0;3 PASSAGE DES PATRIARCHES;75005;;Non;Non;;;;;;;;48.8410776296;2.35036660231
699;Bois de Boulogne;Bois;63.606231;;75016;Ouvert;Non;Non;00:00 - 23:59;00:00 - 23:59;00:00 - 23:59;00:00 - 23:59;00:00 - 23:59;00:00 - 23:59;00:00 - 23:59;48.8731265715;2.26058580257
700;Bois de Boulogne;Bois;42.536378;;75016;Ouvert;Non;Non;00:00 - 23:59;00:00 - 23:59;00:00 - 23:59;00:00 - 23:59;00:00 - 23:59;00:00 - 23:59;00:00 - 23:59;48.8573670308;2.25997677031
701;Bois de Boulogne;Bois;8.092653;;75016;Ouvert;Non;Non;00:00 - 23:59;00:00 - 23:59;00:00 - 23:59;00:00 - 23:59;00:00 - 23:59;00:00 - 23:59;00:00 - 23:59;48.8633112317;2.26569150678
702;Bois de Vincennes;Bois;65.494207;;75012;Ouvert;Non;Non;00:00 - 23:59;00:00 - 23:59;00:00 - 23:59;00:00 - 23:59;00:00 - 23:59;00:00 - 23:59;00:00 - 23:59;48.8336192445;2.46245944252
703;JARDIN DU PERE THEILHARD DE CHARDIN;Promenades ouvertes;10.0;10 BOULEVARD HENRI IV;75004;Ouvert;Non;Non;00:00 - 23:59;00:00 - 23:59;00:00 - 23:59;00:00 - 23:59;00:00 - 23:59;00:00 - 23:59;00:00 - 23:59;48.8508652471;2.36275588538
704;JARDIN HANS ET SOPHIE SCHOLL;Promenades ouvertes;5.0;12 BOULEVARD DU BOIS LE PRETRE;75017;;Non;Non;;;;;;;;48.9000619185;2.32077651111
705;JARDIN CLAIRE MOTTE;Promenades ouvertes;5.373032;6 PL PAUL TORTELIER;75017;Ouvert;Non;Non;08:00 - 18:00;08:00 - 18:00;08:00 - 18:00;08:00 - 18:00;08:00 - 18:00;09:00 - 18:00;09:00 - 18:00;48.8918311716;2.30457064392
706;SQUARE AUGUSTE BALAGNY;Promenades ouvertes;4.678789;1 RUE JEAN OESTREICHER;75017;Ouvert;Non;Non;09:30 - 18:00;09:30 - 18:00;09:30 - 18:00;09:30 - 18:00;09:30 - 18:00;09:00 - 18:00;09:00 - 18:00;48.8864928629;2.28918443673
707;SQUARE DES MOINES DE TIBHIRINE;Promenades ouvertes;12.315481;71 BD VOLTAIRE;75011;Ouvert;Oui;Non;00:00 - 23:59;00:00 - 23:59;00:00 - 23:59;00:00 - 23:59;00:00 - 23:59;00:00 - 23:59;00:00 - 23:59;48.8609895704;2.37536066885
708;Bois de Vincennes;Bois;55.12644100000001;;75012;Ouvert;Non;Non;00:00 - 23:59;00:00 - 23:59;00:00 - 23:59;00:00 - 23:59;00:00 - 23:59;00:00 - 23:59;00:00 - 23:59;48.8436633137;2.42176480914
709;Bois de Vincennes;Bois;89.570994;;75012;Ouvert;Non;Non;00:00 - 23:59;00:00 - 23:59;00:00 - 23:59;00:00 - 23:59;00:00 - 23:59;00:00 - 23:59;00:00 - 23:59;48.8198540591;2.44170802349
710;JARDIN DE L'AVENUE FOCH - PELOUSE 24;Promenades ouvertes;45.957519999999995;10 AV FOCH;75016;Ouvert;Oui;Non;00:00 - 23:59;00:00 - 23:59;00:00 - 23:59;00:00 - 23:59;00:00 - 23:59;00:00 - 23:59;00:00 - 23:59;48.871451612;2.27608641483
711;MAIL DE BIEVRE;Promenades ouvertes;3.43105;105 BD AUGUSTE BLANQUI;75013;Ouvert;Non;Non;08:00 - 18:00;08:00 - 18:00;08:00 - 18:00;08:00 - 18:00;08:00 - 18:00;09:00 - 18:00;09:00 - 18:00;48.8296835914;2.34487766276
712;PROMENADE BERNARD LAFAY - C1;Promenades ouvertes;11.113195000000001;3 RUE RAYMOND PITET;75017;Ouvert;Non;Non;08:00 - 18:00;08:00 - 18:00;08:00 - 18:00;08:00 - 18:00;08:00 - 18:00;09:00 - 18:00;09:00 - 18:00;48.8891128442;2.29491904605
713;SQUARE LEON SERPOLLET;Promenades ouvertes;20.927937;25 RUE CLOYS;75018;Ouvert;Non;Non;08:00 - 18:00;08:00 - 18:00;08:00 - 18:00;08:00 - 18:00;08:00 - 18:00;09:00 - 18:00;09:00 - 18:00;48.89219199;2.33857871772
714;SQUARE CLAUDE-NICOLAS LEDOUX;Promenades ouvertes;21.963726;10 M PL DENFERT ROCHEREAU;75014;Ouvert;Oui;Non;00:00 - 23:59;00:00 - 23:59;00:00 - 23:59;00:00 - 23:59;00:00 - 23:59;00:00 - 23:59;00:00 - 23:59;48.8342996293;2.33151665039
715;SQUARE YORKTOWN;Promenades ouvertes;49.038489;1 AV PAUL DOUMER;75016;Ouvert;Non;Non;00:00 - 23:59;00:00 - 23:59;00:00 - 23:59;00:00 - 23:59;00:00 - 23:59;00:00 - 23:59;00:00 - 23:59;48.8616495087;2.28643932977
716;SQUARE DES ECRIVAINS COMBATTANTS MORTS POUR LA FRANCE;Promenades ouvertes;12.551105000000002;23 AV MARECHAL MAUNOURY;75016;Ouvert;Oui;Non;00:00 - 23:59;00:00 - 23:59;00:00 - 23:59;00:00 - 23:59;00:00 - 23:59;00:00 - 23:59;00:00 - 23:59;48.8596277982;2.26539079836
717;Bois de Vincennes;Bois;38.566084000000004;;75012;Ouvert;Non;Non;00:00 - 23:59;00:00 - 23:59;00:00 - 23:59;00:00 - 23:59;00:00 - 23:59;00:00 - 23:59;00:00 - 23:59;48.8193910482;2.46242797511
718;Bois de Vincennes;Bois;64.38240400000001;;75012;Ouvert;Non;Non;00:00 - 23:59;00:00 - 23:59;00:00 - 23:59;00:00 - 23:59;00:00 - 23:59;00:00 - 23:59;00:00 - 23:59;48.8237356374;2.43637875155
719;SQUARE DE LA PHOTO HIPPIQUE;Promenades ouvertes;37.308813;81  CHEMIN DE  CEINTURE DU LAC INFÉRIEUR;75016;Ouvert;Non;Non;09:30 - 18:00;09:30 - 18:00;09:30 - 18:00;09:30 - 18:00;09:30 - 18:00;09:30 - 18:00;09:30 - 18:00;48.8670602863;2.26105631658
720;SQUARE DU CAPORAL PEUGEOT;Promenades ouvertes;27.915929000000002;2 RUE CAPORAL PEUGEOT;75017;Ouvert;Non;Non;08:00 - 18:00;08:00 - 18:00;08:00 - 18:00;08:00 - 18:00;08:00 - 18:00;09:00 - 18:00;09:00 - 18:00;48.8870100108;2.29009895931
721;JARDIN DE L'AVENUE FOCH - PELOUSE 10;Promenades ouvertes;23.378709999999998;10 AV FOCH;75016;Ouvert;Oui;Non;00:00 - 23:59;00:00 - 23:59;00:00 - 23:59;00:00 - 23:59;00:00 - 23:59;00:00 - 23:59;00:00 - 23:59;;
722;;;;;;;;;;;;;;;;;
723;PROMENADE DE L'AVENUE DE BRETEUIL 15E;Promenades ouvertes;0.050947000000000006;71   AVENUE DE BRETEUIL;75015;;Oui;Non;;;;;;;;48.8463201379;2.31151287402
724;SQUARE AUX ARTISTES;Promenades ouvertes;3.1433050000000002;15 AV GEORGES LAFENESTRE;75014;Ouvert;Oui;Non;00:00 - 23:59;00:00 - 23:59;00:00 - 23:59;00:00 - 23:59;00:00 - 23:59;00:00 - 23:59;00:00 - 23:59;48.824821584;2.31143519384
725;TERRAIN DE BOULES BOULEVARD DE REIMS;Promenades ouvertes;23.553222;29 BD REIMS;75017;;Oui;Non;;;;;;;;48.8887310964;2.29717634286
726;JARDIN D'IMMEUBLES GRENADE;Promenades ouvertes;63.964724000000004;6 RUE MARSEILLAISE;75019;;Oui;Non;;;;;;;;48.8883508194;2.39855605496
727;JARDIN TINO ROSSI - MUSEE DE LA SCULPTURE EN PLEIN AIR;Promenades ouvertes;19.639447;2 BX QU SAINT BERNARD;75005;Ouvert;Oui;Non;00:00 - 23:59;00:00 - 23:59;00:00 - 23:59;00:00 - 23:59;00:00 - 23:59;00:00 - 23:59;00:00 - 23:59;48.8473890724;2.36093328371
728;SQUARE LEOPOLD ACHILLE;Promenades ouvertes;26.754669000000003;5 RUE PARC ROYAL;75003;Ouvert;Non;Non;08:00 - 18:00;08:00 - 18:00;08:00 - 18:00;08:00 - 18:00;08:00 - 18:00;09:00 - 18:00;09:00 - 18:00;48.8583699874;2.36319807809
729;SQUARE ANDRE LEFEVRE;Promenades ouvertes;26.629815;2 RUE PARCHEMINERIE;75005;Ouvert;Non;Non;09:30 - 18:00;09:30 - 18:00;09:30 - 18:00;09:30 - 18:00;09:30 - 18:00;09:00 - 18:00;09:00 - 18:00;48.8516447026;2.34555791555
730;SQUARE DU VERT GALANT;Promenades ouvertes;38.062475;4 W PL PONT 9;75001;Ouvert;Oui;Non;00:00 - 23:59;00:00 - 23:59;00:00 - 23:59;00:00 - 23:59;00:00 - 23:59;00:00 - 23:59;00:00 - 23:59;48.8574008644;2.34026974183
731;Jardin d'Acclimatation;Bois;20.466445;Route de la Porte des Sablons;75016;Ouvert;Non;Non;00:00 - 23:59;00:00 - 23:59;00:00 - 23:59;00:00 - 23:59;00:00 - 23:59;00:00 - 23:59;00:00 - 23:59;;
732;;;;;;;;;;;;;;;;;
733;;;;;;;;;;;;;;;;;
734;JARDIN BREGUET;Promenades ouvertes;10.0;27 RUE BREGUET;75011;Ouvert;Non;Non;08:00 - 18:00;08:00 - 18:00;08:00 - 18:00;08:00 - 18:00;08:00 - 18:00;09:00 - 18:00;09:00 - 18:00;48.8583244429;2.37510115468
735;Square rue Léon Frapié;Promenades ouvertes;10.5278;7 RUE NOISY SEC;75020;Ouvert;Non;Non;08:00 - 18:00;08:00 - 18:00;08:00 - 18:00;08:00 - 18:00;08:00 - 18:00;09:00 - 18:00;09:00 - 18:00;48.872926095;2.41189183471
736;SQUARE CHARLES-VICTOR LANGLOIS;Promenades ouvertes;17.369474;6 RUE BLANCS MANTEAUX;75004;Ouvert;Non;Non;08:00 - 18:20;08:00 - 18:20;08:00 - 18:20;08:00 - 18:20;08:00 - 18:20;09:00 - 18:20;09:00 - 18:20;48.8587229034;2.35799596177
737;JARDIN DEBERGUE-RENDEZ-VOUS;Promenades ouvertes;10.954689;30 RUE RENDEZ VOUS;75012;Ouvert;Non;Non;08:00 - 19:00;08:00 - 19:00;08:00 - 19:00;08:00 - 19:00;08:00 - 19:00;09:00 - 19:00;09:00 - 19:00;48.8464610885;2.40437619288
738;SQUARE DES DEUX NETHES;Promenades ouvertes;15.823275;24 AV CLICHY;75018;Ouvert;Non;Non;08:00 - 18:00;08:00 - 18:00;08:00 - 18:00;08:00 - 18:00;08:00 - 18:00;09:00 - 18:00;09:00 - 18:00;48.8856603398;2.32739936527
739;JARDIN DE LA PLACE DU DOCTEUR NAVARRE;Promenades ouvertes;76.219453;2 V PL DOCTEUR NAVARRE;75013;Ouvert;Non;Non;08:00 - 18:00;08:00 - 18:00;08:00 - 18:00;08:00 - 18:00;08:00 - 18:00;09:00 - 18:00;09:00 - 18:00;48.8278948591;2.36621098773
740;Gare RATP Château de Vincennes;Bois;15.812471;Avenue de Nogent;75012;;Non;Non;;;;;;;;48.8441068334;2.4413814988
741;Le Chalet des Acacias;Bois;9.651817;42 w Chemin de Ceinture du Lac Inférieur;75016;;Non;Non;;;;;;;;48.8653814246;2.26339709469
742;SQUARE DES JONQUILLES;Promenades ouvertes;23.095768;219 RUE VERCINGETORIX;75014;Ouvert;Non;Non;08:00 - 18:00;08:00 - 18:00;08:00 - 18:00;08:00 - 18:00;08:00 - 18:00;09:00 - 18:00;09:00 - 18:00;48.8300491384;2.30820962224
743;SQUARE ARMAND DAVID;Promenades ouvertes;60.00000000000001;90 RUE DU CHERCHE MIDI;75006;Ouvert;Non;Non;09:00 - 17:30;09:00 - 17:30;09:00 - 17:30;09:00 - 17:30;09:00 - 17:30;09:00 - 17:30;09:00 - 17:30;48.8478124183;2.32218597308
744;JARDIN DE L'OBSERVATOIRE;Promenades ouvertes;60.00000000000001;98 BOULEVARD ARAGO;75014;;Non;Non;;;;;;;;48.8351237232;2.33669316291
745;SQUARE MICHEL FOUCAULT;Jardinets décoratifs;87.884046;43 Q RUE DES ECOLES;75005;Ouvert;Non;Non;00:00 - 23:59;00:00 - 23:59;00:00 - 23:59;00:00 - 23:59;00:00 - 23:59;00:00 - 23:59;00:00 - 23:59;48.849337579;2.34522845881
746;JARDIN DE L'EGLISE SAINTE-JEANNE DE CHANTAL;Promenades ouvertes;26.054243;16 PL PORTE SAINT CLOUD;75016;Ouvert;Non;Non;08:00 - 18:00;08:00 - 18:00;08:00 - 18:00;08:00 - 18:00;08:00 - 18:00;09:00 - 18:00;09:00 - 18:00;48.838718214;2.25620167691
747;JARDIN ATLANTIQUE;Promenades ouvertes;10.554698;17 ALL 2E B;75015;Ouvert;Non;Non;08:00 - 18:00;08:00 - 18:00;08:00 - 18:00;08:00 - 18:00;08:00 - 18:00;09:00 - 18:00;09:00 - 18:00;48.8397857683;2.31884768198
748;SQUARE CARPEAUX;Promenades ouvertes;45.321041;23 RUE CARPEAUX;75018;Ouvert;Non;Non;08:00 - 18:00;08:00 - 18:00;08:00 - 18:00;08:00 - 18:00;08:00 - 18:00;09:00 - 18:00;09:00 - 18:00;48.8916887783;2.33171052779
749;SQUARE DU CARDINAL PETIT DE JULLEVILLE;Promenades ouvertes;33.528608;4 RUE GUSTAVE CHARPENTIER;75017;Ouvert;Non;Non;08:00 - 18:00;08:00 - 18:00;08:00 - 18:00;08:00 - 18:00;08:00 - 18:00;09:00 - 18:00;09:00 - 18:00;48.8826514909;2.28211327767
750;Bois de Vincennes;Bois;47.906494;;75012;Ouvert;Non;Non;00:00 - 23:59;00:00 - 23:59;00:00 - 23:59;00:00 - 23:59;00:00 - 23:59;00:00 - 23:59;00:00 - 23:59;48.8431147307;2.42206806937
751;JARDIN DE L'HOTEL LAMOIGNON - MARK ASHTON;Promenades ouvertes;40.0;25 RUE DES FRANCS BOURGEOIS;75004;Ouvert;Non;Non;08:00 - 18:00;08:00 - 18:00;08:00 - 18:00;08:00 - 18:00;08:00 - 18:00;09:00 - 18:00;09:00 - 18:00;48.856858076;2.36221336483
752;SQUARES DES ARENES DE LUTECE ET CAPITAN;Promenades ouvertes;35.780521;2 PL EMILE MALE;75005;;Non;Non;;;;;;;;48.8450999736;2.35321740637
753;SQUARE JEAN MORIN;Promenades ouvertes;22.065215;238 RUE CHARENTON;75012;Ouvert;Oui;Non;00:00 - 23:59;00:00 - 23:59;00:00 - 23:59;00:00 - 23:59;00:00 - 23:59;00:00 - 23:59;00:00 - 23:59;48.8386752633;2.3889164611
754;Bois de Vincennes;Bois;24.527682000000002;;75012;Ouvert;Non;Non;00:00 - 23:59;00:00 - 23:59;00:00 - 23:59;00:00 - 23:59;00:00 - 23:59;00:00 - 23:59;00:00 - 23:59;48.8187720159;2.45022164554
755;SQUARE BRANCION;Promenades ouvertes;39.362738;27 AV PORTE BRANCION;75015;Ouvert;Non;Non;08:00 - 18:00;08:00 - 18:00;08:00 - 18:00;08:00 - 18:00;08:00 - 18:00;09:00 - 18:00;09:00 - 18:00;48.826145664;2.30119484808
756;SQUARE DE LA RUE CHARLES HERMITE;Promenades ouvertes;82.02244200000001;40 RUE CHARLES HERMITE;75018;Ouvert;Non;Non;08:00 - 17:30;08:00 - 17:30;08:00 - 17:30;08:00 - 17:30;08:00 - 17:30;09:00 - 17:30;09:00 - 17:30;48.900073743;2.36632363986
757;Institut International Bouddhique;Bois;52.535599999999995;6 w Route de Ceinture du Lac Daumesnil;75012;;Non;Non;;;;;;;;48.8286948766;2.41489630668
758;JARDIN DE LA FONDATION NAPOLEON;Promenades ouvertes;31.743616000000003;2 RUE PICPUS;75012;Ouvert;Non;Non;09:30 - 18:00;09:30 - 18:00;09:30 - 18:00;09:30 - 18:00;09:30 - 18:00;09:00 - 18:00;09:00 - 18:00;48.848605892;2.39192991051
759;JARDIN SAINT-LAZARE;Promenades ouvertes;0.0;12   RUE LEON SCHWARTZENBERG;75010;Ouvert;Non;Non;06:45 - 18:30;06:45 - 18:30;06:45 - 18:30;06:45 - 18:30;06:45 - 18:30;08:45 - 18:30;08:45 - 18:30;48.8756165887;2.35401482091
760;JARDINET DE LA PLACE DES VINS DE FRANCE;Jardinets décoratifs;18.301511;1   PLACE DES VINS DE FRANCE;75012;;Non;Non;;;;;;;;48.8323560249;2.38744814838
761;PROMENADE D'AUSTRALIE 7E;Promenades ouvertes;34.178572;14 X QU BRANLY;75007;;Oui;Non;;;;;;;;;
762;;;;;;;;;;;;;;;;;
763;JARDIN DE MARIANNE;Promenades ouvertes;22.140597;16 PL NATION;75011;Ouvert;Oui;Non;00:00 - 23:59;00:00 - 23:59;00:00 - 23:59;00:00 - 23:59;00:00 - 23:59;00:00 - 23:59;00:00 - 23:59;48.8483859192;2.39591982474
764;JARDIN DE L'AVENUE FOCH - PELOUSE 02;Promenades ouvertes;39.218986;10 AV FOCH;75016;Ouvert;Oui;Non;00:00 - 23:59;00:00 - 23:59;00:00 - 23:59;00:00 - 23:59;00:00 - 23:59;00:00 - 23:59;00:00 - 23:59;48.8721912499;2.27649486391
765;HIPPODROME D'AUTEUIL, PELOUSE A;Promenades ouvertes;1.5902550000000002;3  ROUTE D' AUTEUIL AUX LACS;75016;Ouvert;Non;Non;08:00 - 18:00;08:00 - 18:00;08:00 - 18:00;08:00 - 18:00;08:00 - 18:00;09:00 - 18:00;09:00 - 18:00;48.8506792331;2.25616449293
766;PROMENADE AMALIA RODRIGUES;Promenades ouvertes;17.251692;2 BD ALGERIE;75019;Ouvert;Oui;Non;00:00 - 23:59;00:00 - 23:59;00:00 - 23:59;00:00 - 23:59;00:00 - 23:59;00:00 - 23:59;00:00 - 23:59;48.8815005505;2.40049162854
767;JARDIN DU RANELAGH;Promenades ouvertes;41.149112;22   CHAUSSEE DE LA MUETTE;75016;Ouvert;Oui;Non;00:00 - 23:59;00:00 - 23:59;00:00 - 23:59;00:00 - 23:59;00:00 - 23:59;00:00 - 23:59;00:00 - 23:59;;
768;;;;;;;;;;;;;;;;;
769;JARDINET MADELEINE DE SCUDERY;Promenades ouvertes;0.402999;3 RUE OISEAUX;75003;Ouvert;Non;Non;08:00 - 18:00;08:00 - 18:00;08:00 - 18:00;08:00 - 18:00;08:00 - 18:00;09:00 - 18:00;09:00 - 18:00;48.862993088;2.36178231594
770;SQUARE PAUL LANGEVIN;Promenades ouvertes;61.57374;19 B RUE ECOLES;75005;Ouvert;Non;Non;08:00 - 18:00;08:00 - 18:00;08:00 - 18:00;08:00 - 18:00;08:00 - 18:00;09:00 - 18:00;09:00 - 18:00;48.8478460012;2.35013793395
771;Square GRYNBERG;Promenades ouvertes;10.253431;2 RUE FERNAND LEGER;75020;Ouvert;Non;Non;09:30 - 18:00;09:30 - 18:00;09:30 - 18:00;09:30 - 18:00;09:30 - 18:00;09:00 - 18:00;09:00 - 18:00;48.863646049;2.38915577244
772;Bois de Vincennes;Bois;17.424781;;75012;Ouvert;Non;Non;00:00 - 23:59;00:00 - 23:59;00:00 - 23:59;00:00 - 23:59;00:00 - 23:59;00:00 - 23:59;00:00 - 23:59;48.8190366321;2.44664767301
773;Bois de Vincennes;Bois;64.67372999999999;;75012;Ouvert;Non;Non;00:00 - 23:59;00:00 - 23:59;00:00 - 23:59;00:00 - 23:59;00:00 - 23:59;00:00 - 23:59;00:00 - 23:59;48.8240511616;2.44231817968
774;SQUARE RESTIF DE LA BRETONNE;Promenades ouvertes;52.995639000000004;2 RUE BUCHERIE;75005;;Non;Non;;;;;;;;48.8514985526;2.34927918013
775;JARDIN DE L'ECOLE POLYTECHNIQUE;Promenades ouvertes;14.029419;11 RUE DESCARTES;75005;;Non;Non;;;;;;;;48.8468870469;2.34953886887
776;SQUARE FROT-PHALSBOURG;Promenades ouvertes;0.626812;13 CITE PHALSBOURG;75011;Ouvert;Non;Non;08:00 - 18:00;08:00 - 18:00;08:00 - 18:00;08:00 - 18:00;08:00 - 18:00;09:00 - 18:00;09:00 - 18:00;48.8558907709;2.38556318265
777;SQUARE DE JESSAINT;Promenades ouvertes;62.051297000000005;21 PL CHAPELLE;75018;Ouvert;Non;Non;08:00 - 18:00;08:00 - 18:00;08:00 - 18:00;08:00 - 18:00;08:00 - 18:00;09:00 - 18:00;09:00 - 18:00;48.8846746494;2.35864793258
778;JARDIN DES TUILERIES;Jardins d'Etat;18.74214;;75001;Ouvert;Non;Non;00:00 - 23:59;00:00 - 23:59;00:00 - 23:59;00:00 - 23:59;00:00 - 23:59;00:00 - 23:59;00:00 - 23:59;48.8637050296;2.32683312085
779;Restaurant du Plateau de Gravelle;Bois;30.238889;9 w Route du Pesage;75012;;Non;Non;;;;;;;;48.8201137898;2.44403068877
780;Quartier de travail Hippodrome de Vincennes;Bois;8.450658;Route du Pesage;75012;;Non;Non;;;;;;;;48.823956008;2.44505767152
781;INSEP;Bois;10.805588;Avenue du Tremblay;75012;;Non;Non;;;;;;;;48.8326467385;2.45197781624
782;SQUARE D'AJACCIO;Promenades ouvertes;60.347664;127 RUE GRENELLE;75007;Ouvert;Non;Non;09:30 - 18:00;09:30 - 18:00;09:30 - 18:00;09:30 - 18:00;09:30 - 18:00;09:00 - 18:00;09:00 - 18:00;48.8574888593;2.31461067298
783;SQUARE JULIETTE DODU;Promenades ouvertes;19.247249999999998;14 RUE JULIETTE DODU;75010;Ouvert;Non;Non;08:00 - 18:00;08:00 - 18:00;08:00 - 18:00;08:00 - 18:00;08:00 - 18:00;09:00 - 18:00;09:00 - 18:00;48.8755340894;2.36946181189
784;SQUARE JEAN ALLEMANE;Promenades ouvertes;55.438633;9 RUE BELFORT;75011;Ouvert;Non;Non;08:00 - 18:00;08:00 - 18:00;08:00 - 18:00;08:00 - 18:00;08:00 - 18:00;09:00 - 18:00;09:00 - 18:00;48.8566818637;2.383437288
785;SQUARE MARIUS CONSTANT;Promenades ouvertes;35.162679999999995;8 RUE ORTOLAN;75005;Ouvert;Non;Non;09:30 - 18:00;09:30 - 18:00;09:30 - 18:00;09:30 - 18:00;09:30 - 18:00;09:00 - 18:00;09:00 - 18:00;48.8433796939;2.3504413952
786;SEPE;Bois;15.565487000000001;26 Route du Champ Manoeuvres;75012;;Non;Non;;;;;;;;48.835066308;2.44636599566
787;La Grande Cascade;Bois;34.962238;Allée de Longchamp;75016;;Non;Non;;;;;;;;48.8626505907;2.24040861036
788;Le Bosquet;Bois;2.1106260000000003;Parc Floral;75012;;Non;Non;;;;;;;;48.8395748133;2.44399539802
789;Carrière hippique;Bois;0.0;Route de la Pyramide;75012;;Non;Non;;;;;;;;48.8302211639;2.4486468323
790;JARDIN ELISABETH BOSELLI;Promenades ouvertes;10.0;34 BOULEVARD VICTOR;75015;Ouvert;Non;Non;00:00 - 23:59;00:00 - 23:59;00:00 - 23:59;00:00 - 23:59;00:00 - 23:59;00:00 - 23:59;00:00 - 23:59;48.8335921988;2.28492792385
791;JARDIN DU PORT DE L'ARSENAL;Promenades ouvertes;7.365099;11 BD BASTILLE;75012;Ouvert;Non;Non;08:00 - 22:00;08:00 - 22:00;08:00 - 22:00;08:00 - 22:00;08:00 - 22:00;09:00 - 22:00;09:00 - 22:00;48.8498284379;2.36801758869
792;JARDIN BERTHE MORISOT;Promenades ouvertes;21.126378000000003;34 RUE DESSOUS BERGES;75013;Ouvert;Non;Non;08:00 - 18:00;08:00 - 18:00;08:00 - 18:00;08:00 - 18:00;08:00 - 18:00;09:00 - 18:00;09:00 - 18:00;48.8260722714;2.37510360877
793;SQUARE DE L'ASPIRANT DUNAND;Promenades ouvertes;51.510197999999995;20 RUE SAILLARD;75014;Ouvert;Non;Non;08:00 - 18:00;08:00 - 18:00;08:00 - 18:00;08:00 - 18:00;08:00 - 18:00;09:00 - 18:00;09:00 - 18:00;48.8320130044;2.32626692769
794;Jardin curial;Promenades ouvertes;1.3986180000000001;94 RUE CURIAL;75019;Ouvert;Non;Non;08:00 - 18:00;08:00 - 18:00;08:00 - 18:00;08:00 - 18:00;08:00 - 18:00;09:00 - 18:00;09:00 - 18:00;48.8957913899;2.37658552938
795;SQUARE MONSEIGNEUR MAILLET;Promenades ouvertes;36.176486000000004;2 PL FETES;75019;Ouvert;Non;Non;09:30 - 18:00;09:30 - 18:00;09:30 - 18:00;09:30 - 18:00;09:30 - 18:00;09:00 - 18:00;09:00 - 18:00;48.8769880319;2.39326972464
796;PROMENADE PC 13 - POTERNE DES PEUPLIERS;Promenades ouvertes;60.00000000000001;34 BOULEVARD KELLERMANN;75013;Ouvert;Non;Non;08:00 - 18:00;08:00 - 18:00;08:00 - 18:00;08:00 - 18:00;08:00 - 18:00;09:00 - 18:00;09:00 - 18:00;48.8213640933;2.35318187717
797;JARDIN DE LA FONDATION D'AUTEUIL;Promenades ouvertes;46.725156;40 RUE JEAN FONTAINE;75016;Ouvert;Non;Non;07:00 - 18:00;07:00 - 18:00;07:00 - 18:00;07:00 - 18:00;07:00 - 18:00;07:00 - 18:00;07:00 - 18:00;48.8515870939;2.27160040023
798;JARDIN CATHERINE LABOURE;Promenades ouvertes;8.590446;29 RUE BABYLONE;75007;Ouvert;Non;Non;08:00 - 18:00;08:00 - 18:00;08:00 - 18:00;08:00 - 18:00;08:00 - 18:00;09:00 - 18:00;09:00 - 18:00;48.8511200957;2.32050753179
799;SQUARE ARISTIDE CAVAILLE-COLL;Promenades ouvertes;9.117042999999999;8 PL FRANZ LISZT;75010;Ouvert;Non;Non;08:00 - 18:00;08:00 - 18:00;08:00 - 18:00;08:00 - 18:00;08:00 - 18:00;09:00 - 18:00;09:00 - 18:00;48.8783177672;2.35174369059
800;Bois de Boulogne;Bois;24.713333000000002;;75016;Ouvert;Non;Non;00:00 - 23:59;00:00 - 23:59;00:00 - 23:59;00:00 - 23:59;00:00 - 23:59;00:00 - 23:59;00:00 - 23:59;48.8631823085;2.23820344935
801;SQUARE DE L'AMERIQUE LATINE;Promenades ouvertes;53.23067;8 PL PORTE CHAMPERRET;75017;Ouvert;Non;Non;09:30 - 18:00;09:30 - 18:00;09:30 - 18:00;09:30 - 18:00;09:30 - 18:00;09:00 - 18:00;09:00 - 18:00;48.8861158731;2.29005181528
802;Bois de Vincennes;Bois;64.422634;;75012;Ouvert;Non;Non;00:00 - 23:59;00:00 - 23:59;00:00 - 23:59;00:00 - 23:59;00:00 - 23:59;00:00 - 23:59;00:00 - 23:59;48.8246216144;2.4401763581
803;PROMENADE BERNARD LAFAY - A6;Promenades ouvertes;47.180741;5 AV PORTE CHAMPERRET;75017;Ouvert;Non;Non;08:00 - 18:00;08:00 - 18:00;08:00 - 18:00;08:00 - 18:00;08:00 - 18:00;09:00 - 18:00;09:00 - 18:00;48.8854226775;2.28646461366
804;JARDIN DE LA RUE DES COURONNES;Promenades ouvertes;52.823115;73 RUE COURONNES;75020;Ouvert;Non;Non;08:00 - 18:00;08:00 - 18:00;08:00 - 18:00;08:00 - 18:00;08:00 - 18:00;09:00 - 18:00;09:00 - 18:00;48.8707809836;2.38764138868
805;JARDINS DE LA PORTE DE SAINT CLOUD;Promenades ouvertes;38.730066;38 AV FERDINAND BUISSON;75016;Ouvert;Oui;Non;00:00 - 23:59;00:00 - 23:59;00:00 - 23:59;00:00 - 23:59;00:00 - 23:59;00:00 - 23:59;00:00 - 23:59;;
806;;;;;;;;;;;;;;;;;
807;;;;;;;;;;;;;;;;;
808;Bois de Vincennes;Bois;49.054074;;75012;Ouvert;Non;Non;00:00 - 23:59;00:00 - 23:59;00:00 - 23:59;00:00 - 23:59;00:00 - 23:59;00:00 - 23:59;00:00 - 23:59;48.8269339433;2.42202434584
809;Bois de Vincennes;Bois;34.637279;;75012;Ouvert;Non;Non;00:00 - 23:59;00:00 - 23:59;00:00 - 23:59;00:00 - 23:59;00:00 - 23:59;00:00 - 23:59;00:00 - 23:59;48.8264510016;2.40852429323
810;SQUARE BOUCICAUT;Promenades ouvertes;42.956048;1 RUE BABYLONE;75007;Ouvert;Non;Non;08:00 - 19:00;08:00 - 19:00;08:00 - 19:00;08:00 - 19:00;08:00 - 19:00;09:00 - 19:00;09:00 - 19:00;48.8513703587;2.32576186168
811;SQUARE HELOISE ET ABELARD;Promenades ouvertes;35.911526;22 RUE PIERRE GOURDAULT;75013;Ouvert;Non;Non;08:00 - 18:00;08:00 - 18:00;08:00 - 18:00;08:00 - 18:00;08:00 - 18:00;09:00 - 18:00;09:00 - 18:00;48.8313838058;2.37011726293
812;JARDIN DU GYMNASE ALICE MILLIAT;Promenades ouvertes;30.185381;11 C RUE ALESIA;75014;;Non;Non;;;;;;;;48.8269654139;2.33546808485
813;SQUARE MAURICE GARDETTE;Promenades ouvertes;49.432815000000005;2 RUE GENERAL BLAISE;75011;Ouvert;Non;Non;08:00 - 19:00;08:00 - 19:00;08:00 - 19:00;08:00 - 19:00;08:00 - 19:00;09:00 - 19:00;09:00 - 19:00;48.8616816053;2.3790740442
814;SQUARE JULES FERRY;Promenades ouvertes;53.868183;1   BOULEVARD JULES FERRY;75011;Ouvert;Non;Non;08:00 - 18:00;08:00 - 18:00;08:00 - 18:00;08:00 - 18:00;08:00 - 18:00;09:00 - 18:00;09:00 - 18:00;48.8677242734;2.36812078072
815;JARDINET DU PASSAGE DES ABBESSES;Jardinets décoratifs;1.839983;10   PASSAGE DES ABBESSES;75018;Ouvert;Non;Non;08:00 - 18:00;08:00 - 18:00;08:00 - 18:00;08:00 - 18:00;08:00 - 18:00;09:00 - 18:00;09:00 - 18:00;48.8852581011;2.33855796387
816;CIMETIERE DE BELLEVILLE;Cimetières;16.084391;40, rue du Télégraphe;75020;Fermé;Non;Non;;;;;;;;48.8748548784;2.4002981322
817;PARC DE BAGATELLE;Promenades ouvertes;33.652749;1 X ROUTE DE SEVRES A NEUILLY;75016;Ouvert;Non;Non;09:30 - 18:30;09:30 - 18:30;09:30 - 18:30;09:30 - 18:30;09:30 - 18:30;09:30 - 18:30;09:30 - 18:30;;
818;;;;;;;;;;;;;;;;;
819;JARDIN INSOLITE;Promenades ouvertes;2.735601;2  CARREFOUR DE LA PYRAMIDE;75012;Ouvert;Non;Non;09:30 - 18:00;09:30 - 18:00;09:30 - 18:00;09:30 - 18:00;09:30 - 18:00;09:30 - 18:00;09:30 - 18:00;48.8359607439;2.44670254863
820;JARDIN D'IMMEUBLES ALBERT BARTHOLOME - BRANCION;Promenades ouvertes;34.34786;32 AV ALBERT BARTHOLOME;75015;Ouvert;Oui;Non;00:00 - 23:59;00:00 - 23:59;00:00 - 23:59;00:00 - 23:59;00:00 - 23:59;00:00 - 23:59;00:00 - 23:59;48.8279481413;2.29693043012
821;PROMENADE D'AUSTRALIE 15E;Promenades ouvertes;11.516945;74   QUAI BRANLY;75015;;Oui;Non;;;;;;;;48.8563644731;2.28970581415
822;JARDIN DU CLOITRE;Promenades ouvertes;18.683809999999998;55 RUE VERCINGETORIX;75014;Ouvert;Oui;Non;00:00 - 23:59;00:00 - 23:59;00:00 - 23:59;00:00 - 23:59;00:00 - 23:59;00:00 - 23:59;00:00 - 23:59;48.8360514188;2.31742321037
823;SQUARE SANTIAGO DU CHILI;Promenades ouvertes;52.605258;1 PL SALVADOR ALLENDE;75007;Ouvert;Non;Non;08:00 - 18:00;08:00 - 18:00;08:00 - 18:00;08:00 - 18:00;08:00 - 18:00;09:00 - 18:00;09:00 - 18:00;48.8574758658;2.31091868388
824;SQUARE DE L'ILE DE FRANCE;Promenades ouvertes;0.7542639999999999;1 QU ARCHEVECHE;75004;Ouvert;Non;Non;08:00 - 18:00;08:00 - 18:00;08:00 - 18:00;08:00 - 18:00;08:00 - 18:00;09:00 - 18:00;09:00 - 18:00;48.85199062;2.35222471823
825;Bois de Vincennes;Bois;76.629278;;75012;Ouvert;Non;Non;00:00 - 23:59;00:00 - 23:59;00:00 - 23:59;00:00 - 23:59;00:00 - 23:59;00:00 - 23:59;00:00 - 23:59;48.83052046;2.42163641654
826;Bois de Vincennes;Bois;95.748133;;75012;Ouvert;Non;Non;00:00 - 23:59;00:00 - 23:59;00:00 - 23:59;00:00 - 23:59;00:00 - 23:59;00:00 - 23:59;00:00 - 23:59;48.8273614906;2.44156431751
827;SQUARE ROBERT MONTAGNE;Promenades ouvertes;40.951575;10 B RUE LARREY;75005;;Non;Non;;;;;;;;48.8422833573;2.35400703972
828;SQUARE OZANAM;Promenades ouvertes;52.967796;91 B BD MONTPARNASSE;75006;Ouvert;Non;Non;09:30 - 18:00;09:30 - 18:00;09:30 - 18:00;09:30 - 18:00;09:30 - 18:00;09:00 - 18:00;09:00 - 18:00;48.8433411078;2.32743071795
829;SQUARE DAMPIERRE - ROUVET;Promenades ouvertes;34.200978;6 RUE DAMPIERRE;75019;Ouvert;Non;Non;09:30 - 18:00;09:30 - 18:00;09:30 - 18:00;09:30 - 18:00;09:30 - 18:00;09:00 - 18:00;09:00 - 18:00;48.8939964179;2.38408485541
830;JARDIN DU MUSÉE DU QUAI BRANLY;Jardins grandes institutions;16.544564;;75007;;Non;Non;;;;;;;;48.8610660941;2.29812347636
831;PARC DE LA VILLETTE;Jardins d'Etat;26.614466000000004;;75019;Ouvert;Non;Non;00:00 - 23:59;00:00 - 23:59;00:00 - 23:59;00:00 - 23:59;00:00 - 23:59;00:00 - 23:59;00:00 - 23:59;48.8930201763;2.38990977895
832;CIMETIÈRE DE GENTILLY;Cimetières non parisiens;4.383219;;75013;;Non;Non;;;;;;;;48.8186022723;2.35002961379
833;Hippodrome d'Auteuil;Bois;7.020606;Route d'Auteuil aux Lacs;75016;Ouvert;Non;Non;08:00 - 18:00;08:00 - 18:00;08:00 - 18:00;08:00 - 18:00;08:00 - 18:00;09:00 - 18:00;09:00 - 18:00;;
834;;;;;;;;;;;;;;;;;
835;SQUARE DE L'AVENUE CAFFIERI;Promenades ouvertes;8.566955;11 AV CAFFIERI;75013;Ouvert;Oui;Non;00:00 - 23:59;00:00 - 23:59;00:00 - 23:59;00:00 - 23:59;00:00 - 23:59;00:00 - 23:59;00:00 - 23:59;48.8198640369;2.35130010162
836;Jeu de Boules Saint James;Bois;66.581209;Route de la Muette à Neuilly;75016;;Non;Non;;;;;;;;48.8776563382;2.25872887833
837;Le Chalet de la Croix Catelan;Bois;22.148070999999998;Route de Suresnes;75016;;Non;Non;;;;;;;;48.8670083428;2.25440539692
838;Chalet de vente n° 2 Jeu de Boules de Saint-Mandé;Bois;85.398023;23 w Route du Lac de Saint Mandé;75012;;Non;Non;;;;;;;;48.8384434119;2.42278379406
839;Les Magnolias;Bois;13.630687;Parc Floral;75012;;Non;Non;;;;;;;;48.8375778364;2.44448606231
840;SQUARE FERNAND FOUREAU;Promenades ouvertes;3.0942670000000003;2 AV PORTE VINCENNES;75012;Ouvert;Non;Non;09:30 - 18:00;09:30 - 18:00;09:30 - 18:00;09:30 - 18:00;09:30 - 18:00;09:00 - 18:00;09:00 - 18:00;48.846482767;2.41165045514
841;PARC GEORGES BRASSENS;Promenades ouvertes;36.201754;2 PL JACQUES MARETTE;75015;Ouvert;Non;Oui;08:00 - 18:00;08:00 - 18:00;08:00 - 18:00;08:00 - 18:00;08:00 - 18:00;09:00 - 18:00;09:00 - 18:00;;
842;;;;;;;;;;;;;;;;;
843;Pelouse de la Muette;Bois;6.255828000000001;30 w Chemin de Ceinture du Lac Inférieur;75016;;Non;Non;;;;;;;;48.8642020796;2.26438517971
844;Bois de Boulogne;Bois;2.232487;;75016;Ouvert;Non;Non;00:00 - 23:59;00:00 - 23:59;00:00 - 23:59;00:00 - 23:59;00:00 - 23:59;00:00 - 23:59;00:00 - 23:59;48.8643798177;2.23450563984
845;SQUARE CASTAGNARY - BESSIN;Promenades ouvertes;60.00000000000001;3 RUE DU BOCAGE;75015;Ouvert;Non;Non;08:30 - 18:00;08:30 - 18:00;08:30 - 18:00;08:30 - 18:00;08:30 - 18:00;09:00 - 18:00;09:00 - 18:00;48.8306412275;2.30545023366
846;JARDIN CHRISTIANE DESROCHES NOBLECOURT;Promenades ouvertes;46.834482;1 AV ADRIEN HEBRARD;75016;Ouvert;Non;Non;08:00 - 18:00;08:00 - 18:00;08:00 - 18:00;08:00 - 18:00;08:00 - 18:00;09:00 - 18:00;09:00 - 18:00;48.8530259676;2.27054479584
847;PROMENADE BERNARD LAFAY - C2;Promenades ouvertes;32.883124;4 RUE RAYMOND PITET;75017;Ouvert;Non;Non;08:00 - 18:00;08:00 - 18:00;08:00 - 18:00;08:00 - 18:00;08:00 - 18:00;09:00 - 18:00;09:00 - 18:00;48.8903117563;2.29788778972
848;SQUARE ROGER STEPHANE;Promenades ouvertes;24.145789;7 RUE RECAMIER;75007;;Non;Non;;;;;;;;48.8527674316;2.32801395566
849;Bois de Boulogne;Bois;82.282848;;75016;Ouvert;Non;Non;00:00 - 23:59;00:00 - 23:59;00:00 - 23:59;00:00 - 23:59;00:00 - 23:59;00:00 - 23:59;00:00 - 23:59;;
850;;;;;;;;;;;;;;;;;
851;Bois de Boulogne;Bois;56.632974999999995;;75016;Ouvert;Non;Non;00:00 - 23:59;00:00 - 23:59;00:00 - 23:59;00:00 - 23:59;00:00 - 23:59;00:00 - 23:59;00:00 - 23:59;48.8748351224;2.27418453326
852;Bois de Boulogne;Bois;48.570772;;75016;Ouvert;Non;Non;00:00 - 23:59;00:00 - 23:59;00:00 - 23:59;00:00 - 23:59;00:00 - 23:59;00:00 - 23:59;00:00 - 23:59;48.8776443962;2.27383040183
853;Bois de Boulogne;Bois;43.192764;;75016;Ouvert;Non;Non;00:00 - 23:59;00:00 - 23:59;00:00 - 23:59;00:00 - 23:59;00:00 - 23:59;00:00 - 23:59;00:00 - 23:59;48.859947578;2.22775452724
854;Bois de Boulogne;Bois;70.598573;;75016;Ouvert;Non;Non;00:00 - 23:59;00:00 - 23:59;00:00 - 23:59;00:00 - 23:59;00:00 - 23:59;00:00 - 23:59;00:00 - 23:59;48.8616837812;2.24347800801
855;JARDIN DU VER TETU;Promenades ouvertes;10.0;10 RUE COLETTE MAGNY;75019;Ouvert;Non;Non;08:00 - 18:00;08:00 - 18:00;08:00 - 18:00;08:00 - 18:00;08:00 - 18:00;09:00 - 18:00;09:00 - 18:00;48.8952411632;2.37743105144
856;PROMENADE PEREIRE - MARECHAL JUIN;Promenades ouvertes;2.2349930000000002;7 PL MARECHAL JUIN;75017;Ouvert;Non;Non;08:00 - 18:00;08:00 - 18:00;08:00 - 18:00;08:00 - 18:00;08:00 - 18:00;09:00 - 18:00;09:00 - 18:00;48.8842298845;2.29585814677
857;JARDIN DE LA RUE GINETTE NEVEU;Promenades ouvertes;22.903063000000003;21 RUE GINETTE NEVEU;75018;Ouvert;Non;Non;08:00 - 17:30;08:00 - 17:30;08:00 - 17:30;08:00 - 17:30;08:00 - 17:30;09:00 - 17:30;09:00 - 17:30;48.8999960455;2.34524108044
858;Bois de Vincennes;Bois;51.81623400000001;;75012;Ouvert;Non;Non;00:00 - 23:59;00:00 - 23:59;00:00 - 23:59;00:00 - 23:59;00:00 - 23:59;00:00 - 23:59;00:00 - 23:59;48.8343031556;2.44499114922
859;Bois de Vincennes;Bois;60.82934;;75012;Ouvert;Non;Non;00:00 - 23:59;00:00 - 23:59;00:00 - 23:59;00:00 - 23:59;00:00 - 23:59;00:00 - 23:59;00:00 - 23:59;48.8392862264;2.46480742069
860;Bois de Vincennes;Bois;96.37194;;75012;Ouvert;Non;Non;00:00 - 23:59;00:00 - 23:59;00:00 - 23:59;00:00 - 23:59;00:00 - 23:59;00:00 - 23:59;00:00 - 23:59;48.8207596612;2.43774597111
861;SQUARE RUE PETIT;Promenades ouvertes;27.752253999999997;25 RUE PETIT;75019;;Non;Non;;;;;;;;48.8850630335;2.38207276078
862;SQUARE DE LA MARSEILLAISE;Promenades ouvertes;32.082268;7 RUE MARSEILLAISE;75019;Ouvert;Non;Non;09:30 - 18:00;09:30 - 18:00;09:30 - 18:00;09:30 - 18:00;09:30 - 18:00;09:00 - 18:00;09:00 - 18:00;48.8872938718;2.39762557161
863;SQUARE JULES HENAFFE;Promenades ouvertes;10.375341;1 PL JULES HENAFFE;75014;Ouvert;Oui;Non;00:00 - 23:59;00:00 - 23:59;00:00 - 23:59;00:00 - 23:59;00:00 - 23:59;00:00 - 23:59;00:00 - 23:59;48.8237931092;2.33124710309
864;Bois de Vincennes;Bois;72.962444;;75012;Ouvert;Non;Non;00:00 - 23:59;00:00 - 23:59;00:00 - 23:59;00:00 - 23:59;00:00 - 23:59;00:00 - 23:59;00:00 - 23:59;48.8284029697;2.42512000843
865;Bois de Vincennes;Bois;71.06437700000001;;75012;Ouvert;Non;Non;00:00 - 23:59;00:00 - 23:59;00:00 - 23:59;00:00 - 23:59;00:00 - 23:59;00:00 - 23:59;00:00 - 23:59;48.8182291083;2.44644750161
866;Bois de Vincennes;Bois;72.78591300000001;;75012;Ouvert;Non;Non;00:00 - 23:59;00:00 - 23:59;00:00 - 23:59;00:00 - 23:59;00:00 - 23:59;00:00 - 23:59;00:00 - 23:59;48.8262931981;2.46374828428
867;Bois de Vincennes;Bois;37.567103;;75012;Ouvert;Non;Non;00:00 - 23:59;00:00 - 23:59;00:00 - 23:59;00:00 - 23:59;00:00 - 23:59;00:00 - 23:59;00:00 - 23:59;48.8257295611;2.41362023433
868;PROMENADE PC 12 - CHARENTON - DAUMESNIL;Promenades ouvertes;60.00000000000001;331 RUE DE CHARENTON;75012;Ouvert;Non;Non;00:00 - 23:59;00:00 - 23:59;00:00 - 23:59;00:00 - 23:59;00:00 - 23:59;00:00 - 23:59;00:00 - 23:59;48.8341408332;2.40135887159
869;PROMENADE PC 14 - JEAN MOULIN - DIDOT;Promenades ouvertes;60.00000000000001;60 AVENUE JEAN MOULIN;75014;Ouvert;Non;Non;08:00 - 18:00;08:00 - 18:00;08:00 - 18:00;08:00 - 18:00;08:00 - 18:00;09:00 - 18:00;09:00 - 18:00;48.8263863624;2.31771532898
870;SQUARE GEORGES LAMARQUE;Promenades ouvertes;29.242718;1 RUE FROIDEVAUX;75014;Ouvert;Oui;Non;00:00 - 23:59;00:00 - 23:59;00:00 - 23:59;00:00 - 23:59;00:00 - 23:59;00:00 - 23:59;00:00 - 23:59;48.8347500497;2.33060747402
871;Square de la Salamandre;Promenades ouvertes;58.947784000000006;16 X SQ SALAMANDRE;75020;Ouvert;Non;Non;09:30 - 18:00;09:30 - 18:00;09:30 - 18:00;09:30 - 18:00;09:30 - 18:00;09:00 - 18:00;09:00 - 18:00;48.8579645329;2.40612054881
872;Manège du Jeu de boules de St Mandé;Bois;0.0;15 x Route du Lac de Saint Mandé;75012;;Non;Non;;;;;;;;48.8386235147;2.42221424745
873;Bois de Vincennes;Bois;42.548036;;75012;Ouvert;Non;Non;00:00 - 23:59;00:00 - 23:59;00:00 - 23:59;00:00 - 23:59;00:00 - 23:59;00:00 - 23:59;00:00 - 23:59;48.8283938648;2.4575648722
874;JARDINET DE LA PLACE D'ITALIE OUEST;Jardinets décoratifs;4.952335;4 V PLACE D' ITALIE;75013;;Non;Non;;;;;;;;48.8316989733;2.35468116432
875;SQUARE ROLAND DORGELES;Jardinets décoratifs;41.83477;25   RUE DES SAULES;75018;;Non;Non;;;;;;;;48.8884828402;2.339568064
876;PLATE-BANDE DE LA PLACE DE LA BATAILLE DE STALINGRAD;Jardinets décoratifs;33.781485;4 Q PLACE DE LA BATAILLE DE STALINGRAD;75019;;Non;Non;;;;;;;;48.8836560894;2.36994224285
877;JARDINIERES ANGLES DES RUES DAUMESNIL - CHARENTON;Décorations sur la voie publique;51.152707;197 BIS RUE DE CHARENTON;75012;;Non;Non;;;;;;;;48.8424068551;2.38590492609
878;JARDIN DE LA MAISON DE BALZAC;Jardins privatifs;5.686505;47   RUE RAYNOUARD;75016;;Non;Non;;;;;;;;48.8551661789;2.28075191023
879;JARDIN DU PASSAGE DE L'HOTEL DE SENS;Promenades ouvertes;7.650314;8   RUE DES NONNAINS D HYERES;75004;Ouvert;Non;Non;08:00 - 18:20;08:00 - 18:20;08:00 - 18:20;08:00 - 18:20;08:00 - 18:20;09:00 - 18:20;09:00 - 18:20;48.8538208859;2.35871327234
880;PROMENADE RUE D'AUBERVILLIERS;Promenades ouvertes;10.0;166 RUE D' AUBERVILLIERS;75019;;Non;Non;;;;;;;;48.8946753136;2.37082047542
881;JARDIN DES MARTYRS JUIFS;Promenades ouvertes;9.299125;12 QU GRENELLE;75015;Ouvert;Oui;Non;00:00 - 23:59;00:00 - 23:59;00:00 - 23:59;00:00 - 23:59;00:00 - 23:59;00:00 - 23:59;00:00 - 23:59;48.8537878829;2.28740631914
882;JARDINS D'IMMEUBLES PORTE DE VINCENNES SUD (DIT DELAPORTE);Promenades ouvertes;52.633089;124 RUE LAGNY;75020;Ouvert;Oui;Non;00:00 - 23:59;00:00 - 23:59;00:00 - 23:59;00:00 - 23:59;00:00 - 23:59;00:00 - 23:59;00:00 - 23:59;48.848084393;2.41381576772
883;SQUARE SAMUEL ROUSSEAU;Promenades ouvertes;28.505404000000002;28 RUE LAS CASES;75007;Ouvert;Non;Non;09:30 - 18:00;09:30 - 18:00;09:30 - 18:00;09:30 - 18:00;09:30 - 18:00;09:00 - 18:00;09:00 - 18:00;48.8590307732;2.3197100816
884;SQUARE PIERRE JOSEPH REDOUTE;Promenades ouvertes;44.788651;132 B RUE CHARONNE;75011;Ouvert;Non;Non;08:00 - 18:00;08:00 - 18:00;08:00 - 18:00;08:00 - 18:00;08:00 - 18:00;09:00 - 18:00;09:00 - 18:00;48.8549335858;2.38827338326
885;SQUARE ALESIA-RIDDER;Promenades ouvertes;47.888757;209 RUE ALESIA;75014;Ouvert;Non;Non;08:00 - 19:00;08:00 - 19:00;08:00 - 19:00;08:00 - 19:00;08:00 - 19:00;09:00 - 19:00;09:00 - 19:00;48.8317889116;2.31319363956
886;HIPPODROME D'AUTEUIL, PELOUSE C;Promenades ouvertes;0.552214;3  ROUTE D' AUTEUIL AUX LACS;75016;Ouvert;Non;Non;08:00 - 18:00;08:00 - 18:00;08:00 - 18:00;08:00 - 18:00;08:00 - 18:00;09:00 - 18:00;09:00 - 18:00;48.8556788332;2.25957364597
887;SQUARE LAURENT PRACHE;Promenades ouvertes;37.19824;15 RUE ABBAYE;75006;Ouvert;Non;Non;09:30 - 18:00;09:30 - 18:00;09:30 - 18:00;09:30 - 18:00;09:30 - 18:00;09:00 - 18:00;09:00 - 18:00;48.8542586555;2.33393894465
888;SQUARE MARIE CURIE;Promenades ouvertes;45.639695;29 BD HOPITAL;75013;Ouvert;Non;Non;08:00 - 18:00;08:00 - 18:00;08:00 - 18:00;08:00 - 18:00;08:00 - 18:00;09:00 - 18:00;09:00 - 18:00;48.8407357931;2.36316371248
889;SQUARE CLAUDE DEBUSSY;Promenades ouvertes;15.367833000000001;49 AV MARECHAL FAYOLLE;75016;Ouvert;Oui;Non;00:00 - 23:59;00:00 - 23:59;00:00 - 23:59;00:00 - 23:59;00:00 - 23:59;00:00 - 23:59;00:00 - 23:59;48.8670029693;2.27086250555
890;SEPE Chesnaie, annexe;Bois;12.981221000000001;118 X Route de la Pyramide;75012;;Non;Non;;;;;;;;48.8382097542;2.43980584841
891;SQUARE GASTON BATY;Promenades ouvertes;72.69790400000001;2 RUE MAINE;75014;Ouvert;Non;Non;09:30 - 18:00;09:30 - 18:00;09:30 - 18:00;09:30 - 18:00;09:30 - 18:00;09:00 - 18:00;09:00 - 18:00;48.8407751245;2.3235933959
892;Hippodrome de Longchamp;Bois;7.475505;Route des Tribunes;75016;;Non;Non;;;;;;;;;
893;;;;;;;;;;;;;;;;;
894;Bois de Boulogne;Bois;74.123705;;75016;Ouvert;Non;Non;00:00 - 23:59;00:00 - 23:59;00:00 - 23:59;00:00 - 23:59;00:00 - 23:59;00:00 - 23:59;00:00 - 23:59;;
895;;;;;;;;;;;;;;;;;
896;;;;;;;;;;;;;;;;;
897;PROMENADE JANE ET PAULETTE NARDAL;Promenades ouvertes;40.0;98 RUE DIDOT;75014;Ouvert;Non;Non;08:00 - 18:00;08:00 - 18:00;08:00 - 18:00;08:00 - 18:00;08:00 - 18:00;09:00 - 18:00;09:00 - 18:00;48.8274521186;2.31289372375
898;Bois de Boulogne;Bois;67.12616;;75016;Ouvert;Non;Non;00:00 - 23:59;00:00 - 23:59;00:00 - 23:59;00:00 - 23:59;00:00 - 23:59;00:00 - 23:59;00:00 - 23:59;48.8748164163;2.26158655184
899;SQUARE HENRY BATAILLE;Promenades ouvertes;13.399159;66 BD SUCHET;75016;Ouvert;Oui;Non;00:00 - 23:59;00:00 - 23:59;00:00 - 23:59;00:00 - 23:59;00:00 - 23:59;00:00 - 23:59;00:00 - 23:59;48.8552038452;2.26255251652
900;Bois de Vincennes;Bois;65.258502;;75012;Ouvert;Non;Non;00:00 - 23:59;00:00 - 23:59;00:00 - 23:59;00:00 - 23:59;00:00 - 23:59;00:00 - 23:59;00:00 - 23:59;48.8367160962;2.42266530392
901;Bois de Vincennes;Bois;85.224332;;75012;Ouvert;Non;Non;00:00 - 23:59;00:00 - 23:59;00:00 - 23:59;00:00 - 23:59;00:00 - 23:59;00:00 - 23:59;00:00 - 23:59;48.837701138;2.45612079438
902;Bois de Vincennes;Bois;7.771952;;75012;Ouvert;Non;Non;00:00 - 23:59;00:00 - 23:59;00:00 - 23:59;00:00 - 23:59;00:00 - 23:59;00:00 - 23:59;00:00 - 23:59;48.8199721149;2.45200323729
903;JARDIN DE L'AVENUE FOCH - PELOUSE 14;Promenades ouvertes;23.49918;10 AV FOCH;75016;Ouvert;Oui;Non;00:00 - 23:59;00:00 - 23:59;00:00 - 23:59;00:00 - 23:59;00:00 - 23:59;00:00 - 23:59;00:00 - 23:59;;
904;;;;;;;;;;;;;;;;;
905;PROMENADE PC16 (PETITE CEINTURE);Promenades ouvertes;72.890483;55 RUE RAFFET;75016;Ouvert;Non;Non;08:00 - 18:00;08:00 - 18:00;08:00 - 18:00;08:00 - 18:00;08:00 - 18:00;09:00 - 18:00;09:00 - 18:00;48.8539650339;2.26368169837
906;SQUARE EUGENE THOMAS;Promenades ouvertes;29.709984;187 T RUE CHARENTON;75012;Ouvert;Oui;Non;00:00 - 23:59;00:00 - 23:59;00:00 - 23:59;00:00 - 23:59;00:00 - 23:59;00:00 - 23:59;00:00 - 23:59;48.8411723665;2.38762561865
907;Bois de Vincennes;Bois;89.070945;;75012;Ouvert;Non;Non;00:00 - 23:59;00:00 - 23:59;00:00 - 23:59;00:00 - 23:59;00:00 - 23:59;00:00 - 23:59;00:00 - 23:59;48.8295766968;2.42863223438
908;JARDIN BENOIT FRACHON;Promenades ouvertes;31.688064;1 AV BENOIT FRACHON;75020;Ouvert;Oui;Non;00:00 - 23:59;00:00 - 23:59;00:00 - 23:59;00:00 - 23:59;00:00 - 23:59;00:00 - 23:59;00:00 - 23:59;48.8534532581;2.41514819699
909;SQUARE DU DOCTEUR VARIOT;Promenades ouvertes;37.070439;162 AV GAMBETTA;75020;Ouvert;Oui;Non;00:00 - 23:59;00:00 - 23:59;00:00 - 23:59;00:00 - 23:59;00:00 - 23:59;00:00 - 23:59;00:00 - 23:59;48.8761611115;2.4066209729
910;Les Terrains de Rugby de l'ACBB;Bois;5.84204;Route de la Seine à la Butte Mortemart;75016;;Non;Non;;;;;;;;48.8544749885;2.2282405809
911;Bois de Vincennes;Bois;41.87686;;75012;Ouvert;Non;Non;00:00 - 23:59;00:00 - 23:59;00:00 - 23:59;00:00 - 23:59;00:00 - 23:59;00:00 - 23:59;00:00 - 23:59;48.819073969;2.45711849804
912;PLATE BANDE DE LA RUE DES BERNARDINS;Jardinets décoratifs;28.096384;4   RUE DES BERNARDINS;75005;;Non;Non;;;;;;;;48.8508701168;2.35100877547
913;JARDINET DU BOULEVARD VINCENT AURIOL;Jardinets décoratifs;18.390607;183 V BOULEVARD VINCENT AURIOL;75013;;Non;Non;;;;;;;;48.8315976543;2.35806088599
914;DECORATION DE LA PLACE ALPHONSE DEVILLE;Décorations sur la voie publique;20.905794;1   PLACE ALPHONSE DEVILLE;75006;;Non;Non;;;;;;;;48.8503861519;2.32743571196
915;PROMENADE DE L'ALLEE DU SEMINAIRE - JEAN-JACQUES OLIER;Promenades ouvertes;33.647409;77 A RUE BONAPARTE;75006;;Oui;Non;;;;;;;;48.8491061637;2.33294723111
916;JARDIN DE L'AVENUE FOCH - PELOUSE 17;Promenades ouvertes;17.584455000000002;10 AV FOCH;75016;Ouvert;Oui;Non;00:00 - 23:59;00:00 - 23:59;00:00 - 23:59;00:00 - 23:59;00:00 - 23:59;00:00 - 23:59;00:00 - 23:59;;
917;;;;;;;;;;;;;;;;;
918;;;;;;;;;;;;;;;;;
919;SQUARE DE LA PLACE DAUPHINE;Promenades ouvertes;32.636179;2 PL DAUPHINE;75001;Ouvert;Oui;Non;00:00 - 23:59;00:00 - 23:59;00:00 - 23:59;00:00 - 23:59;00:00 - 23:59;00:00 - 23:59;00:00 - 23:59;48.85650671;2.342578051
920;JARDIN DE NOTRE DAME DE FATIMA;Promenades ouvertes;89.78497899999999;44 BD SERURIER;75019;Ouvert;Oui;Non;00:00 - 23:59;00:00 - 23:59;00:00 - 23:59;00:00 - 23:59;00:00 - 23:59;00:00 - 23:59;00:00 - 23:59;48.8788120993;2.40263772261
921;MAIL MARCEL ACHARD;Promenades ouvertes;38.243819;6 PL MARCEL ACHARD;75019;;Non;Non;;;;;;;;48.8733824277;2.37668485189
922;JARDINS D'IMMEUBLES PORTE DE VINCENNES NORD (DIT CRISTINO GARCIA);Promenades ouvertes;23.43207;115 RUE LAGNY;75020;Ouvert;Oui;Non;00:00 - 23:59;00:00 - 23:59;00:00 - 23:59;00:00 - 23:59;00:00 - 23:59;00:00 - 23:59;00:00 - 23:59;48.849588157;2.4137590885
923;JARDIN DE LA PLACE SOUHAM;Promenades ouvertes;34.128828999999996;5 PL SOUHAM;75013;Ouvert;Oui;Non;00:00 - 23:59;00:00 - 23:59;00:00 - 23:59;00:00 - 23:59;00:00 - 23:59;00:00 - 23:59;00:00 - 23:59;48.8287356455;2.36786506394
924;Bois de Vincennes;Bois;94.620236;;75012;Ouvert;Non;Non;00:00 - 23:59;00:00 - 23:59;00:00 - 23:59;00:00 - 23:59;00:00 - 23:59;00:00 - 23:59;00:00 - 23:59;48.8280518013;2.43002225147
925;Bois de Vincennes;Bois;61.735189;;75012;Ouvert;Non;Non;00:00 - 23:59;00:00 - 23:59;00:00 - 23:59;00:00 - 23:59;00:00 - 23:59;00:00 - 23:59;00:00 - 23:59;48.8189527917;2.4507383567
926;SQUARE SAINT-BERNARD - SAID BOUZIRI;Promenades ouvertes;70.14614999999999;16 RUE AFFRE;75018;Ouvert;Non;Non;08:00 - 18:00;08:00 - 18:00;08:00 - 18:00;08:00 - 18:00;08:00 - 18:00;09:00 - 18:00;09:00 - 18:00;48.886133788;2.35606598575
927;COULEE VERTE RENE DUMONT - PROMENADE DU VIADUC DES ARTS;Promenades ouvertes;23.006293;113 AV DAUMESNIL;75012;Ouvert;Non;Non;08:00 - 19:00;08:00 - 19:00;08:00 - 19:00;08:00 - 19:00;08:00 - 19:00;09:00 - 19:00;09:00 - 19:00;48.8459912947;2.37858243725
928;Annexe Cercle de L'Etrier;Bois;24.835136;157 w Route de Suresnes;75016;;Non;Non;;;;;;;;48.8718234413;2.27233166177
929;Blockhaus Fayolle;Bois;20.479369;50 Avenue du Maréchal Fayolle;75016;;Non;Non;;;;;;;;48.8679913752;2.27039312337
930;JARDIN DE L'AVENUE FOCH - PELOUSE 07;Promenades ouvertes;32.616275;10 AV FOCH;75016;Ouvert;Oui;Non;00:00 - 23:59;00:00 - 23:59;00:00 - 23:59;00:00 - 23:59;00:00 - 23:59;00:00 - 23:59;00:00 - 23:59;;
931;;;;;;;;;;;;;;;;;
932;;;;;;;;;;;;;;;;;
933;SQUARE RAOUL NORDLING;Promenades ouvertes;37.66344;32 RUE SAINT BERNARD;75011;Ouvert;Non;Non;08:00 - 18:00;08:00 - 18:00;08:00 - 18:00;08:00 - 18:00;08:00 - 18:00;09:00 - 18:00;09:00 - 18:00;48.8526579985;2.38156881978
934;SQUARE ULYSSE TRELAT;Promenades ouvertes;16.59937;112 RUE REGNAULT;75013;Ouvert;Non;Non;08:00 - 18:00;08:00 - 18:00;08:00 - 18:00;08:00 - 18:00;08:00 - 18:00;09:00 - 18:00;09:00 - 18:00;48.8230969451;2.36779016242
935;APNLE;Bois;12.455597000000001;9 w Chemin de l'Abbaye;75016;;Non;Non;;;;;;;;48.8662678857;2.23394407928
936;Manège Baby Bateau;Bois;0.0;29 Route de Ceinture du Lac Daumesnil;75012;;Non;Non;;;;;;;;48.8328391623;2.41410519833
937;Location de barques du Lac Daumesnil;Bois;23.386340999999998;43 Route de Ceinture du Lac Daumesnil;75012;;Non;Non;;;;;;;;48.83290922;2.40976985781
938;Les îles du Lac Inférieur;Bois;29.452866999999998;31 w Chemin de Ceinture du Lac Inférieur;75016;;Non;Non;;;;;;;;48.863453808;2.26025036047
939;Gare RATP de Joinville Le Pont;Bois;25.16501;Bois de Vincennes;75012;;Non;Non;;;;;;;;48.8219827284;2.46382997959
940;JARDIN DES CENDRIERS (DIT DES AMANDIERS);Promenades ouvertes;43.719204;30 RUE DURIS;75020;Ouvert;Non;Non;08:00 - 18:00;08:00 - 18:00;08:00 - 18:00;08:00 - 18:00;08:00 - 18:00;09:00 - 18:00;09:00 - 18:00;48.8658837168;2.38823733258
941;JARDIN NATUREL-PIERRE EMMANUEL;Promenades ouvertes;71.071296;114 RUE REUNION;75020;;Non;Non;;;;;;;;48.8588793999;2.39933411939
942;SQUARE PAUL GILOT;Promenades ouvertes;55.882034999999995;38 B RUE CONVENTION;75015;Ouvert;Non;Non;09:30 - 18:00;09:30 - 18:00;09:30 - 18:00;09:30 - 18:00;09:30 - 18:00;09:00 - 18:00;09:00 - 18:00;48.8440821224;2.2804596455
943;SQUARE DU TCHAD;Promenades ouvertes;14.306409;8 AV GENERAL SARRAIL;75016;Ouvert;Non;Non;08:00 - 18:00;08:00 - 18:00;08:00 - 18:00;08:00 - 18:00;08:00 - 18:00;09:00 - 18:00;09:00 - 18:00;48.8462506578;2.25557004807
944;SQUARE THOMAS JEFFERSON;Promenades ouvertes;23.445415;1 PL ETATS UNIS;75016;Ouvert;Non;Non;08:00 - 18:00;08:00 - 18:00;08:00 - 18:00;08:00 - 18:00;08:00 - 18:00;09:00 - 18:00;09:00 - 18:00;48.8679688038;2.29424620129
945;SQUARE CARLO SARRABEZOLLES;Promenades ouvertes;29.977926;1 RUE RENE RAVAUD;75015;Ouvert;Non;Non;08:00 - 18:00;08:00 - 18:00;08:00 - 18:00;08:00 - 18:00;08:00 - 18:00;09:00 - 18:00;09:00 - 18:00;;
946;;;;;;;;;;;;;;;;;
947;JARDIN DU 62 AU 68 RUE D'ALLERAY;Promenades ouvertes;70.889069;62 RUE ALLERAY;75015;Ouvert;Non;Non;08:00 - 18:00;08:00 - 18:00;08:00 - 18:00;08:00 - 18:00;08:00 - 18:00;09:00 - 18:00;09:00 - 18:00;48.8360474713;2.30497952764
948;SQUARE DE LA RUE RENE BINET;Promenades ouvertes;52.69541600000001;42 RUE RENE BINET;75018;Ouvert;Non;Non;08:00 - 18:00;08:00 - 18:00;08:00 - 18:00;08:00 - 18:00;08:00 - 18:00;09:00 - 18:00;09:00 - 18:00;48.89972992;2.33833956224
949;Bois de Boulogne;Bois;76.695278;;75016;Ouvert;Non;Non;00:00 - 23:59;00:00 - 23:59;00:00 - 23:59;00:00 - 23:59;00:00 - 23:59;00:00 - 23:59;00:00 - 23:59;48.8545678951;2.24628592124
950;JARDIN DE LA GARE DE REUILLY;Promenades ouvertes;51.258068;15 ALL VIVALDI;75012;Ouvert;Non;Non;09:30 - 18:00;09:30 - 18:00;09:30 - 18:00;09:30 - 18:00;09:30 - 18:00;09:00 - 18:00;09:00 - 18:00;48.8409597623;2.39234639606
951;JARDIN SAINT-VINCENT;Promenades ouvertes;79.10399;17 RUE SAINT VINCENT;75018;;Non;Non;;;;;;;;48.8882641846;2.3411579182
952;JARDIN FRANCOISE HELENE JOURDA;Promenades ouvertes;0.0;20 Q RUE DEPARTEMENT;75018;Ouvert;Non;Non;08:00 - 18:00;08:00 - 18:00;08:00 - 18:00;08:00 - 18:00;08:00 - 18:00;09:00 - 18:00;09:00 - 18:00;48.8866187938;2.36221433484
953;SQUARE BARYE;Promenades ouvertes;34.083175;2 BD HENRI 4;75004;Ouvert;Oui;Non;00:00 - 23:59;00:00 - 23:59;00:00 - 23:59;00:00 - 23:59;00:00 - 23:59;00:00 - 23:59;00:00 - 23:59;48.8499483687;2.35981894503
954;Bois de Vincennes;Bois;80.99391700000001;;75012;Ouvert;Non;Non;00:00 - 23:59;00:00 - 23:59;00:00 - 23:59;00:00 - 23:59;00:00 - 23:59;00:00 - 23:59;00:00 - 23:59;48.8391782813;2.45361755214
955;PROMENADE PEREIRE - GUERSANT / TERNES;Promenades ouvertes;19.382987;82 B AV TERNES;75017;Ouvert;Non;Non;08:00 - 18:00;08:00 - 18:00;08:00 - 18:00;08:00 - 18:00;08:00 - 18:00;09:00 - 18:00;09:00 - 18:00;48.8805295944;2.28906226636
956;SQUARE PAUL PARAY;Promenades ouvertes;23.254082;24 RUE CHRISTINE PISAN;75017;Ouvert;Non;Non;08:00 - 18:00;08:00 - 18:00;08:00 - 18:00;08:00 - 18:00;08:00 - 18:00;09:00 - 18:00;09:00 - 18:00;48.8897625852;2.30809971317
957;JARDIN DES GRANDS MOULINS - ABBE PIERRE - JARDIN CENTRAL;Promenades ouvertes;0.215388;25 RUE THOMAS MANN;75013;Ouvert;Non;Non;08:00 - 18:00;08:00 - 18:00;08:00 - 18:00;08:00 - 18:00;08:00 - 18:00;09:00 - 18:00;09:00 - 18:00;48.829283262;2.38017155927
958;PARC MARCEL BLEUNSTEIN-BLANCHET DIT PARC DE LA TURLURE;Promenades ouvertes;32.863039;1 RUE BONNE;75018;Ouvert;Non;Non;08:00 - 18:00;08:00 - 18:00;08:00 - 18:00;08:00 - 18:00;08:00 - 18:00;09:00 - 18:00;09:00 - 18:00;48.8878089093;2.34372940957
959;SQUARE HENRI ET ACHILLE DUCHENE;Promenades ouvertes;19.405693000000003;148 RUE VERCINGETORIX;75014;Ouvert;Oui;Non;00:00 - 23:59;00:00 - 23:59;00:00 - 23:59;00:00 - 23:59;00:00 - 23:59;00:00 - 23:59;00:00 - 23:59;48.8322866401;2.31029542296
960;SQUARE ALEXANDRE LUQUET;Promenades ouvertes;42.257191;2 RUE TRANSVAAL;75020;Ouvert;Oui;Non;00:00 - 23:59;00:00 - 23:59;00:00 - 23:59;00:00 - 23:59;00:00 - 23:59;00:00 - 23:59;00:00 - 23:59;48.8713007126;2.38661371897
961;SQUARE ROGER COQUOIN;Promenades ouvertes;48.248259;14 AV FERDINAND BUISSON;75016;Ouvert;Oui;Non;00:00 - 23:59;00:00 - 23:59;00:00 - 23:59;00:00 - 23:59;00:00 - 23:59;00:00 - 23:59;00:00 - 23:59;48.8361455355;2.25497244865
962;BERNARD LAFAY (C3);Promenades ouvertes;31.629104;8 BD REIMS;75017;Ouvert;Oui;Non;08:00 - 18:00;08:00 - 18:00;08:00 - 18:00;08:00 - 18:00;08:00 - 18:00;09:00 - 18:00;09:00 - 18:00;48.8916413955;2.29936386304
963;Société de Jeux de Boules de Passy;Bois;40.942608;39 Avenue de Saint Cloud;75016;;Non;Non;;;;;;;;48.8570305282;2.25203599903
964;Bois de Vincennes;Bois;68.907736;;75012;Ouvert;Non;Non;00:00 - 23:59;00:00 - 23:59;00:00 - 23:59;00:00 - 23:59;00:00 - 23:59;00:00 - 23:59;00:00 - 23:59;48.8302283434;2.43487664441
965;CIMETIERE DE GRENELLE;Cimetières;16.230216;174, rue Saint-Charles;75015;Ouvert;Non;Non;08:00 - 12:00;08:00 - 12:00;08:00 - 12:00;08:00 - 12:00;08:00 - 12:00;08:30 - 12:00;09:00 - 12:00;48.8413301517;2.27975726717
966;SQUARE BELA BARTOK;Promenades ouvertes;38.472079;26 PL BRAZZAVILLE;75015;Ouvert;Oui;Non;00:00 - 23:59;00:00 - 23:59;00:00 - 23:59;00:00 - 23:59;00:00 - 23:59;00:00 - 23:59;00:00 - 23:59;48.8510252088;2.28568815909
967;Les Jardins de Bagatelle;Bois;12.562382999999999;1 X Route de Sèvres à Neuilly;75016;;Non;Non;;;;;;;;48.8700403881;2.24604756805
968;ARCHIPEL DES BERGES DE LA SEINE - NIKI DE SAINT-PHALLE;Promenades ouvertes;0.0;2 W PORT DU GROS CAILLOU;75007;Ouvert;Non;Non;10:00 - 18:00;10:00 - 18:00;10:00 - 18:00;10:00 - 18:00;10:00 - 18:00;10:00 - 18:00;10:00 - 18:00;48.8631132569;2.30465622917
969;LIAISON FOUGÈRES FLEURY;Promenades ouvertes;17.982153;54   RUE LE VAU;75020;;Non;Non;;;;;;;;48.8712291279;2.4118069753
970;ILE DE REUILLY;Promenades ouvertes;36.975495;25 W ROUTE DE CEINTURE DU LAC DAUMESNIL;75012;Ouvert;Non;Non;09:30 - 18:00;09:30 - 18:00;09:30 - 18:00;09:30 - 18:00;09:30 - 18:00;09:30 - 18:00;09:30 - 18:00;48.8307200415;2.41393196218
971;Jardin d'immeubles de la porte de Bagnolet;Promenades ouvertes;44.711463;7 RUE HENRI DUVERNOIS;75020;Ouvert;Oui;Non;00:00 - 23:59;00:00 - 23:59;00:00 - 23:59;00:00 - 23:59;00:00 - 23:59;00:00 - 23:59;00:00 - 23:59;48.8640411129;2.41172287694
972;SQUARE DANIELLE MITTERAND;Promenades ouvertes;34.776358;20 RUE BIEVRE;75005;Ouvert;Non;Non;09:30 - 18:00;09:30 - 18:00;09:30 - 18:00;09:30 - 18:00;09:30 - 18:00;09:00 - 18:00;09:00 - 18:00;48.8505908514;2.35002365052
973;SQUARE FERDINAND BRUNOT;Promenades ouvertes;44.815005;24 T RUE MOUTON DUVERNET;75014;Ouvert;Non;Oui;08:00 - 18:00;08:00 - 18:00;08:00 - 18:00;08:00 - 18:00;08:00 - 18:00;09:00 - 18:00;09:00 - 18:00;48.8325508162;2.32658695805
974;JARDIN FRANCOISE GIROUD;Promenades ouvertes;0.682021;4 PL ITALIE;75013;Ouvert;Oui;Non;00:00 - 23:59;00:00 - 23:59;00:00 - 23:59;00:00 - 23:59;00:00 - 23:59;00:00 - 23:59;00:00 - 23:59;48.8314279389;2.35557714947
975;SQUARE DE LA PLACE DE L'ABBE GEORGES HENOCQUE;Promenades ouvertes;70.140711;1 PL ABBE GEORGES HENOCQUE;75013;Ouvert;Non;Non;09:30 - 18:00;09:30 - 18:00;09:30 - 18:00;09:30 - 18:00;09:30 - 18:00;09:00 - 18:00;09:00 - 18:00;48.8238388788;2.35330486819
976;JARDIN DE L'HOTEL DE SENS;Promenades ouvertes;10.0;8 RUE DES NONNAINS D'HYERES;75004;Ouvert;Non;Non;08:00 - 18:20;08:00 - 18:20;08:00 - 18:20;08:00 - 18:20;08:00 - 18:20;09:00 - 18:20;09:00 - 18:20;48.8536275772;2.35847794764
977;SQUARE OLIVIER NOYER - LEONIDAS;Promenades ouvertes;71.74469599999999;7 RUE LEONIDAS;75014;;Non;Non;;;;;;;;48.8308870561;2.32238432044
978;SQUARE DE LA RUE BURQ;Promenades ouvertes;31.919564;14 RUE BURQ;75018;Ouvert;Non;Non;08:00 - 18:00;08:00 - 18:00;08:00 - 18:00;08:00 - 18:00;08:00 - 18:00;09:00 - 18:00;09:00 - 18:00;48.8864254928;2.33698076466
979;Bois de Boulogne;Bois;84.12507599999999;;75016;Ouvert;Non;Non;00:00 - 23:59;00:00 - 23:59;00:00 - 23:59;00:00 - 23:59;00:00 - 23:59;00:00 - 23:59;00:00 - 23:59;;
980;;;;;;;;;;;;;;;;;
981;Bois de Boulogne;Bois;56.808446;;75016;Ouvert;Non;Non;00:00 - 23:59;00:00 - 23:59;00:00 - 23:59;00:00 - 23:59;00:00 - 23:59;00:00 - 23:59;00:00 - 23:59;48.8663015922;2.23317096604
982;Bois de Boulogne;Bois;43.247996;;75016;Ouvert;Non;Non;00:00 - 23:59;00:00 - 23:59;00:00 - 23:59;00:00 - 23:59;00:00 - 23:59;00:00 - 23:59;00:00 - 23:59;;
983;;;;;;;;;;;;;;;;;
984;Bois de Vincennes;Bois;53.803031000000004;;75012;Ouvert;Non;Non;00:00 - 23:59;00:00 - 23:59;00:00 - 23:59;00:00 - 23:59;00:00 - 23:59;00:00 - 23:59;00:00 - 23:59;48.8342864672;2.44468271711
985;Bois de Boulogne;Bois;53.14370900000001;;75016;Ouvert;Non;Non;00:00 - 23:59;00:00 - 23:59;00:00 - 23:59;00:00 - 23:59;00:00 - 23:59;00:00 - 23:59;00:00 - 23:59;;
986;;;;;;;;;;;;;;;;;
987;JARDIN JAN DOORNIK;Promenades ouvertes;2.449931;27 BD FLANDRIN;75016;;Non;Non;;;;;;;;48.8676055578;2.27318458883
988;SQUARE DU PASSAGE MONCEY;Promenades ouvertes;0.8861819999999999;37 B AV SAINT OUEN;75017;Ouvert;Non;Non;08:00 - 18:00;08:00 - 18:00;08:00 - 18:00;08:00 - 18:00;08:00 - 18:00;09:00 - 18:00;09:00 - 18:00;48.8900077508;2.32574135896
989;SQUARE DE L'OISEAU LUNAIRE;Promenades ouvertes;29.870363;51 RUE BLOMET;75015;Ouvert;Non;Non;09:30 - 18:00;09:30 - 18:00;09:30 - 18:00;09:30 - 18:00;09:30 - 18:00;09:00 - 18:00;09:00 - 18:00;48.8420507688;2.30540966256
990;Bois de Vincennes;Bois;90.98643200000001;;75012;Ouvert;Non;Non;00:00 - 23:59;00:00 - 23:59;00:00 - 23:59;00:00 - 23:59;00:00 - 23:59;00:00 - 23:59;00:00 - 23:59;48.8352184238;2.45434220589
991;JARDIN DE L'HOPITAL SAINT-LOUIS;Promenades ouvertes;60.00000000000001;40 RUE BICHAT;75010;Ouvert;Non;Non;11:00 - 18:00;11:00 - 18:00;11:00 - 18:00;11:00 - 18:00;11:00 - 18:00;11:00 - 18:00;11:00 - 18:00;48.8732982386;2.36754915891
992;JARDIN MARTHA  DESRUMAUX;Promenades ouvertes;40.0;20 RUE DE REUILLY;75012;Ouvert;Non;Non;08:00 - 18:00;08:00 - 18:00;08:00 - 18:00;08:00 - 18:00;08:00 - 18:00;09:00 - 18:00;09:00 - 18:00;48.8485365586;2.38517099918
993;PROMENADE PEREIRE - LAUGIER / BAYEN;Promenades ouvertes;11.607636000000001;51 RUE LAUGIER;75017;Ouvert;Non;Non;08:00 - 18:00;08:00 - 18:00;08:00 - 18:00;08:00 - 18:00;08:00 - 18:00;09:00 - 18:00;09:00 - 18:00;48.8825269395;2.2927239475
994;SQUARE AMADOU HAMPATE BA;Promenades ouvertes;0.0;19 RUE BOY ZELENSKI;75010;Ouvert;Oui;Non;00:00 - 23:59;00:00 - 23:59;00:00 - 23:59;00:00 - 23:59;00:00 - 23:59;00:00 - 23:59;00:00 - 23:59;48.877566214;2.36823039923
995;Bois de Vincennes;Bois;45.814479999999996;;75012;Ouvert;Non;Non;00:00 - 23:59;00:00 - 23:59;00:00 - 23:59;00:00 - 23:59;00:00 - 23:59;00:00 - 23:59;00:00 - 23:59;48.8227409666;2.46290040482
996;Bois de Vincennes;Bois;64.571062;;75012;Ouvert;Non;Non;00:00 - 23:59;00:00 - 23:59;00:00 - 23:59;00:00 - 23:59;00:00 - 23:59;00:00 - 23:59;00:00 - 23:59;48.8446621382;2.44427657097
997;Bois de Vincennes;Bois;65.263447;;75012;Ouvert;Non;Non;00:00 - 23:59;00:00 - 23:59;00:00 - 23:59;00:00 - 23:59;00:00 - 23:59;00:00 - 23:59;00:00 - 23:59;48.8454163629;2.44364705006
998;PROMENADE PEREIRE - LEBON / GUERSANT;Promenades ouvertes;7.537463;23 RUE LEBON;75017;Ouvert;Non;Non;08:00 - 18:00;08:00 - 18:00;08:00 - 18:00;08:00 - 18:00;08:00 - 18:00;09:00 - 18:00;09:00 - 18:00;48.881337793;2.29052329155
999;JARDIN LUC HOFFMANN;Promenades ouvertes;5.740121;10 RUE MAROC;75019;Ouvert;Non;Non;09:30 - 18:00;09:30 - 18:00;09:30 - 18:00;09:30 - 18:00;09:30 - 18:00;09:00 - 18:00;09:00 - 18:00;48.8867462044;2.37050362541
1000;Square de la rue Pixérécourt;Promenades ouvertes;1.027856;50 RUE PIXERECOURT;75020;Ouvert;Non;Non;08:00 - 18:00;08:00 - 18:00;08:00 - 18:00;08:00 - 18:00;08:00 - 18:00;09:00 - 18:00;09:00 - 18:00;48.8733782918;2.39626211297
1001;JARDIN DU GENERAL ANSELIN;Promenades ouvertes;59.89657700000001;1 AV POLOGNE;75016;Ouvert;Oui;Non;00:00 - 23:59;00:00 - 23:59;00:00 - 23:59;00:00 - 23:59;00:00 - 23:59;00:00 - 23:59;00:00 - 23:59;48.8687537159;2.27236042808
1002;SQUARE ALFRED CAPUS;Promenades ouvertes;35.894836000000005;116 B BD SUCHET;75016;Ouvert;Oui;Non;00:00 - 23:59;00:00 - 23:59;00:00 - 23:59;00:00 - 23:59;00:00 - 23:59;00:00 - 23:59;00:00 - 23:59;48.8508784436;2.25978288866
1003;SQUARE LOUIS XVI;Promenades ouvertes;65.910725;29 RUE PASQUIER;75008;Ouvert;Non;Non;08:00 - 18:00;08:00 - 18:00;08:00 - 18:00;08:00 - 18:00;08:00 - 18:00;09:00 - 18:00;09:00 - 18:00;48.8738203991;2.3232173139
1004;Square de la rue des Muriers;Promenades ouvertes;57.96192799999999;4 RUE PRUNIERS;75020;Ouvert;Non;Non;09:30 - 18:00;09:30 - 18:00;09:30 - 18:00;09:30 - 18:00;09:30 - 18:00;09:00 - 18:00;09:00 - 18:00;48.8646955708;2.39073491841
1005;Jardin de la rue Noël BALLAY;Promenades ouvertes;61.442843;2 RUE NOEL BALLAY;75020;Ouvert;Oui;Non;00:00 - 23:59;00:00 - 23:59;00:00 - 23:59;00:00 - 23:59;00:00 - 23:59;00:00 - 23:59;00:00 - 23:59;48.8477367952;2.41228238097
1006;Jeu de boules de Vincennes;Bois;61.570443;16 w Route du Donjon;75012;;Non;Non;;;;;;;;48.8444880681;2.44844944323
1007;Amicale des Pêcheurs;Bois;12.062219;19 Avenue de la Porte de Charenton;75012;;Non;Non;;;;;;;;48.8300269621;2.40084155781
1008;Chalet des Iles Daumesnil;Bois;32.736202000000006;25 w Route de Ceinture du Lac Daumesnil;75012;;Non;Non;;;;;;;;48.8310457113;2.41333716821
1009;Chalet du Lac de Saint Mandé;Bois;61.514542999999996;1 w Avenue de Bel Air;75012;;Non;Non;;;;;;;;48.8427895364;2.42238870728
1010;Bois de Vincennes;Bois;26.704039;;75012;Ouvert;Non;Non;00:00 - 23:59;00:00 - 23:59;00:00 - 23:59;00:00 - 23:59;00:00 - 23:59;00:00 - 23:59;00:00 - 23:59;48.8331128818;2.44111225896
1011;Centre Sportif de la Croix Catelan;Bois;15.158924;Chemin de la Croix Catelan;75016;;Non;Non;;;;;;;;48.8644928254;2.25710674806